SUBURB_ID,LOCALITY_NAME,SUBURB_NAME,STATE,POSTCODE,LONGITUDE,LATITUDE
836,MELBOURNE,Abbotsford,VIC,3067,144.997162,-37.803131 
837,MELBOURNE,Aberfeldie,VIC,3040,144.895828,-37.759361 
838,MELBOURNE,Airport West,VIC,3042,144.875732,-37.715755 
839,MELBOURNE,Albert Park,VIC,3206,144.955017,-37.831139 
840,MELBOURNE,Albion,VIC,3020,144.815765,-37.77557 
841,MELBOURNE,Alphington,VIC,3078,145.024948,-37.779819 
842,MELBOURNE,Altona,VIC,3018,144.824814,-37.863811 
843,MELBOURNE,Altona Meadows,VIC,3028,144.924896,-37.796295 
844,MELBOURNE,Altona North,VIC,3025,144.926697,-37.798244 
845,MELBOURNE,Ardeer,VIC,3022,144.799973,-37.772041 
846,MELBOURNE,Armadale,VIC,3143,145.021164,-37.85556 
847,MELBOURNE,Arthurs Seat,VIC,3936,144.974762,-38.362545 
848,MELBOURNE,Ascot Vale,VIC,3032,144.923615,-37.774422 
849,MELBOURNE,Ascot Vale West,VIC,3032,144.921555,-37.786484 
850,MELBOURNE,Ashburton,VIC,3147,145.077271,-37.863121 
851,MELBOURNE,Ashwood,VIC,3147,145.103577,-37.866989 
852,MELBOURNE,Aspendale,VIC,3195,145.102142,-38.026901 
853,MELBOURNE,Aspendale Gardens,VIC,3195,145.248444,-38.061077 
854,MELBOURNE,Attwood,VIC,3049,144.887863,-37.66991 
855,MELBOURNE,Avondale Heights,VIC,3034,144.864922,-37.762955 
856,MELBOURNE,Avonsleigh,VIC,3782,145.453934,-37.917339 
857,MELBOURNE,Badger Creek,VIC,3777,145.522507,-37.654602 
858,MELBOURNE,Balaclava,VIC,3183,144.995834,-37.869049 
859,MELBOURNE,Balnarring,VIC,3926,145.125427,-38.37389 
860,MELBOURNE,Balnarring Beach,VIC,3926,145.126617,-38.375446 
861,MELBOURNE,Balwyn,VIC,3103,145.081482,-37.812099 
862,MELBOURNE,Balwyn North,VIC,3104,145.079285,-37.823608 
863,MELBOURNE,Bangholme,VIC,3175,145.190277,-38.036537 
864,MELBOURNE,Batman's Hill ,VIC,3008,144.952667,-37.81041 
865,MELBOURNE,Baxter,VIC,3911,145.16243,-38.189362 
866,MELBOURNE,Bayles,VIC,3981,145.030472,-37.975681 
867,MELBOURNE,Bayswater,VIC,3153,145.265823,-37.840912 
868,MELBOURNE,Bayswater North,VIC,3153,144.925064,-37.792667 
869,MELBOURNE,Beacon Cove ,VIC,3207,145.030472,-37.975681 
870,MELBOURNE,Beaconsfield,VIC,3807,145.367996,-38.045528 
871,MELBOURNE,Beaconsfield Upper,VIC,3808,144.94426,-37.845791 
872,MELBOURNE,Beaumaris,VIC,3193,145.051376,-37.986069 
873,MELBOURNE,Beenak,VIC,3139,145.025635,-37.710789 
874,MELBOURNE,Belgrave,VIC,3160,145.356018,-37.908859 
875,MELBOURNE,Belgrave Heights,VIC,3160,145.362442,-37.915092 
876,MELBOURNE,Belgrave South,VIC,3160,145.041183,-37.827473 
877,MELBOURNE,Bellfield,VIC,3081,145.037827,-37.750229 
878,MELBOURNE,Bend of Islands,VIC,3043,145.030472,-37.975681 
879,MELBOURNE,Bennettswood,VIC,3125,145.10408,-37.845982 
880,MELBOURNE,Bentleigh,VIC,3204,145.026962,-37.91193 
881,MELBOURNE,Bentleigh East,VIC,3165,145.183273,-37.85083 
882,MELBOURNE,Berwick,VIC,3806,145.347321,-38.030628 
883,MELBOURNE,Bittern,VIC,3918,145.178482,-38.33559 
884,MELBOURNE,Black Rock,VIC,3193,144.923279,-37.573074 
885,MELBOURNE,Blackburn,VIC,3130,145.154007,-37.818489 
886,MELBOURNE,Blackburn North,VIC,3130,145.152664,-37.82193 
887,MELBOURNE,Blackburn South,VIC,3130,145.152664,-37.82193 
888,MELBOURNE,Blairgowrie,VIC,3942,144.777115,-38.36047 
889,MELBOURNE,Blind Bight,VIC,3980,145.344086,-38.210564 
890,MELBOURNE,Bonbeach,VIC,3197,145.138046,-38.06839 
891,MELBOURNE,Boneo,VIC,3939,144.887665,-38.408596 
892,MELBOURNE,Boronia,VIC,3155,145.285614,-37.862469 
893,MELBOURNE,Box Hill,VIC,3128,145.109375,-37.818825 
894,MELBOURNE,Box Hill North,VIC,3128,145.172516,-37.908203 
895,MELBOURNE,Box Hill South,VIC,3129,145.172516,-37.908203 
896,MELBOURNE,Braeside,VIC,3195,145.113754,-38.008438 
897,MELBOURNE,Braybrook,VIC,3019,144.856506,-37.78022 
898,MELBOURNE,Briar Hill,VIC,3088,144.928604,-37.750366 
899,MELBOURNE,Brighton,VIC,3186,144.998276,-37.91008 
900,MELBOURNE,Brighton East,VIC,3187,144.999466,-37.826031 
901,MELBOURNE,Broadmeadows,VIC,3047,144.926346,-37.686069 
902,MELBOURNE,Brookfield,VIC,3338,144.555008,-37.700081 
903,MELBOURNE,Brooklyn,VIC,3012,144.849243,-37.820518 
904,MELBOURNE,Brunswick,VIC,3056,144.962631,-37.763828 
905,MELBOURNE,Brunswick East,VIC,3057,144.976532,-37.778908 
906,MELBOURNE,Brunswick West,VIC,3055,144.937851,-37.773838 
907,MELBOURNE,Bulla,VIC,3428,144.910385,-37.744423 
908,MELBOURNE,Bulleen,VIC,3105,145.092102,-37.755852 
909,MELBOURNE,Bundoora,VIC,3083,145.069702,-37.701069 
910,MELBOURNE,Bunyip,VIC,3815,145.030472,-37.975681 
911,MELBOURNE,Burnley,VIC,3121,145.012726,-37.828232 
912,MELBOURNE,Burnside,VIC,3023,144.754608,-37.761581 
913,MELBOURNE,Burwood,VIC,3125,145.120117,-37.849659 
914,MELBOURNE,Burwood East,VIC,3151,145.024063,-37.821278 
915,MELBOURNE,Cairnlea,VIC,3023,144.778015,-37.752079 
916,MELBOURNE,Calder Park,VIC,3037,144.756485,-37.702492 
917,MELBOURNE,Caldermeade,VIC,3984,145.539536,-38.245125 
918,MELBOURNE,Camberwell,VIC,3124,145.062531,-37.836311 
919,MELBOURNE,Campbellfield,VIC,3061,144.950546,-37.666828 
920,MELBOURNE,Cannons Creek,VIC,3977,145.309998,-38.202366 
921,MELBOURNE,Canterbury,VIC,3126,145.080826,-37.825218 
922,MELBOURNE,Cape Schanck,VIC,3939,144.902924,-38.461491 
923,MELBOURNE,Cardinia,VIC,3978,145.426804,-38.134811 
924,MELBOURNE,Carlton,VIC,3053,144.969482,-37.801041 
925,MELBOURNE,Carlton North,VIC,3054,144.962875,-37.804192 
926,MELBOURNE,Carnegie,VIC,3163,145.056763,-37.890759 
927,MELBOURNE,Caroline Springs,VIC,3023,144.739624,-37.755386 
928,MELBOURNE,Carrum,VIC,3197,145.133926,-38.07431 
929,MELBOURNE,Carrum Downs,VIC,3201,145.189713,-38.087704 
930,MELBOURNE,Catani,VIC,3981,145.030472,-37.975681 
931,MELBOURNE,Caulfield,VIC,3162,145.216507,-37.85817 
932,MELBOURNE,Caulfield East,VIC,3145,145.216507,-37.85817 
933,MELBOURNE,Caulfield North,VIC,3161,145.216507,-37.85817 
934,MELBOURNE,Chadstone,VIC,3148,145.096893,-37.8811 
935,MELBOURNE,Chelsea,VIC,3196,145.113953,-38.048111 
936,MELBOURNE,Chelsea Heights,VIC,3196,145.123932,-38.048874 
937,MELBOURNE,Cheltenham,VIC,3192,145.073853,-37.967621 
938,MELBOURNE,Chirnside Park,VIC,3116,145.340607,-38.050858 
939,MELBOURNE,Christmas Hills,VIC,3775,145.36438,-37.616611 
940,MELBOURNE,Chum Creek,VIC,3777,145.267136,-37.547722 
941,MELBOURNE,City of Maribyrnong,VIC,3016,144.887375,-37.772415 
942,MELBOURNE,Clarinda,VIC,3169,145.104065,-37.941399 
943,MELBOURNE,Clarkefield,VIC,3430,145.276764,-37.911167 
944,MELBOURNE,Clayton,VIC,3168,145.119659,-37.925491 
945,MELBOURNE,Clayton South,VIC,3169,145.116104,-37.943962 
946,MELBOURNE,Clematis,VIC,3782,145.362305,-37.914001 
947,MELBOURNE,Clifton Hill,VIC,3068,144.992142,-37.784309 
948,MELBOURNE,Clyde,VIC,3978,145.335571,-38.07336 
949,MELBOURNE,Clyde North,VIC,3978,144.980515,-37.864372 
950,MELBOURNE,Coburg,VIC,3058,144.96727,-37.74139 
951,MELBOURNE,Coburg North,VIC,3058,144.971054,-37.746197 
952,MELBOURNE,Cockatoo,VIC,3781,145.030472,-37.975681 
953,MELBOURNE,Coldstream,VIC,3770,145.030472,-37.975681 
954,MELBOURNE,Collingwood,VIC,3066,144.987564,-37.79929 
955,MELBOURNE,Coode Island ,VIC,3003,144.928253,-37.813011 
956,MELBOURNE,Coolaroo,VIC,3048,144.938034,-37.664051 
957,MELBOURNE,Coonans Hill ,VIC,3044,144.935883,-37.751717 
958,MELBOURNE,Cora Lynn,VIC,3814,145.030472,-37.975681 
959,MELBOURNE,Cottles Bridge,VIC,3099,145.003815,-37.632782 
960,MELBOURNE,Craigieburn,VIC,3064,144.944885,-37.59951 
961,MELBOURNE,Cranbourne,VIC,3977,145.266373,-38.080952 
962,MELBOURNE,Cranbourne East,VIC,3977,145.12619,-38.145687 
963,MELBOURNE,Cranbourne North,VIC,3977,145.269081,-38.157131 
964,MELBOURNE,Cranbourne South,VIC,3977,145.269081,-38.157131 
965,MELBOURNE,Cranbourne West,VIC,3977,145.12619,-38.145687 
966,MELBOURNE,Cremorne,VIC,3121,144.993668,-37.825218 
967,MELBOURNE,Crib Point,VIC,3919,145.203705,-38.349609 
968,MELBOURNE,Croydon,VIC,3136,145.279739,-37.798908 
969,MELBOURNE,Croydon Hills,VIC,3136,145.274826,-37.774292 
970,MELBOURNE,Croydon North,VIC,3136,145.09343,-37.82328 
971,MELBOURNE,Croydon South,VIC,3136,145.09343,-37.82328 
972,MELBOURNE,Dallas,VIC,3047,144.933029,-37.665489 
973,MELBOURNE,Dalmore,VIC,3981,145.217651,-37.904819 
974,MELBOURNE,Dandenong,VIC,3175,145.218216,-37.985321 
975,MELBOURNE,Dandenong North,VIC,3175,145.199371,-37.994633 
976,MELBOURNE,Dandenong South,VIC,3175,145.199371,-37.994633 
977,MELBOURNE,Deer Park,VIC,3023,144.769455,-37.770267 
978,MELBOURNE,Delahey,VIC,3037,144.770493,-37.720032 
979,MELBOURNE,Derrimut,VIC,3030,144.680389,-37.893944 
980,MELBOURNE,Devon Meadows,VIC,3977,144.92334,-37.79583 
981,MELBOURNE,Dewhurst,VIC,3808,145.447678,-37.94149 
982,MELBOURNE,Diamond Creek,VIC,3089,145.146072,-37.675117 
983,MELBOURNE,Diggers Rest,VIC,3427,145.030472,-37.975681 
984,MELBOURNE,Digital Harbour ,VIC,3008,145.030472,-37.975681 
985,MELBOURNE,Dingley Village,VIC,3172,145.138626,-37.986259 
986,MELBOURNE,Dixons Creek,VIC,3775,145.103256,-37.618935 
987,MELBOURNE,Docklands,VIC,3008,144.946304,-37.819031 
988,MELBOURNE,Don Valley,VIC,3139,145.106735,-37.718716 
989,MELBOURNE,Doncaster,VIC,3108,145.132874,-37.770561 
990,MELBOURNE,Doncaster East,VIC,3109,145.160477,-37.788891 
991,MELBOURNE,Donvale,VIC,3111,145.181458,-37.78476 
992,MELBOURNE,Doreen,VIC,3754,145.338654,-37.807434 
993,MELBOURNE,Doveton,VIC,3177,145.240463,-37.987808 
994,MELBOURNE,Dromana,VIC,3936,144.964447,-38.332878 
995,MELBOURNE,Eaglemont,VIC,3084,145.067581,-37.764221 
996,MELBOURNE,East Melbourne,VIC,3002,144.968796,-37.813217 
997,MELBOURNE,Eden Park,VIC,3757,145.061447,-38.231148 
998,MELBOURNE,Edithvale,VIC,3196,145.113708,-38.03698 
999,MELBOURNE,Elsternwick,VIC,3185,145.005066,-37.88483 
1000,MELBOURNE,Eltham,VIC,3095,145.150116,-37.714539 
1001,MELBOURNE,Eltham North,VIC,3095,144.930969,-37.784832 
1002,MELBOURNE,Elwood,VIC,3184,144.984512,-37.882401 
1003,MELBOURNE,Emerald,VIC,3782,145.313034,-37.999687 
1004,MELBOURNE,Endeavour Hills,VIC,3802,145.255852,-37.969006 
1005,MELBOURNE,Epping,VIC,3076,145.026169,-37.646172 
1006,MELBOURNE,Epping North ,VIC,3076,145.030472,-37.975681 
1007,MELBOURNE,Essendon,VIC,3040,144.909515,-37.751541 
1008,MELBOURNE,Essendon North,VIC,3041,144.911583,-37.72686 
1009,MELBOURNE,Essendon West,VIC,3040,144.906052,-37.751566 
1010,MELBOURNE,Eumemmerring,VIC,3177,145.249985,-37.999142 
1011,MELBOURNE,Fairfield,VIC,3078,145.023041,-37.772099 
1012,MELBOURNE,Fawkner,VIC,3060,144.962723,-37.701359 
1013,MELBOURNE,Ferntree Gully,VIC,3156,145.261185,-37.889885 
1014,MELBOURNE,Ferntree Gully Upper,VIC,3139,145.261185,-37.889885 
1015,MELBOURNE,Ferny Creek,VIC,3786,145.336716,-37.88308 
1016,MELBOURNE,Fitzroy,VIC,3065,144.979004,-37.798389 
1017,MELBOURNE,Fitzroy North,VIC,3068,144.97818,-37.793503 
1018,MELBOURNE,Five Ways,VIC,3977,145.150543,-37.99155 
1019,MELBOURNE,Flemington,VIC,3031,144.92157,-37.786461 
1020,MELBOURNE,Flinders,VIC,3929,145.030472,-37.975681 
1021,MELBOURNE,Footscray,VIC,3011,144.891251,-37.791698 
1022,MELBOURNE,Forest Hill,VIC,3131,144.995789,-37.83717 
1023,MELBOURNE,Frankston,VIC,3199,145.121826,-38.141571 
1024,MELBOURNE,Frankston North,VIC,3200,144.998596,-37.724625 
1025,MELBOURNE,Frankston South,VIC,3199,144.998596,-37.724625 
1026,MELBOURNE,Garden City ,VIC,3207,145.030472,-37.975681 
1027,MELBOURNE,Gardenvale,VIC,3185,145.005112,-37.896141 
1028,MELBOURNE,Garfield,VIC,3814,145.030472,-37.975681 
1029,MELBOURNE,Gembrook,VIC,3783,144.597107,-37.874035 
1030,MELBOURNE,Gladstone Park,VIC,3043,144.884735,-37.689541 
1031,MELBOURNE,Glen Huntly,VIC,3163,145.053482,-37.890789 
1032,MELBOURNE,Glen Iris,VIC,3146,145.066864,-37.856365 
1033,MELBOURNE,Glen Waverley,VIC,3150,145.176422,-37.890263 
1034,MELBOURNE,Glenroy,VIC,3046,144.920547,-37.705429 
1035,MELBOURNE,Goonawarra,VIC,3429,144.996124,-37.674664 
1036,MELBOURNE,Gowanbrae,VIC,3043,144.898911,-37.702141 
1037,MELBOURNE,Greensborough,VIC,3088,145.102142,-37.704491 
1038,MELBOURNE,Greenvale,VIC,3059,144.899277,-37.63728 
1039,MELBOURNE,Greythorn,VIC,3104,145.091263,-37.792389 
1040,MELBOURNE,Gruyere,VIC,3770,145.065323,-37.780457 
1041,MELBOURNE,Guys Hill,VIC,3807,145.317749,-37.907562 
1042,MELBOURNE,Hadfield,VIC,3046,144.949615,-37.71051 
1043,MELBOURNE,Hallam,VIC,3803,145.278961,-38.007381 
1044,MELBOURNE,Hampton,VIC,3188,145.002197,-37.939159 
1045,MELBOURNE,Hampton East,VIC,3189,145.047745,-37.761627 
1046,MELBOURNE,Hampton Park,VIC,3976,145.25975,-38.02879 
1047,MELBOURNE,Harkaway,VIC,3806,145.352371,-37.98782 
1048,MELBOURNE,Hartwell,VIC,3124,145.067596,-37.846581 
1049,MELBOURNE,Hastings,VIC,3915,145.191299,-38.307701 
1050,MELBOURNE,Hawthorn,VIC,3122,145.030624,-37.82864 
1051,MELBOURNE,Hawthorn East,VIC,3123,145.04982,-37.831976 
1052,MELBOURNE,Healesville,VIC,3777,145.507095,-37.654091 
1053,MELBOURNE,Heatherdale,VIC,3132,145.206696,-37.823002 
1054,MELBOURNE,Heatherton,VIC,3202,145.084015,-37.953991 
1055,MELBOURNE,Heathmont,VIC,3135,145.245453,-37.828999 
1056,MELBOURNE,Heidelberg,VIC,3084,145.069366,-37.75803 
1057,MELBOURNE,Heidelberg Heights,VIC,3081,145.045731,-37.74267 
1058,MELBOURNE,Heidelberg West,VIC,3081,144.99205,-37.78809 
1059,MELBOURNE,Highett,VIC,3190,145.026611,-37.946918 
1060,MELBOURNE,Hillside,VIC,3037,144.744736,-37.688641 
1061,MELBOURNE,HMAS Cerberus,VIC,3920,145.200409,-38.381704 
1062,MELBOURNE,Hoddles Creek,VIC,3139,145.504166,-37.545219 
1063,MELBOURNE,Hoppers Crossing,VIC,3029,144.69191,-37.819311 
1064,MELBOURNE,Houston,VIC,3128,145.133209,-37.841499 
1065,MELBOURNE,Hughesdale,VIC,3166,145.080841,-37.900188 
1066,MELBOURNE,Huntingdale,VIC,3166,145.103836,-37.909351 
1067,MELBOURNE,Hurstbridge,VIC,3099,144.899109,-37.656502 
1068,MELBOURNE,Iona,VIC,3815,145.030472,-37.975681 
1069,MELBOURNE,Ivanhoe,VIC,3079,145.045593,-37.76619 
1070,MELBOURNE,Ivanhoe East,VIC,3079,145.026764,-37.685196 
1071,MELBOURNE,Jacana,VIC,3047,144.913498,-37.687351 
1072,MELBOURNE,Jacksons Hill ,VIC,3429,145.395508,-37.904778 
1073,MELBOURNE,Jolimont,VIC,3002,144.981705,-37.81675 
1074,MELBOURNE,Junction Village,VIC,3977,145.269081,-38.157131 
1075,MELBOURNE,Kalkallo,VIC,3064,145.278442,-38.050446 
1076,MELBOURNE,Kallista,VIC,3791,145.391418,-37.898529 
1077,MELBOURNE,Kalorama,VIC,3766,145.366714,-37.81794 
1078,MELBOURNE,Kananook,VIC,3198,145.129303,-38.123611 
1079,MELBOURNE,Kangaroo Ground,VIC,3097,145.030472,-37.975681 
1080,MELBOURNE,Kealba,VIC,3021,144.81572,-37.730061 
1081,MELBOURNE,Keilor,VIC,3036,144.830963,-37.717381 
1082,MELBOURNE,Keilor Downs,VIC,3038,144.79493,-37.704365 
1083,MELBOURNE,Keilor East,VIC,3033,144.870529,-37.730042 
1084,MELBOURNE,Keilor North,VIC,3036,144.797699,-37.698391 
1085,MELBOURNE,Keilor Park,VIC,3042,144.857376,-37.716938 
1086,MELBOURNE,Kensington,VIC,3031,144.927628,-37.794159 
1087,MELBOURNE,Kerrimuir,VIC,3129,145.13858,-37.810001 
1088,MELBOURNE,Kew,VIC,3101,145.034485,-37.807289 
1089,MELBOURNE,Kew East,VIC,3102,145.184036,-37.801975 
1090,MELBOURNE,Keysborough,VIC,3173,145.175674,-37.993118 
1091,MELBOURNE,Kilsyth,VIC,3137,145.314972,-37.80265 
1092,MELBOURNE,Kilsyth South,VIC,3137,145.316406,-37.80658 
1093,MELBOURNE,Kinglake,VIC,3763,144.602203,-37.865196 
1094,MELBOURNE,Kings Park,VIC,3021,145.020279,-37.855679 
1095,MELBOURNE,Kingsbury,VIC,3083,145.041245,-37.71587 
1096,MELBOURNE,Kingsville,VIC,3012,144.879791,-37.80563 
1097,MELBOURNE,Knoxfield,VIC,3180,145.253067,-37.87608 
1098,MELBOURNE,Konagaderra Springs ,VIC,3064,144.845596,-37.576263 
1099,MELBOURNE,Koo Wee Rup,VIC,3815,145.491501,-38.086273 
1100,MELBOURNE,Kooyong,VIC,3144,145.035004,-37.844212 
1101,MELBOURNE,Kurunjang,VIC,3337,145.095306,-37.732117 
1102,MELBOURNE,Laburnum,VIC,3130,145.149353,-37.832561 
1103,MELBOURNE,Lalor,VIC,3075,145.015503,-37.671581 
1104,MELBOURNE,Lang Lang,VIC,3984,144.973831,-37.702305 
1105,MELBOURNE,Langwarrin,VIC,3910,145.204208,-38.144901 
1106,MELBOURNE,Launching Place,VIC,3139,145.127426,-38.072819 
1107,MELBOURNE,Laverton,VIC,3028,144.769699,-37.86277 
1108,MELBOURNE,Laverton North,VIC,3026,144.891373,-37.862774 
1109,MELBOURNE,Lilydale,VIC,3140,145.37162,-37.76178 
1110,MELBOURNE,Lower Plenty,VIC,3093,145.107529,-37.730049 
1111,MELBOURNE,Lynbrook,VIC,3975,145.253174,-38.05302 
1112,MELBOURNE,Lyndhurst,VIC,3975,145.18251,-38.165974 
1113,MELBOURNE,Lysterfield,VIC,3156,145.28392,-37.925301 
1114,MELBOURNE,Lysterfield South,VIC,3156,144.908264,-37.613247 
1115,MELBOURNE,Macclesfield,VIC,3782,145.466797,-37.921333 
1116,MELBOURNE,Macleod,VIC,3085,145.073044,-37.722858 
1117,MELBOURNE,Macleod West ,VIC,3085,145.249603,-38.049191 
1118,MELBOURNE,Maidstone,VIC,3012,144.869476,-37.783058 
1119,MELBOURNE,Main Ridge,VIC,3928,144.946365,-37.687996 
1120,MELBOURNE,Malvern,VIC,3144,145.036896,-37.852539 
1121,MELBOURNE,Malvern East,VIC,3145,145.067093,-37.877277 
1122,MELBOURNE,Mambourin,VIC,3024,144.651642,-37.898636 
1123,MELBOURNE,Maribyrnong,VIC,3032,144.886475,-37.769112 
1124,MELBOURNE,Maryknoll,VIC,3812,145.030472,-37.975681 
1125,MELBOURNE,McKinnon,VIC,3204,145.039597,-37.911221 
1126,MELBOURNE,Meadow Heights,VIC,3048,144.926422,-37.652353 
1127,MELBOURNE,Melbourne,VIC,3004,144.976334,-37.837324 
1128,MELBOURNE,Melbourne Airport,VIC,3045,144.853516,-37.670551 
1129,MELBOURNE,Melton,VIC,3337,145.030472,-37.975681 
1130,MELBOURNE,Melton South,VIC,3338,145.049622,-37.899933 
1131,MELBOURNE,Melton West,VIC,3337,145.049622,-37.899933 
1132,MELBOURNE,Mentone,VIC,3194,145.065674,-37.980782 
1133,MELBOURNE,Menzies Creek,VIC,3159,145.413391,-37.922245 
1134,MELBOURNE,Merlynston,VIC,3058,144.95575,-37.722778 
1135,MELBOURNE,Mernda,VIC,3754,145.030472,-37.975681 
1136,MELBOURNE,Merricks,VIC,3916,145.030472,-37.975681 
1137,MELBOURNE,Merricks Beach,VIC,3926,145.103638,-38.38588 
1138,MELBOURNE,Merricks North,VIC,3926,144.908981,-37.679993 
1139,MELBOURNE,Mickleham,VIC,3064,144.875793,-37.578602 
1140,MELBOURNE,Middle Park,VIC,3206,144.757996,-37.899487 
1141,MELBOURNE,Mill Park,VIC,3082,145.064667,-37.671169 
1142,MELBOURNE,Millgrove,VIC,3799,145.030472,-37.975681 
1143,MELBOURNE,Mitcham,VIC,3132,145.193573,-37.815289 
1144,MELBOURNE,Modella,VIC,3816,145.35643,-37.749554 
1145,MELBOURNE,Monash University,VIC,3800,145.134933,-37.910545 
1146,MELBOURNE,Monbulk,VIC,3793,145.409363,-37.87635 
1147,MELBOURNE,Monomeith,VIC,3984,145.510315,-38.222668 
1148,MELBOURNE,Mont Albert,VIC,3127,145.101349,-37.820801 
1149,MELBOURNE,Mont Albert ,VIC,3102,145.059998,-37.815914 
1150,MELBOURNE,Montmorency,VIC,3094,145.124031,-37.720285 
1151,MELBOURNE,Montrose,VIC,3765,145.332474,-37.813919 
1152,MELBOURNE,Moonee Ponds,VIC,3039,144.938644,-37.770821 
1153,MELBOURNE,Moonee Vale ,VIC,3055,145.030472,-37.975681 
1154,MELBOURNE,Moorabbin,VIC,3189,145.060043,-37.942501 
1155,MELBOURNE,Moorabbin Airport,VIC,3194,145.013397,-37.948837 
1156,MELBOURNE,Moorooduc,VIC,3933,145.135895,-38.146034 
1157,MELBOURNE,Mooroolbark,VIC,3138,145.325829,-37.7806 
1158,MELBOURNE,Mordialloc,VIC,3195,145.093719,-38.001171 
1159,MELBOURNE,Mornington,VIC,3931,145.03743,-38.217869 
1160,MELBOURNE,Mount Burnett,VIC,3781,145.512756,-37.975521 
1161,MELBOURNE,Mount Dandenong,VIC,3767,145.341339,-37.810432 
1162,MELBOURNE,Mount Eliza,VIC,3930,145.090866,-38.194817 
1163,MELBOURNE,Mount Evelyn,VIC,3796,145.389008,-37.78643 
1164,MELBOURNE,Mount Martha,VIC,3934,144.994034,-38.301418 
1165,MELBOURNE,Mount Waverley,VIC,3149,144.939285,-37.580677 
1166,MELBOURNE,Mt Cooper ,VIC,3083,145.050705,-37.702293 
1167,MELBOURNE,Mulgrave,VIC,3170,145.18383,-37.921381 
1168,MELBOURNE,Murrumbeena,VIC,3163,145.070007,-37.89772 
1169,MELBOURNE,Nangana,VIC,3781,145.072327,-37.886616 
1170,MELBOURNE,Nar Nar Goon,VIC,3781,145.030472,-37.975681 
1171,MELBOURNE,Narre Warren,VIC,3805,145.306992,-38.026001 
1172,MELBOURNE,Narre Warren East,VIC,3804,145.312744,-37.986336 
1173,MELBOURNE,Narre Warren North,VIC,3805,145.312744,-37.986336 
1174,MELBOURNE,Narre Warren South,VIC,3805,145.306992,-38.026001 
1175,MELBOURNE,Newport,VIC,3015,144.882248,-37.842709 
1176,MELBOURNE,Niddrie,VIC,3042,144.888458,-37.735771 
1177,MELBOURNE,Noble Park,VIC,3174,145.029327,-37.65852 
1178,MELBOURNE,Noble Park North,VIC,3174,145.175415,-37.968864 
1179,MELBOURNE,North Melbourne,VIC,3051,144.928528,-37.776398 
1180,MELBOURNE,North Warrandyte,VIC,3113,145.319214,-37.802254 
1181,MELBOURNE,Northcote,VIC,3070,144.998886,-37.77005 
1182,MELBOURNE,Notting Hill,VIC,3168,145.130219,-37.915291 
1183,MELBOURNE,Nunawading,VIC,3131,145.175766,-37.819271 
1184,MELBOURNE,Nutfield,VIC,3099,144.977158,-37.861172 
1185,MELBOURNE,Oak Park,VIC,3046,144.916885,-37.717968 
1186,MELBOURNE,Oaklands Junction,VIC,3063,145.030472,-37.975681 
1187,MELBOURNE,Oaklands Park ,VIC,3063,144.834,-37.643879 
1188,MELBOURNE,Oakleigh,VIC,3166,145.090942,-37.900261 
1189,MELBOURNE,Oakleigh East,VIC,3166,145.107422,-37.899185 
1190,MELBOURNE,Oakleigh South,VIC,3167,145.043015,-37.897888 
1191,MELBOURNE,Officer,VIC,3809,144.92775,-37.653118 
1192,MELBOURNE,Olinda,VIC,3432,145.030472,-37.975681 
1193,MELBOURNE,Ormond,VIC,3204,145.040344,-37.903919 
1194,MELBOURNE,Pakenham,VIC,3810,145.139786,-37.830853 
1195,MELBOURNE,Panton Hill,VIC,3759,144.822067,-37.667622 
1196,MELBOURNE,Park Orchards,VIC,3114,145.21331,-37.775955 
1197,MELBOURNE,Parkdale,VIC,3194,145.188477,-38.103016 
1198,MELBOURNE,Parkville,VIC,3052,144.958176,-37.793129 
1199,MELBOURNE,Pascoe Vale,VIC,3044,144.923965,-37.728741 
1200,MELBOURNE,Pascoe Vale South,VIC,3044,144.923965,-37.728741 
1201,MELBOURNE,Patterson Lakes,VIC,3197,145.138046,-38.06839 
1202,MELBOURNE,Pearcedale,VIC,3912,145.233063,-38.213795 
1203,MELBOURNE,Plenty,VIC,3090,145.124115,-37.666729 
1204,MELBOURNE,Point Cook,VIC,3030,144.749146,-37.922684 
1205,MELBOURNE,Point Leo,VIC,3916,144.760071,-37.868168 
1206,MELBOURNE,Port Melbourne,VIC,3207,145.303329,-37.765812 
1207,MELBOURNE,Portsea,VIC,3944,144.714417,-38.320179 
1208,MELBOURNE,Prahran,VIC,3181,144.993423,-37.851341 
1209,MELBOURNE,Preston,VIC,3072,145.003403,-37.74157 
1210,MELBOURNE,Princes Hill,VIC,3054,144.972473,-37.818768 
1211,MELBOURNE,Ravenhall,VIC,3023,144.848969,-37.787151 
1212,MELBOURNE,Red Hill,VIC,3059,145.053955,-38.355991 
1213,MELBOURNE,Red Hill South,VIC,3059,145.012756,-37.962254 
1214,MELBOURNE,Regent Reservoir,VIC,3073,145.001846,-37.730396 
1215,MELBOURNE,Regent Thornbury,VIC,3071,145.00415,-37.730621 
1216,MELBOURNE,Research,VIC,3095,145.180054,-37.703651 
1217,MELBOURNE,Richmond,VIC,3121,144.999451,-37.81702 
1218,MELBOURNE,Ringwood,VIC,3134,145.227524,-37.81572 
1219,MELBOURNE,Ringwood East,VIC,3135,144.891998,-37.684345 
1220,MELBOURNE,Ringwood North,VIC,3134,145.227325,-37.806358 
1221,MELBOURNE,Ripponlea,VIC,3185,144.994949,-37.876541 
1222,MELBOURNE,Rob Roy ,VIC,3775,145.080643,-37.87986 
1223,MELBOURNE,Rockbank,VIC,3335,145.030472,-37.975681 
1224,MELBOURNE,Rosanna,VIC,3084,145.065308,-37.742741 
1225,MELBOURNE,Rosebud,VIC,3939,144.904907,-38.355381 
1226,MELBOURNE,Rosebud West,VIC,3940,144.873489,-38.37307 
1227,MELBOURNE,Rowville,VIC,3178,145.244675,-37.926571 
1228,MELBOURNE,Roxburgh Park,VIC,3064,144.924255,-37.621628 
1229,MELBOURNE,Rye,VIC,3941,144.820755,-38.37014 
1230,MELBOURNE,Safety Beach,VIC,3936,144.995628,-38.340975 
1231,MELBOURNE,Sandringham,VIC,3191,145.003677,-37.951721 
1232,MELBOURNE,Sassafras,VIC,3787,145.354309,-37.86203 
1233,MELBOURNE,Scoresby,VIC,3179,145.217964,-37.901766 
1234,MELBOURNE,Seabrook,VIC,3028,144.757446,-37.879318 
1235,MELBOURNE,Seaford,VIC,3198,145.142143,-38.10626 
1236,MELBOURNE,Seaholme,VIC,3018,144.843735,-37.867771 
1237,MELBOURNE,Seddon,VIC,3011,144.890045,-37.80291 
1238,MELBOURNE,Selby,VIC,3159,145.368301,-37.912392 
1239,MELBOURNE,Seville,VIC,3139,145.472427,-37.795502 
1240,MELBOURNE,Seville East,VIC,3139,145.068207,-37.842678 
1241,MELBOURNE,Sherbrooke,VIC,3789,145.359985,-37.87932 
1242,MELBOURNE,Shoreham,VIC,3916,144.815002,-37.746792 
1243,MELBOURNE,Silvan,VIC,3795,145.030472,-37.975681 
1244,MELBOURNE,Skye,VIC,3977,145.174881,-38.141808 
1245,MELBOURNE,Smiths Gully,VIC,3760,145.152222,-37.764923 
1246,MELBOURNE,Somers,VIC,3927,145.172028,-38.383572 
1247,MELBOURNE,Somerton,VIC,3062,144.954048,-37.633631 
1248,MELBOURNE,Somerville,VIC,3912,145.17453,-38.22234 
1249,MELBOURNE,Sorrento,VIC,3943,144.742432,-38.338669 
1250,MELBOURNE,South Kingsville,VIC,3015,144.87851,-37.809322 
1251,MELBOURNE,South Melbourne,VIC,3205,144.863251,-37.79277 
1252,MELBOURNE,South Morang,VIC,3752,145.083748,-37.63777 
1253,MELBOURNE,South Yarra,VIC,3141,144.992844,-37.837257 
1254,MELBOURNE,Southbank,VIC,3006,144.959167,-37.825359 
1255,MELBOURNE,Spotswood,VIC,3015,144.885544,-37.829708 
1256,MELBOURNE,Springvale,VIC,3171,145.153107,-37.947639 
1257,MELBOURNE,Springvale South,VIC,3172,145.17189,-37.837975 
1258,MELBOURNE,St Albans,VIC,3021,144.802307,-37.747303 
1259,MELBOURNE,St Andrews,VIC,3761,145.030472,-37.975681 
1260,MELBOURNE,St Helena,VIC,3088,145.107895,-37.699703 
1261,MELBOURNE,St Kilda,VIC,3182,144.985352,-37.864075 
1262,MELBOURNE,St Kilda East,VIC,3182,144.967484,-37.817554 
1263,MELBOURNE,St Kilda West,VIC,3182,144.967484,-37.817554 
1264,MELBOURNE,Steels Creek,VIC,3775,145.370834,-37.612785 
1265,MELBOURNE,Strathmore,VIC,3041,144.921997,-37.734581 
1266,MELBOURNE,Strathmore Heights,VIC,3041,144.911583,-37.72686 
1267,MELBOURNE,Sunbury,VIC,3429,144.855118,-37.6632 
1268,MELBOURNE,Sunshine,VIC,3020,144.832458,-37.787601 
1269,MELBOURNE,Sunshine North,VIC,3020,144.820786,-37.781536 
1270,MELBOURNE,Sunshine West,VIC,3020,144.886017,-37.802132 
1271,MELBOURNE,Surrey Hills,VIC,3127,145.332947,-38.02774 
1272,MELBOURNE,Sydenham,VIC,3037,144.763428,-37.701809 
1273,MELBOURNE,Tally Ho ,VIC,3151,145.161407,-37.860168 
1274,MELBOURNE,Tarneit,VIC,3029,144.675919,-37.813931 
1275,MELBOURNE,Tarrawarra,VIC,3775,145.421967,-37.647003 
1276,MELBOURNE,Taylors Hill,VIC,3037,145.246964,-37.912121 
1277,MELBOURNE,Taylors Lakes,VIC,3038,144.79493,-37.704365 
1278,MELBOURNE,Tecoma,VIC,3160,145.338623,-37.906349 
1279,MELBOURNE,Templestowe,VIC,3106,145.161377,-37.76276 
1280,MELBOURNE,Templestowe Lower,VIC,3107,145.112137,-37.757248 
1281,MELBOURNE,Tenby Point,VIC,3984,145.182983,-38.329166 
1282,MELBOURNE,The Basin,VIC,3154,145.267487,-37.926994 
1283,MELBOURNE,The Patch,VIC,3792,145.394791,-37.885101 
1284,MELBOURNE,Thomastown,VIC,3074,145.014282,-37.677872 
1285,MELBOURNE,Tonimbuk,VIC,3815,145.030472,-37.975681 
1286,MELBOURNE,Toomuc Valley,VIC,3810,145.479996,-37.98888 
1287,MELBOURNE,Tooradin,VIC,3980,144.929733,-37.665482 
1288,MELBOURNE,Tooradin North,VIC,3977,144.928253,-37.66563 
1289,MELBOURNE,Toorak,VIC,3142,145.012726,-37.841541 
1290,MELBOURNE,Tootgarook,VIC,3941,144.855316,-38.368568 
1291,MELBOURNE,Tottenham,VIC,3012,144.857483,-37.809872 
1292,MELBOURNE,Travancore,VIC,3032,144.933243,-37.782001 
1293,MELBOURNE,Tremont,VIC,3785,145.32972,-37.88595 
1294,MELBOURNE,Truganina,VIC,3029,144.758102,-37.885841 
1295,MELBOURNE,Tullamarine,VIC,3043,144.868454,-37.713741 
1296,MELBOURNE,Tyabb,VIC,3913,145.189667,-38.256969 
1297,MELBOURNE,Tynong,VIC,3813,145.030472,-37.975681 
1298,MELBOURNE,Upwey,VIC,3158,145.329956,-37.902069 
1299,MELBOURNE,Vermont,VIC,3133,145.195023,-37.83617 
1300,MELBOURNE,Vermont South,VIC,3133,145.15686,-37.843491 
1301,MELBOURNE,Victoria Harbour ,VIC,3008,144.944427,-37.818512 
1302,MELBOURNE,Viewbank,VIC,3084,145.096069,-37.729061 
1303,MELBOURNE,Wandin East,VIC,3139,145.45018,-37.812977 
1304,MELBOURNE,Wandin North,VIC,3139,145.45018,-37.812977 
1305,MELBOURNE,Wantirna,VIC,3152,145.229233,-37.848202 
1306,MELBOURNE,Wantirna South,VIC,3152,145.227173,-37.81657 
1307,MELBOURNE,Warburton,VIC,3799,145.030472,-37.975681 
1308,MELBOURNE,Warburton East,VIC,3799,144.970276,-37.773438 
1309,MELBOURNE,Warneet,VIC,3980,145.369125,-37.754524 
1310,MELBOURNE,Warrandyte,VIC,3113,145.235458,-37.747379 
1311,MELBOURNE,Warrandyte South,VIC,3134,145.153061,-37.75209 
1312,MELBOURNE,Warranwood,VIC,3134,145.248962,-37.775581 
1313,MELBOURNE,Waterfront City ,VIC,3008,144.933838,-37.841347 
1314,MELBOURNE,Waterways,VIC,3195,145.133087,-38.014519 
1315,MELBOURNE,Watsonia,VIC,3087,145.082977,-37.709148 
1316,MELBOURNE,Watsonia North,VIC,3087,145.082428,-37.714397 
1317,MELBOURNE,Watsons Creek ,VIC,3097,145.170166,-37.890671 
1318,MELBOURNE,Wattle Glen,VIC,3096,144.934326,-37.595291 
1319,MELBOURNE,Wattle Park ,VIC,3125,145.026413,-37.824394 
1320,MELBOURNE,Werribee,VIC,3030,144.659668,-37.903671 
1321,MELBOURNE,Werribee South,VIC,3030,144.657715,-37.906929 
1322,MELBOURNE,Wesburn,VIC,3799,145.217117,-37.890728 
1323,MELBOURNE,West Footscray,VIC,3012,144.906265,-37.805668 
1324,MELBOURNE,West Melbourne,VIC,3003,145.087601,-37.82299 
1325,MELBOURNE,Westbreen,VIC,3046,144.926498,-37.718418 
1326,MELBOURNE,Westgarth,VIC,3070,144.99733,-37.78109 
1327,MELBOURNE,Westmeadows,VIC,3049,144.882385,-37.68763 
1328,MELBOURNE,Wheelers Hill,VIC,3150,145.177536,-37.902431 
1329,MELBOURNE,Whittlesea,VIC,3757,144.96814,-37.477329 
1330,MELBOURNE,Wildwood,VIC,3429,145.030472,-37.975681 
1331,MELBOURNE,Williamstown,VIC,3016,144.902588,-37.861511 
1332,MELBOURNE,Williamstown North,VIC,3016,144.938446,-37.832382 
1333,MELBOURNE,Windsor,VIC,3181,144.992538,-37.85619 
1334,MELBOURNE,Wollert,VIC,3750,144.811935,-38.38055 
1335,MELBOURNE,Wonga Park,VIC,3115,144.902527,-37.70359 
1336,MELBOURNE,Woodstock,VIC,3755,145.030472,-37.975681 
1337,MELBOURNE,Woori Yallock,VIC,3139,145.532455,-37.871155 
1338,MELBOURNE,World Trade Centre,VIC,3003,144.954857,-37.82226 
1339,MELBOURNE,Wyndham Vale,VIC,3024,145.262924,-38.048012 
1340,MELBOURNE,Yallambie,VIC,3085,145.095367,-37.728802 
1341,MELBOURNE,Yan Yean,VIC,3755,145.030472,-37.975681 
1342,MELBOURNE,Yarra Bend ,VIC,3078,145.007294,-37.799847 
1343,MELBOURNE,Yarra Glen,VIC,3775,145.082367,-37.768627 
1344,MELBOURNE,Yarra Junction,VIC,3797,145.030472,-37.975681 
1345,MELBOURNE,Yarrambat,VIC,3091,145.083344,-37.809662 
1346,MELBOURNE,Yarra's Edge ,VIC,3008,145.030472,-37.975681 
1347,MELBOURNE,Yarraville,VIC,3013,144.889435,-37.816509 
1348,MELBOURNE,Yellingbo,VIC,3139,145.545235,-37.809336 
1349,MELBOURNE,Yering,VIC,3770,145.030472,-37.975681 
1350,MELBOURNE,Yuroke,VIC,3063,145.030472,-37.975681
3319,MELBOURNE,Essendon Fields,VIC,3041,145.030472,-37.975681
3320,MELBOURNE,Lara,VIC,3212,144.991852,-37.844681
