SUBURB_ID,LOCALITY_NAME,SUBURB_NAME,STATE,POSTCODE,LONGITUDE,LATITUDE;;;
1,Sydney,Abbotsbury,NSW,2176,150.867523,-33.873009;;;
2,Sydney,Abbotsford,NSW,2046,151.128555,-33.850632;;;
3,Sydney,Acacia;Gardens,NSW,2763,150.912964,-33.732738;;
4,Sydney,Alexandria,NSW,2015,151.196274,-33.913582;;;
5,Sydney,Agnes;Banks,NSW,2753,150.699982,-33.62237;;
6,Sydney,Allambie;Heights,NSW,2100,151.251556,-33.765591;;
7,Sydney,Airds,NSW,2560,150.829041,-34.084469;;;
8,Sydney,Allawah,NSW,2218,151.116364,-33.970699;;;
9,Sydney,Annandale,NSW,2038,151.171234,-33.880219;;;
10,Sydney,Alfords;Point,NSW,2234,151.024719,-33.993469;;
11,Sydney,Annangrove,NSW,2156,150.948547,-33.663467;;;
12,Sydney,Arcadia,NSW,2159,150.929871,-33.883875;;;
13,Sydney,Arncliffe,NSW,2205,151.146637,-33.937092;;;
14,Sydney,Ambarvale,NSW,2560,150.802429,-34.08387;;;
15,Sydney,Arndell;Park,NSW,2148,150.850403,-34.035496;;
16,Sydney,Artarmon,NSW,2064,151.183792,-33.808201;;;
17,Sydney,Ashbury,NSW,2193,151.120667,-33.898811;;;
18,Sydney,Appin,NSW,2560,150.815857,-34.228836;;;
19,Sydney,Ashcroft,NSW,2168,150.900894,-33.91621;;;
20,Sydney,Ashfield,NSW,2131,151.125412,-33.88921;;;
21,Sydney,Asquith,NSW,2077,151.109497,-33.688679;;;
22,Sydney,Auburn,NSW,2144,151.029343,-33.849258;;;
23,Sydney,Austral,NSW,2171,150.816803,-33.761391;;;
24,Sydney,Avalon,NSW,2107,151.331726,-33.628639;;;
26,Sydney,Balgowlah,NSW,2093,151.261581,-33.79393;;;
27,Sydney,Balgowlah;Heights,NSW,2093,151.262024,-33.804981;;
28,Sydney,Balmain,NSW,2041,151.175995,-33.856022;;;
29,Sydney,Balmain;East,NSW,2041,151.191025,-33.857761;;
30,Sydney,Banksia,NSW,2216,151.141251,-33.945801;;;
31,Sydney,Badgerys;Creek,NSW,2171,150.73819,-33.899017;;
32,Sydney,Banksmeadow,NSW,2019,151.206711,-33.95742;;;
33,Sydney,Bankstown,NSW,2200,151.034164,-33.914791;;;
37,Sydney,Balmoral,NSW,2571,150.580818,-34.243176;;;
39,Sydney,Bangor,NSW,2234,151.029083,-34.018681;;;
41,Sydney,Bardwell;Park,NSW,2207,151.125473,-33.932098;;
42,Sydney,Bardwell;Valley,NSW,2207,151.13298,-33.937119;;
43,Sydney,Bass;Hill,NSW,2197,150.994934,-33.898529;;
45,Sydney,Baulkham;Hills,NSW,2153,150.989624,-33.757881;;
46,Sydney,Barden;Ridge,NSW,2234,151.006485,-34.030159;;
47,Sydney,Bayview,NSW,2104,151.294586,-33.656792;;;
48,Sydney,Beacon;Hill,NSW,2100,151.261246,-33.752548;;
49,Sydney,Beaconsfield,NSW,2015,151.200272,-33.913361;;;
50,Sydney,Bargo,NSW,2574,150.929871,-33.883875;;;
51,Sydney,Beaumont;Hills,NSW,2155,150.94136,-33.70499;;
52,Sydney,Barra;Brui,NSW,2075,150.959534,-33.75296;;
53,Sydney,Beecroft,NSW,2119,151.064835,-33.75032;;;
54,Sydney,Belfield,NSW,2191,151.085022,-33.904598;;;
55,Sydney,Bella;Vista,NSW,2153,150.955505,-33.737968;;
56,Sydney,Bellevue;Hill,NSW,2023,151.254318,-33.879089;;
57,Sydney,Belmore,NSW,2192,151.093155,-33.91922;;;
58,Sydney,Belrose,NSW,2085,151.220993,-33.729111;;;
60,Sydney,Beauty;Point,NSW,2546,151.23909,-33.809517;;
61,Sydney,Berala,NSW,2141,151.03363,-33.87067;;;
62,Sydney,Berowra,NSW,2081,151.150391,-33.622749;;;
64,Sydney,Belimbla;Park,NSW,2750,151.029495,-33.843151;;
65,Sydney,Berowra;Heights,NSW,2082,151.138336,-33.612209;;
66,Sydney,Berowra;Waters,NSW,2082,151.130524,-33.60358;;
67,Sydney,Berrilee,NSW,2159,151.137177,-33.732349;;;
68,Sydney,Beverley;Park,NSW,2217,151.132156,-33.97562;;
69,Sydney,Beverly;Hills,NSW,2209,151.079666,-33.947041;;
70,Sydney,Bexley,NSW,2207,151.124817,-33.951321;;;
71,Sydney,Berkshire;Park,NSW,2765,150.841301,-33.646545;;
72,Sydney,Bexley;North,NSW,2207,151.114197,-33.938549;;
74,Sydney,Bilgola,NSW,2107,151.324036,-33.642971;;;
75,Sydney,Birchgrove,NSW,2041,151.180984,-33.851871;;;
76,Sydney,Birrong,NSW,2143,151.020676,-33.892368;;;
77,Sydney,Blacktown,NSW,2148,150.908142,-33.772598;;;
79,Sydney,Blakehurst,NSW,2221,151.111664,-33.98785;;;
81,Sydney,Bickley;Vale,NSW,2570,150.700531,-33.78196;;
83,Sydney,Bidwill,NSW,2770,150.820923,-33.729149;;;
84,Sydney,Bondi,NSW,2026,151.263,-33.893799;;;
85,Sydney,Bondi;Beach,NSW,2026,151.277786,-33.888729;;
86,Sydney,Bilpin,NSW,2758,150.929871,-33.883875;;;
87,Sydney,Bondi;Junction,NSW,2022,151.247208,-33.89283;;
89,Sydney,Bonnyrigg,NSW,2177,150.883224,-33.89727;;;
90,Sydney,Blackett,NSW,2770,150.814255,-33.7402;;;
91,Sydney,Bonnyrigg;Heights,NSW,2177,150.869064,-33.889469;;
92,Sydney,Blackheath,NSW,2785,150.988815,-33.743187;;;
93,Sydney,Boronia;Park,NSW,2111,151.049683,-33.985313;;
94,Sydney,Bossley;Park,NSW,2176,150.883759,-33.859852;;
95,Sydney,Blair;Athol,NSW,2560,150.805161,-34.064301;;
96,Sydney,Botany,NSW,2019,151.196762,-33.945171;;;
97,Sydney,Blairmount,NSW,2559,150.799606,-34.04948;;;
98,Sydney,Breakfast;Point,NSW,2137,151.108856,-33.842239;;
99,Sydney,Brighton-le-sands,NSW,2216,151.155731,-33.96069;;;
100,Sydney,Blaxland,NSW,2460,150.929871,-33.883875;;;
101,Sydney,Broadway,NSW,2007,151.196503,-33.884369;;;
102,Sydney,Blaxlands;Ridge,NSW,2758,151.262787,-33.883953;;
103,Sydney,Bronte,NSW,2024,151.260513,-33.902931;;;
104,Sydney,Bligh;Park,NSW,2756,150.936905,-33.707417;;
105,Sydney,Brooklyn,NSW,2083,150.929871,-33.883875;;;
106,Sydney,Brookvale,NSW,2100,151.273941,-33.761189;;;
107,Sydney,Burwood,NSW,2134,151.103546,-33.87817;;;
108,Sydney,Burwood;Heights,NSW,2136,151.104324,-33.887959;;
109,Sydney,Bonnet;Bay,NSW,2226,151.055191,-34.0112;;
111,Sydney,Busby,NSW,2168,150.880859,-33.91077;;;
112,Sydney,Cabarita,NSW,2137,151.115326,-33.846111;;;
113,Sydney,Cabramatta,NSW,2166,150.938507,-33.895039;;;
114,Sydney,Cabramatta;West,NSW,2166,150.910004,-33.88813;;
115,Sydney,Camellia,NSW,2142,151.024567,-33.819672;;;
116,Sydney,Bow;Bowing,NSW,2566,150.836258,-34.01759;;
117,Sydney,Cammeray,NSW,2062,151.215324,-33.82308;;;
118,Sydney,Bowen;Mountain,NSW,2753,150.645966,-33.572521;;
119,Sydney,Camperdown,NSW,2050,151.181595,-33.888649;;;
120,Sydney,Box;Hill,NSW,2765,150.906433,-33.667294;;
121,Sydney,Campsie,NSW,2194,151.10318,-33.90744;;;
122,Sydney,Bradbury,NSW,2560,150.812454,-34.084148;;;
123,Sydney,Canada;Bay,NSW,2046,151.116348,-33.863159;;
124,Sydney,Canley;Heights,NSW,2166,150.925766,-33.883888;;
125,Sydney,Canley;Vale,NSW,2166,150.942719,-33.887058;;
126,Sydney,Bringelly,NSW,2556,150.732727,-33.940063;;;
127,Sydney,Canoelands,NSW,2157,151.059616,-33.507298;;;
128,Sydney,Canterbury,NSW,2193,151.114868,-33.913929;;;
129,Sydney,Carlingford,NSW,2118,151.055786,-33.779968;;;
131,Sydney,Bullaburra,NSW,2784,151.129913,-34.04393;;;
133,Sydney,Burraneer,NSW,2230,151.137177,-34.06506;;;
134,Sydney,Carlton,NSW,2218,151.129166,-33.973888;;;
136,Sydney,Carramar,NSW,2163,150.967529,-33.884949;;;
137,Sydney,Carss;Park,NSW,2221,151.116211,-33.984531;;
138,Sydney,Cartwright,NSW,2168,150.890167,-33.925819;;;
139,Sydney,Castle;Cove,NSW,2069,151.201736,-33.78199;;
140,Sydney,Castle;Hill,NSW,2154,151.003815,-33.73177;;
141,Sydney,Cambridge;Gardens,NSW,2747,150.721222,-33.734921;;
142,Sydney,Castlecrag,NSW,2068,151.212097,-33.802399;;;
143,Sydney,Cambridge;Park,NSW,2747,150.721436,-33.747681;;
144,Sydney,Casula,NSW,2170,150.903976,-33.949791;;;
145,Sydney,Camden,NSW,2570,150.693954,-34.056381;;;
147,Sydney,Camden;Park,NSW,2570,150.721176,-34.088379;;
148,Sydney,Cecil;Hills,NSW,2171,150.856323,-33.893959;;
149,Sydney,Camden;South,NSW,2570,150.694427,-34.07795;;
150,Sydney,Cecil;Park,NSW,2178,150.825027,-33.859982;;
151,Sydney,Centennial;Park,NSW,2021,151.230667,-33.89452;;
152,Sydney,Chatswood,NSW,2067,151.183853,-33.79607;;;
153,Sydney,Campbelltown,NSW,2560,150.816589,-34.064098;;;
154,Sydney,Chatswood;West,NSW,2067,151.176117,-33.795689;;
156,Sydney,Cheltenham,NSW,2119,151.079437,-33.755852;;;
157,Sydney,Cherrybrook,NSW,2126,151.041367,-33.721001;;;
158,Sydney,Chester;Hill,NSW,2162,151.000137,-33.882999;;
159,Sydney,Chifley,NSW,2036,151.241959,-33.966179;;;
160,Sydney,Chippendale,NSW,2008,151.198074,-33.888489;;;
161,Sydney,Chipping;Norton,NSW,2170,150.961731,-33.91716;;
162,Sydney,Caringbah,NSW,2229,151.121216,-34.042912;;;
163,Sydney,Chiswick,NSW,2046,151.138657,-33.84964;;;
164,Sydney,Chullora,NSW,2190,151.047623,-33.89328;;;
165,Sydney,Church;Point,NSW,2105,151.284454,-33.644852;;
166,Sydney,Clareville,NSW,2107,151.313324,-33.634899;;;
167,Sydney,Clemton;Park,NSW,2206,151.103851,-33.92519;;
168,Sydney,Clontarf,NSW,2093,151.253082,-33.799309;;;
169,Sydney,Clovelly,NSW,2031,151.262024,-33.91264;;;
171,Sydney,Clyde,NSW,2142,151.020279,-33.834202;;;
172,Sydney,Castlereagh,NSW,2749,150.686234,-33.695808;;;
175,Sydney,Catherine;Field,NSW,2557,150.758438,-33.978092;;
176,Sydney,Collaroy,NSW,2097,151.296059,-33.73461;;;
177,Sydney,Cattai,NSW,2756,150.908035,-33.558033;;;
179,Sydney,Cawdor,NSW,2570,150.672562,-34.093182;;;
180,Sydney,Collaroy;Plateau,NSW,2097,151.296059,-33.73461;;
181,Sydney,Concord,NSW,2137,151.103256,-33.856079;;;
182,Sydney,Concord;West,NSW,2138,151.089447,-33.846489;;
183,Sydney,Condell;Park,NSW,2200,151.011627,-33.922031;;
184,Sydney,Central;Macdonald,NSW,2775,150.929871,-33.883875;;
185,Sydney,Connells;Point,NSW,2221,151.097946,-33.985439;;
186,Sydney,Constitution;Hill,NSW,2145,151.136246,-33.901409;;
187,Sydney,Coogee,NSW,2034,151.256012,-33.920731;;;
188,Sydney,Cottage;Point,NSW,2084,151.203827,-33.631676;;
189,Sydney,Cowan,NSW,2081,151.202423,-33.618263;;;
190,Sydney,Cremorne,NSW,2090,151.227356,-33.829849;;;
192,Sydney,Cremorne;Point,NSW,2090,151.227539,-33.83987;;
193,Sydney,Cromer,NSW,2099,151.278519,-33.740349;;;
194,Sydney,Crows;Nest,NSW,2065,151.200882,-33.825161;;
195,Sydney,Croydon,NSW,2132,151.113861,-33.87611;;;
196,Sydney,Croydon;Park,NSW,2133,151.108582,-33.895302;;
197,Sydney,Claremont;Meadows,NSW,2747,150.752213,-33.770241;;
198,Sydney,Curl;Curl,NSW,2096,151.294296,-33.768459;;
199,Sydney,Clarendon,NSW,2756,150.769928,-33.596622;;;
200,Sydney,Daceyville,NSW,2032,151.227295,-33.92598;;;
201,Sydney,Dangar;Island,NSW,2083,151.195114,-33.866215;;
202,Sydney,Claymore,NSW,2559,150.814148,-34.044941;;;
203,Sydney,Darling;Point,NSW,2027,151.236679,-33.87381;;
204,Sydney,Darlinghurst,NSW,2010,151.220184,-33.879162;;;
205,Sydney,Clifton;Gardens,NSW,2088,151.247833,-33.8395;;
206,Sydney,Darlington,NSW,2008,151.193314,-33.89193;;;
207,Sydney,Davidson,NSW,2085,151.196304,-33.739792;;;
208,Sydney,Dawes;Point,NSW,2000,151.208252,-33.855511;;
209,Sydney,Dee;Why,NSW,2099,151.285233,-33.75375;;
210,Sydney,Cobbitty,NSW,2570,150.657883,-34.022839;;;
211,Sydney,Denistone,NSW,2114,151.088333,-33.796509;;;
212,Sydney,Colebee,NSW,2761,150.865448,-33.72855;;;
213,Sydney,Denistone;East,NSW,2112,151.097534,-33.794651;;
214,Sydney,Denistone;West,NSW,2114,151.075134,-33.801338;;
215,Sydney,Dolls;Point,NSW,2219,151.143173,-33.994259;;
216,Sydney,Colyton,NSW,2760,150.793427,-33.776661;;;
217,Sydney,Double;Bay,NSW,2028,151.244003,-33.877312;;
218,Sydney,Comleroy,NSW,2758,151.229584,-33.741344;;;
219,Sydney,Dover;Heights,NSW,2030,151.280884,-33.87188;;
220,Sydney,Como,NSW,2226,151.061646,-34.00539;;;
221,Sydney,Drummoyne,NSW,2047,151.157669,-33.85445;;;
222,Sydney,Duffys;Forest,NSW,2084,151.198563,-33.67609;;
223,Sydney,Dulwich;Hill,NSW,2203,151.142502,-33.90337;;
224,Sydney,Dundas,NSW,2117,151.046432,-33.802319;;;
225,Sydney,Dundas;Valley,NSW,2117,151.056671,-33.79089;;
226,Sydney,Dural,NSW,2158,151.010223,-33.665421;;;
227,Sydney,Earlwood,NSW,2206,151.124939,-33.926922;;;
228,Sydney,Cornwallis,NSW,2756,150.802094,-33.583912;;;
229,Sydney,East;Hills,NSW,2213,150.984375,-33.962502;;
230,Sydney,East;Killara,NSW,2071,151.174805,-33.75523;;
231,Sydney,Couridjah,NSW,2571,150.580818,-34.243176;;;
232,Sydney,East;Lindfield,NSW,2070,151.186386,-33.76894;;
233,Sydney,East;Ryde,NSW,2113,151.138382,-33.807961;;
234,Sydney,Cranebrook,NSW,2749,150.710037,-33.719452;;;
235,Sydney,Eastgardens,NSW,2036,151.222443,-33.943871;;;
236,Sydney,Eastlakes,NSW,2018,151.211075,-33.923988;;;
237,Sydney,Eastwood,NSW,2122,151.080414,-33.791489;;;
238,Sydney,Edensor;Park,NSW,2176,150.872543,-33.87788;;
239,Sydney,Cronulla,NSW,2230,151.153366,-34.055229;;;
240,Sydney,Edgecliff,NSW,2027,151.237793,-33.880379;;;
241,Sydney,Edmondson;Park,NSW,2174,150.858337,-33.960745;;
242,Sydney,Elanora;Heights,NSW,2101,151.279678,-33.701031;;
243,Sydney,Elizabeth;Bay,NSW,2011,151.225372,-33.870331;;
245,Sydney,Currans;Hill,NSW,2567,150.763947,-34.045189;;
247,Sydney,Enfield,NSW,2136,151.095367,-33.88834;;;
249,Sydney,Darling;Harbour,NSW,2000,151.198242,-33.872601;;
250,Sydney,Enmore,NSW,2042,151.171173,-33.899288;;;
251,Sydney,Epping,NSW,2121,151.072144,-33.77689;;;
252,Sydney,Ermington,NSW,2115,151.060127,-33.81002;;;
253,Sydney,Erskineville,NSW,2043,151.184006,-33.899651;;;
254,Sydney,Eveleigh,NSW,2015,151.193726,-33.897629;;;
255,Sydney,Fairfield,NSW,2165,150.953232,-33.871849;;;
256,Sydney,Dean;Park,NSW,2761,150.852097,-33.73531;;
257,Sydney,Fairfield;East,NSW,2165,150.975449,-33.87656;;
258,Sydney,Fairfield;Heights,NSW,2165,150.939926,-33.86536;;
259,Sydney,Denham;Court,NSW,2565,150.84993,-33.977718;;
260,Sydney,Fairfield;West,NSW,2165,150.923004,-33.86916;;
261,Sydney,Fairlight,NSW,2094,151.271851,-33.7911;;;
262,Sydney,Fiddletown,NSW,2159,151.161026,-33.897358;;;
263,Sydney,Five;Dock,NSW,2046,151.128693,-33.87104;;
264,Sydney,Dharruk,NSW,2770,150.816483,-33.747768;;;
265,Sydney,Forest;Glen,NSW,2157,151.037079,-33.721104;;
266,Sydney,Diamond;Bay,NSW,2030,151.283752,-33.860371;;
267,Sydney,Forest;Lodge,NSW,2037,151.181824,-33.882561;;
268,Sydney,Dobroyd;Point,NSW,2045,151.147064,-33.87014;;
269,Sydney,Forestville,NSW,2087,151.216537,-33.7616;;;
270,Sydney,Dolans;Bay,NSW,2229,151.125488,-34.063259;;
271,Sydney,Frenchs;Forest,NSW,2086,151.234756,-33.75082;;
273,Sydney,Doonside,NSW,2767,150.869324,-33.764561;;;
275,Sydney,Galston,NSW,2159,151.098724,-33.691364;;;
276,Sydney,Douglas;Park,NSW,2569,151.281723,-33.87973;;
277,Sydney,Georges;Hall,NSW,2198,150.989349,-33.905769;;
278,Sydney,Girraween,NSW,2145,150.946457,-33.799389;;;
279,Sydney,Gladesville,NSW,2111,151.12616,-33.83147;;;
280,Sydney,Glebe,NSW,2037,151.184937,-33.877201;;;
281,Sydney,Glenfield,NSW,2167,150.889992,-33.97221;;;
282,Sydney,Glenhaven,NSW,2156,151.00238,-33.698872;;;
283,Sydney,Glenorie,NSW,2157,151.13121,-33.654793;;;
284,Sydney,Dunheved,NSW,2760,150.774521,-33.746338;;;
285,Sydney,Gordon,NSW,2072,151.153336,-33.75761;;;
286,Sydney,Granville,NSW,2142,151.009583,-33.833309;;;
287,Sydney,Eagle;Vale,NSW,2558,150.818024,-34.03244;;
289,Sydney,Green;Valley,NSW,2168,150.866516,-33.90274;;
290,Sydney,East;Botany,NSW,2019,151.204514,-33.954426;;
291,Sydney,Greenacre,NSW,2190,151.057816,-33.892689;;;
292,Sydney,East;Gordon,NSW,2072,151.089096,-33.786404;;
293,Sydney,Greenfield;Park,NSW,2176,150.889816,-33.873299;;
294,Sydney,Greenwich,NSW,2065,151.187744,-33.827122;;;
295,Sydney,Greystanes,NSW,2145,150.947647,-33.819012;;;
296,Sydney,East;Kurrajong,NSW,2758,150.863708,-33.941643;;
297,Sydney,Guildford,NSW,2161,150.990494,-33.854881;;;
298,Sydney,Guildford;West,NSW,2161,150.961975,-33.847431;;
299,Sydney,East;Roseville,NSW,2069,151.197372,-33.790207;;
300,Sydney,Haberfield,NSW,2045,151.139252,-33.881008;;;
301,Sydney,Hammondville,NSW,2170,150.950531,-33.948891;;;
302,Sydney,East;Sydney,NSW,2010,151.215675,-33.8829;;
303,Sydney,Harris;Park,NSW,2150,151.019897,-33.81897;;
304,Sydney,East;Wahroonga,NSW,2076,151.176971,-33.758224;;
305,Sydney,Haymarket,NSW,2000,151.2052,-33.880051;;;
306,Sydney,Eastern;Creek,NSW,2766,150.60405,-33.99469;;
307,Sydney,Heckenberg,NSW,2168,150.891281,-33.909279;;;
308,Sydney,Henley,NSW,2111,151.136093,-33.841431;;;
309,Sydney,Hillsdale,NSW,2036,151.231339,-33.952679;;;
310,Sydney,Hinchinbrook,NSW,2168,150.864883,-33.911201;;;
311,Sydney,Ebenezer,NSW,2756,150.884811,-33.543381;;;
317,Sydney,Elderslie,NSW,2335,151.116653,-33.94495;;;
318,Sydney,Holroyd,NSW,2142,150.997162,-33.830601;;;
319,Sydney,Holsworthy,NSW,2173,150.756027,-34.049713;;;
320,Sydney,Ellis;Lane,NSW,2570,150.671127,-34.043991;;
321,Sydney,Homebush,NSW,2140,151.082397,-33.863979;;;
322,Sydney,Emerton,NSW,2770,150.806274,-33.7439;;;
324,Sydney,Emu;Heights,NSW,2750,150.647995,-33.742378;;
325,Sydney,Homebush;West,NSW,2140,151.069717,-33.858559;;
326,Sydney,Emu;Plains,NSW,2750,150.659576,-33.753479;;
327,Sydney,Horningsea;Park,NSW,2171,150.837692,-33.946548;;
328,Sydney,Hornsby,NSW,2077,151.096878,-33.700779;;;
329,Sydney,Engadine,NSW,2233,151.013306,-34.064999;;;
330,Sydney,Hornsby;Heights,NSW,2077,151.096939,-33.672401;;
331,Sydney,Englorie;Park,NSW,2560,150.794586,-34.080582;;
332,Sydney,Horsley;Park,NSW,2164,150.869858,-33.802082;;
333,Sydney,Hoxton;Park,NSW,2171,150.848038,-33.928009;;
334,Sydney,Hunters;Hill,NSW,2110,151.15332,-33.834709;;
335,Sydney,Huntingwood,NSW,2148,150.888657,-33.795502;;;
336,Sydney,Erskine;Park,NSW,2759,150.805801,-33.804039;;
337,Sydney,Huntleys;Cove,NSW,2111,151.136414,-33.839802;;
338,Sydney,Huntleys;Point,NSW,2111,151.140564,-33.840832;;
339,Sydney,Eschol;Park,NSW,2558,150.808426,-34.029442;;
340,Sydney,Hurlstone;Park,NSW,2193,151.127945,-33.906818;;
341,Sydney,Hurstville,NSW,2220,151.107285,-33.967319;;;
342,Sydney,Hurstville;Grove,NSW,2220,151.094986,-33.975288;;
345,Sydney,Ingleside,NSW,2101,151.265015,-33.679211;;;
346,Sydney,Kellyville,NSW,2155,150.955566,-33.711269;;;
347,Sydney,Faulconbridge,NSW,2776,150.54599,-33.691029;;;
348,Sydney,Kellyville;Ridge,NSW,2155,150.925644,-33.701111;;
349,Sydney,Kemps;Creek,NSW,2178,150.805534,-33.870445;;
350,Sydney,Kensington,NSW,2033,151.222641,-33.909962;;;
351,Sydney,Flemington,NSW,2140,151.067947,-33.86467;;;
352,Sydney,Kenthurst,NSW,2156,151.004654,-33.657173;;;
353,Sydney,Killara,NSW,2071,151.156876,-33.766312;;;
354,Sydney,Killarney;Heights,NSW,2087,151.217453,-33.772949;;
355,Sydney,Kings;Langley,NSW,2147,150.924515,-33.74567;;
356,Sydney,Freemans;Reach,NSW,2756,150.822723,-33.578587;;
357,Sydney,Kings;Park,NSW,2148,150.916168,-33.74855;;
359,Sydney,Kingsford,NSW,2032,151.227463,-33.923401;;;
360,Sydney,Kingsgrove,NSW,2208,151.098938,-33.93948;;;
361,Sydney,Georges;Heights,NSW,2088,151.256714,-33.83329;;
363,Sydney,Gilead,NSW,2560,150.820274,-34.214821;;;
364,Sydney,Kirribilli,NSW,2061,151.215866,-33.847488;;;
365,Sydney,Kogarah,NSW,2217,151.132675,-33.963169;;;
366,Sydney,Kogarah;Bay,NSW,2217,151.125153,-33.980961;;
368,Sydney,Glebe;Point,NSW,2037,151.185753,-33.87822;;
369,Sydney,Kyeemagh,NSW,2216,151.163376,-33.95013;;;
370,Sydney,Glen;Alpine,NSW,2560,150.786697,-34.08707;;
371,Sydney,Kyle;Bay,NSW,2221,151.099136,-33.98885;;
372,Sydney,Glenbrook,NSW,2773,150.62117,-33.766548;;;
373,Sydney,La;Perouse,NSW,2036,151.231308,-33.987888;;
374,Sydney,Glendenning,NSW,2761,150.854614,-33.741699;;;
375,Sydney,Lakemba,NSW,2195,151.07756,-33.920738;;;
376,Sydney,Lalor;Park,NSW,2147,150.931458,-33.76199;;
377,Sydney,Lane;Cove,NSW,2066,151.169983,-33.8139;;
378,Sydney,Glenmore,NSW,2570,150.687637,-33.774834;;;
379,Sydney,Lane;Cove;North,NSW,2066,151.148514,-33.801651;
380,Sydney,Glenmore;Park,NSW,2745,150.678741,-33.78487;;
381,Sydney,Lane;Cove;West,NSW,2066,151.153275,-33.806252;
382,Sydney,Lansdowne,NSW,2430,150.929871,-33.883875;;;
383,Sydney,Glenwood,NSW,2768,150.927795,-33.733089;;;
384,Sydney,Lansvale,NSW,2166,150.955261,-33.89954;;;
385,Sydney,Glossodia,NSW,2756,150.832474,-33.40782;;;
386,Sydney,Lavender;Bay,NSW,2060,151.208603,-33.843182;;
387,Sydney,Leichhardt,NSW,2040,151.158554,-33.883678;;;
388,Sydney,Gore;Hill,NSW,2065,151.186737,-33.822491;;
390,Sydney,Leppington,NSW,2171,150.949463,-33.737827;;;
391,Sydney,Grasmere,NSW,2570,151.219193,-33.825817;;;
392,Sydney,Lewisham,NSW,2049,151.144974,-33.894371;;;
393,Sydney,Grays;Point,NSW,2232,151.081406,-34.058609;;
394,Sydney,Liberty;Grove,NSW,2138,151.083603,-33.84166;;
395,Sydney,Lidcombe,NSW,2141,151.040833,-33.864861;;;
397,Sydney,Greendale,NSW,2546,150.929871,-33.883875;;;
398,Sydney,Lilyfield,NSW,2040,151.162415,-33.873779;;;
399,Sydney,Lindfield,NSW,2070,151.168671,-33.775188;;;
401,Sydney,Linley;Point,NSW,2066,151.149078,-33.826488;;
402,Sydney,Grose;Vale,NSW,2753,150.691498,-33.586872;;
403,Sydney,Little;Bay,NSW,2036,151.242371,-33.982922;;
404,Sydney,Grose;Wold,NSW,2753,150.688858,-33.600983;;
405,Sydney,Liverpool,NSW,2170,150.923096,-33.922451;;;
408,Sydney,Gymea,NSW,2227,151.084961,-34.035332;;;
409,Sydney,Longueville,NSW,2066,151.168716,-33.82922;;;
410,Sydney,Gymea;Bay,NSW,2227,151.087692,-34.042179;;
412,Sydney,Lugarno,NSW,2210,151.047882,-33.975929;;;
413,Sydney,Lurnea,NSW,2170,150.896255,-33.931519;;;
414,Sydney,Harbord,NSW,2096,151.285767,-33.77866;;;
416,Sydney,Harrington;Park,NSW,2567,150.737076,-34.027508;;
417,Sydney,Macquarie;Park,NSW,2113,151.124344,-33.77969;;
418,Sydney,Macquarie;University,NSW,2109,151.107971,-33.771576;;
419,Sydney,Hartley,NSW,2790,150.929871,-33.883875;;;
420,Sydney,Malabar,NSW,2036,151.246994,-33.962341;;;
421,Sydney,Hartley;Vale,NSW,2790,151.145248,-33.703247;;
423,Sydney,Hassall;Grove,NSW,2761,150.836777,-33.73476;;
424,Sydney,Manly,NSW,2093,151.25267,-33.797012;;;
425,Sydney,Hawkesbury;Heights,NSW,2777,150.596664,-33.683144;;
427,Sydney,Manly;Vale,NSW,2093,151.267715,-33.781761;;
428,Sydney,Hazelbrook,NSW,2779,150.706177,-33.724659;;;
429,Sydney,Marayong,NSW,2148,150.899765,-33.746269;;;
430,Sydney,Heathcote,NSW,2233,151.008682,-34.081669;;;
431,Sydney,Maroubra,NSW,2035,151.242813,-33.946121;;;
432,Sydney,Hebersham,NSW,2770,150.822617,-33.743999;;;
434,Sydney,Marrickville,NSW,2204,151.160553,-33.91251;;;
435,Sydney,Helensburgh,NSW,2508,150.975502,-34.202206;;;
437,Sydney,Helensburgh;North,NSW,2508,150.975502,-34.202206;;
438,Sydney,Marrickville;South,NSW,2204,151.151566,-33.91518;;
439,Sydney,Marsfield,NSW,2122,151.102325,-33.78035;;;
440,Sydney,Mascot,NSW,2020,151.194595,-33.929852;;;
441,Sydney,Matraville,NSW,2036,151.231522,-33.960442;;;
442,Sydney,Hobartville,NSW,2753,150.699982,-33.62237;;;
443,Sydney,Mays;Hill,NSW,2145,150.989746,-33.821789;;
444,Sydney,Mcmahons;Point,NSW,2060,151.203995,-33.846298;;
445,Sydney,Meadowbank,NSW,2114,151.091003,-33.816021;;;
446,Sydney,Melrose;Park,NSW,2114,151.075867,-33.81662;;
447,Sydney,Homebush;Bay,NSW,2127,151.070648,-33.8437;;
448,Sydney,Merrylands,NSW,2160,150.988174,-33.83617;;;
449,Sydney,Merrylands;West,NSW,2160,150.968231,-33.836411;;
450,Sydney,Middle;Cove,NSW,2068,151.207977,-33.79409;;
451,Sydney,Middle;Dural,NSW,2158,151.042435,-33.677614;;
452,Sydney,Middleton;Grange,NSW,2171,150.843552,-33.914089;;
453,Sydney,Miller,NSW,2168,150.885635,-33.92028;;;
454,Sydney,Millers;Point,NSW,2000,151.203323,-33.858318;;
455,Sydney,Milperra,NSW,2214,150.983063,-33.941441;;;
457,Sydney,Milsons;Point,NSW,2061,151.211334,-33.84605;;
459,Sydney,Mona;Vale,NSW,2103,151.299286,-33.678139;;
461,Sydney,Monterey,NSW,2217,151.151474,-33.971588;;;
462,Sydney,Illawong,NSW,2234,151.042007,-33.998619;;;
463,Sydney,Mooney;Mooney,NSW,2083,150.929871,-33.883875;;
464,Sydney,Ingleburn,NSW,2174,150.858337,-33.960745;;;
465,Sydney,Moore;Park,NSW,2021,151.225677,-33.896381;;
466,Sydney,Moorebank,NSW,2170,150.922928,-33.951389;;;
467,Sydney,Jamisontown,NSW,2750,150.676056,-33.770439;;;
469,Sydney,Jannali,NSW,2226,151.066055,-34.016289;;;
470,Sydney,Mortdale,NSW,2223,151.079742,-33.970131;;;
471,Sydney,Kangaroo;Point,NSW,2224,151.09668,-34.00198;;
472,Sydney,Mortlake,NSW,2137,151.107666,-33.842079;;;
473,Sydney,Kareela,NSW,2232,151.082382,-34.015369;;;
474,Sydney,Mosman,NSW,2088,151.244095,-33.829079;;;
475,Sydney,Katoomba,NSW,2780,151.085785,-33.943108;;;
476,Sydney,Mount;Colah,NSW,2079,151.115204,-33.67168;;
477,Sydney,Kearns,NSW,2558,150.803726,-34.022831;;;
478,Sydney,Mount;Kuring-gai,NSW,2080,151.132507,-33.656281;;
479,Sydney,Mount;Lewis,NSW,2190,151.050537,-33.916012;;
480,Sydney,Mount;Pritchard,NSW,2170,150.906906,-33.91346;;
481,Sydney,Mount;Vernon,NSW,2178,150.803497,-33.866245;;
482,Sydney,Naremburn,NSW,2065,151.201202,-33.817291;;;
483,Sydney,Kentlyn,NSW,2560,151.001053,-34.084572;;;
484,Sydney,Narrabeen,NSW,2101,151.298416,-33.720211;;;
485,Sydney,Narraweena,NSW,2099,151.273529,-33.749748;;;
486,Sydney,Narwee,NSW,2209,151.069809,-33.947109;;;
487,Sydney,Kings;Cross,NSW,2011,151.223404,-33.875835;;
488,Sydney,Neutral;Bay,NSW,2089,151.218536,-33.8372;;
490,Sydney,Newington,NSW,2127,151.054642,-33.839272;;;
491,Sydney,Newport,NSW,2106,151.309311,-33.659901;;;
493,Sydney,Kingswood,NSW,2340,150.929871,-33.883875;;;
494,Sydney,Newtown,NSW,2042,151.175812,-33.89859;;;
495,Sydney,Kingswood;Park,NSW,2340,150.929871,-33.883875;;
496,Sydney,Normanhurst,NSW,2076,151.096756,-33.72134;;;
497,Sydney,Kirkham,NSW,2570,150.731766,-34.039333;;;
498,Sydney,North;Balgowlah,NSW,2093,151.249557,-33.78603;;
499,Sydney,Kirrawee,NSW,2232,151.071106,-34.034229;;;
500,Sydney,North;Bondi,NSW,2026,151.276062,-33.88504;;
501,Sydney,North;Curl;Curl,NSW,2099,151.298004,-33.763008;
502,Sydney,North;Epping,NSW,2121,151.095688,-33.756809;;
503,Sydney,North;Manly,NSW,2100,151.270325,-33.775028;;
504,Sydney,Kurmond,NSW,2757,150.682907,-33.775826;;;
505,Sydney,North;Narrabeen,NSW,2101,151.296234,-33.707802;;
506,Sydney,Kurnell,NSW,2231,151.215332,-34.009579;;;
507,Sydney,North;Parramatta,NSW,2151,151.010529,-33.798859;;
508,Sydney,Kurrajong,NSW,2758,150.863708,-33.941643;;;
509,Sydney,North;Rocks,NSW,2151,151.020508,-33.77504;;
510,Sydney,Kurrajong;Heights,NSW,2758,150.929871,-33.883875;;
511,Sydney,North;Ryde,NSW,2113,151.119995,-33.793369;;
512,Sydney,Kurrajong;Hills,NSW,2758,150.929871,-33.883875;;
513,Sydney,North;Strathfield,NSW,2137,151.087524,-33.86129;;
514,Sydney,North;Sydney,NSW,2060,151.207779,-33.83989;;
516,Sydney,North;Turramurra,NSW,2074,151.147232,-33.71299;;
517,Sydney,North;Wahroonga,NSW,2076,151.123871,-33.700401;;
518,Sydney,North;Willoughby,NSW,2068,151.19664,-33.794998;;
519,Sydney,Northbridge,NSW,2063,151.211884,-33.811008;;;
520,Sydney,Northmead,NSW,2152,150.994675,-33.793739;;;
521,Sydney,Northwood,NSW,2066,151.177582,-33.828918;;;
522,Sydney,Oatlands,NSW,2117,151.021912,-33.793892;;;
523,Sydney,Oatley,NSW,2223,151.073776,-33.977871;;;
524,Sydney,Lapstone,NSW,2773,150.637238,-33.773861;;;
525,Sydney,Old;Guildford,NSW,2161,150.984802,-33.865429;;
526,Sydney,Old;Toongabbie,NSW,2146,150.974106,-33.792709;;
527,Sydney,Lawson,NSW,2783,151.229004,-33.879768;;;
528,Sydney,Oxford;Falls,NSW,2100,151.245026,-33.737148;;
529,Sydney,Leets;Vale,NSW,2756,150.945816,-33.696926;;
530,Sydney,Paddington,NSW,2021,151.228653,-33.88213;;;
531,Sydney,Padstow,NSW,2211,151.032394,-33.952171;;;
532,Sydney,Lemongrove,NSW,2750,150.707626,-33.753059;;;
533,Sydney,Padstow;Heights,NSW,2211,151.036423,-33.968189;;
534,Sydney,Leonay,NSW,2750,150.649124,-33.763988;;;
535,Sydney,Pagewood,NSW,2035,151.215897,-33.940361;;;
536,Sydney,Palm;Beach,NSW,2108,151.323151,-33.592449;;
537,Sydney,Lethbridge;Park,NSW,2770,150.797089,-33.738152;;
538,Sydney,Panania,NSW,2213,150.998367,-33.9548;;;
539,Sydney,Leumeah,NSW,2560,150.834244,-34.05167;;;
541,Sydney,Leura,NSW,2780,150.929871,-33.883875;;;
542,Sydney,Parramatta,NSW,2150,151.00354,-33.81731;;;
544,Sydney,Peakhurst,NSW,2210,151.058105,-33.962551;;;
546,Sydney,Lilli;Pilli,NSW,2536,151.069458,-33.771465;;
547,Sydney,Pemulwuy,NSW,2145,150.923752,-33.821941;;;
548,Sydney,Pendle;Hill,NSW,2145,150.954163,-33.806301;;
549,Sydney,Lilyvale,NSW,2508,150.984573,-34.199585;;;
550,Sydney,Pennant;Hills,NSW,2120,151.070343,-33.73661;;
551,Sydney,Linden,NSW,2480,150.929871,-33.883875;;;
552,Sydney,Penshurst,NSW,2222,151.092056,-33.969372;;;
553,Sydney,Petersham,NSW,2049,151.153915,-33.896278;;;
555,Sydney,Phillip;Bay,NSW,2036,151.235428,-33.982059;;
556,Sydney,Little;Hartley,NSW,2790,151.212585,-33.883698;;
557,Sydney,Pleasure;Point,NSW,2172,150.983994,-33.970131;;
558,Sydney,Llandilo,NSW,2747,150.759201,-33.695927;;;
559,Sydney,Point;Piper,NSW,2027,151.253448,-33.867439;;
560,Sydney,Loftus,NSW,2232,151.049408,-34.05125;;;
561,Sydney,Port;Botany,NSW,2036,151.223724,-33.974682;;
562,Sydney,Londonderry,NSW,2753,150.739563,-33.625484;;;
563,Sydney,Potts;Hill,NSW,2143,151.031204,-33.897652;;
564,Sydney,Long;Point,NSW,2330,151.029984,-33.997692;;
565,Sydney,Potts;Point,NSW,2011,151.222855,-33.87159;;
566,Sydney,Prairiewood,NSW,2176,150.906479,-33.857651;;;
567,Sydney,Lucas;Heights,NSW,2234,151.012421,-34.018761;;
568,Sydney,Prestons,NSW,2170,150.865051,-33.952438;;;
569,Sydney,Luddenham,NSW,2745,150.718536,-33.865997;;;
570,Sydney,Prospect,NSW,2148,150.916595,-33.800541;;;
571,Sydney,Punchbowl,NSW,2196,151.053741,-33.92585;;;
572,Sydney,Putney,NSW,2112,151.108871,-33.823818;;;
573,Sydney,Macquarie;Fields,NSW,2564,150.893784,-33.985352;;
574,Sydney,Pymble,NSW,2073,151.137497,-33.740528;;;
575,Sydney,Macquarie;Links,NSW,2565,150.866196,-33.98621;;
576,Sydney,Pyrmont,NSW,2009,151.195465,-33.870838;;;
577,Sydney,Queens;Park,NSW,2022,151.248001,-33.899471;;
578,Sydney,Queenscliff,NSW,2096,151.284363,-33.782639;;;
579,Sydney,Ramsgate,NSW,2217,151.138077,-33.984421;;;
580,Sydney,Ramsgate;Beach,NSW,2217,151.14798,-33.982689;;
581,Sydney,Maraylya,NSW,2765,151.241425,-33.808903;;;
582,Sydney,Randwick,NSW,2031,151.239914,-33.91399;;;
583,Sydney,Redfern,NSW,2016,151.206818,-33.893169;;;
584,Sydney,Maroota,NSW,2756,150.832474,-33.40782;;;
585,Sydney,Regents;Park,NSW,2143,151.024033,-33.882149;;
586,Sydney,Revesby,NSW,2212,151.016769,-33.956928;;;
587,Sydney,Revesby;Heights,NSW,2212,151.019592,-33.968948;;
589,Sydney,Marsden;Park,NSW,2765,150.851196,-33.680603;;
590,Sydney,Rhodes,NSW,2138,151.089539,-33.827049;;;
591,Sydney,Riverview,NSW,2066,151.162155,-33.823059;;;
592,Sydney,Riverwood,NSW,2210,151.051697,-33.953701;;;
593,Sydney,Rockdale,NSW,2216,151.138092,-33.951809;;;
594,Sydney,Rodd;Point,NSW,2046,151.145157,-33.865311;;
595,Sydney,Mcgraths;Hill,NSW,2756,150.842743,-33.621338;;
596,Sydney,Rookwood,NSW,2141,151.062546,-33.874901;;;
597,Sydney,Rose;Bay,NSW,2029,151.268234,-33.870609;;
599,Sydney,Medlow;Bath,NSW,2780,150.929871,-33.883875;;
600,Sydney,Rosebery,NSW,2018,151.206009,-33.919243;;;
601,Sydney,Megalong;Valley,NSW,2785,150.830383,-34.074856;;
602,Sydney,Rosehill,NSW,2142,151.030457,-33.823811;;;
603,Sydney,Roselands,NSW,2196,151.074387,-33.936722;;;
604,Sydney,Menai,NSW,2234,151.011765,-34.01519;;;
605,Sydney,Roseville,NSW,2069,151.175797,-33.78368;;;
606,Sydney,Menangle,NSW,2563,150.929871,-33.883875;;;
607,Sydney,Roseville;Chase,NSW,2069,151.200394,-33.77874;;
608,Sydney,Menangle;Park,NSW,2563,150.803741,-34.070919;;
609,Sydney,Round;Corner,NSW,2158,151.017914,-33.695099;;
610,Sydney,Rouse;Hill,NSW,2155,150.922348,-33.67923;;
611,Sydney,Royal;North;Shore;Hospital,NSW,2065,151.194374,-33.827789
612,Sydney,Rozelle,NSW,2039,151.170364,-33.863441;;;
613,Sydney,Rushcutters;Bay,NSW,2011,151.225952,-33.875648;;
614,Sydney,Russell;Lea,NSW,2046,151.141403,-33.860241;;
615,Sydney,Rydalmere,NSW,2116,151.041626,-33.812881;;;
616,Sydney,Ryde,NSW,2112,151.105469,-33.81332;;;
617,Sydney,Sadleir,NSW,2168,150.889343,-33.920738;;;
618,Sydney,Sandringham,NSW,2219,151.13942,-33.998131;;;
619,Sydney,Minchinbury,NSW,2770,150.84642,-33.785278;;;
620,Sydney,Sandy;Point,NSW,2171,150.84626,-33.91342;;
621,Sydney,Minto,NSW,2566,150.844696,-34.031189;;;
622,Sydney,Sans;Souci,NSW,2219,151.132172,-33.992779;;
623,Sydney,Minto;Heights,NSW,2566,150.845093,-34.021763;;
625,Sydney,Miranda,NSW,2228,151.102417,-34.033871;;;
626,Sydney,Seaforth,NSW,2092,151.242477,-33.792511;;;
627,Sydney,Sefton,NSW,2162,151.012497,-33.890171;;;
628,Sydney,Seven;Hills,NSW,2147,150.933884,-33.77597;;
630,Sydney,Silverwater,NSW,2128,151.045486,-33.83543;;;
631,Sydney,Smithfield,NSW,2164,150.94043,-33.85355;;;
633,Sydney,South;Coogee,NSW,2034,151.252823,-33.928829;;
634,Sydney,South;Granville,NSW,2142,150.999817,-33.862099;;
635,Sydney,Mount;Annan,NSW,2567,150.760468,-34.050499;;
636,Sydney,South;Hurstville,NSW,2221,151.104614,-33.977219;;
637,Sydney,South;Turramurra,NSW,2074,151.112732,-33.75034;;
638,Sydney,Mount;Druitt,NSW,2770,150.817276,-33.765289;;
639,Sydney,South;Wentworthville,NSW,2145,150.96933,-33.821671;;
640,Sydney,Mount;Hunter,NSW,2570,150.78772,-34.078972;;
642,Sydney,St;Ives,NSW,2075,151.165604,-33.738232;;
643,Sydney,St;Ives;Chase,NSW,2075,151.160645,-33.71022;
644,Sydney,Mount;Pleasant,NSW,2749,151.094879,-33.730247;;
645,Sydney,St;Johns;Park,NSW,2176,150.906128,-33.885101;
646,Sydney,St;Leonards,NSW,2065,151.192291,-33.82468;;
647,Sydney,Mount;Riverview,NSW,2774,150.633804,-33.729549;;
649,Sydney,Mount;Tomah,NSW,2758,150.929871,-33.883875;;
650,Sydney,St;Peters,NSW,2044,151.177353,-33.914299;;
651,Sydney,Stanmore,NSW,2048,151.16423,-33.8937;;;
652,Sydney,Mount;Victoria,NSW,2786,150.929871,-33.883875;;
653,Sydney,Strathfield,NSW,2135,151.093094,-33.87154;;;
654,Sydney,Mulgoa,NSW,2745,150.650421,-33.853905;;;
655,Sydney,Strathfield;South,NSW,2136,151.083832,-33.891941;;
656,Sydney,Mulgrave,NSW,2756,150.833054,-33.617519;;;
657,Sydney,Summer;Hill,NSW,2130,151.13913,-33.895512;;
658,Sydney,Narellan,NSW,2567,150.735291,-34.040039;;;
659,Sydney,Surry;Hills,NSW,2010,151.212982,-33.879051;;
660,Sydney,Narellan;Vale,NSW,2567,150.74707,-34.049438;;
661,Sydney,Sydenham,NSW,2044,151.166992,-33.916111;;;
662,Sydney,Sydney,NSW,2000,151.210007,-33.869576;;;
663,Sydney,Sydney;Domestic;Airport,NSW,2020,151.164673,-33.932362;
664,Sydney,Sydney;International;Airport,NSW,2020,151.164673,-33.932362;
665,Sydney,Sydney;Olympic;Park,NSW,2127,151.069366,-33.843529;
666,Sydney,Nelson,NSW,2765,150.90184,-33.666225;;;
668,Sydney,Tamarama,NSW,2026,151.270035,-33.899559;;;
669,Sydney,Telopea,NSW,2117,151.043365,-33.795189;;;
670,Sydney,Tempe,NSW,2044,151.160782,-33.920471;;;
671,Sydney,Tennyson;Point,NSW,2111,151.118744,-33.828629;;
672,Sydney,Terrey;Hills,NSW,2084,151.229721,-33.683819;;
673,Sydney,The;Rocks,NSW,2000,151.209076,-33.858528;;
674,Sydney,The;University;Of;Sydney,NSW,2006,151.18692,-33.887926
675,Sydney,North;Cronulla,NSW,2230,151.088043,-34.03474;;
676,Sydney,Thornleigh,NSW,2120,151.083405,-33.72821;;;
677,Sydney,Toongabbie,NSW,2146,150.963806,-33.786171;;;
678,Sydney,North;Engadine,NSW,2233,151.085434,-34.034599;;
680,Sydney,Turramurra,NSW,2074,151.129196,-33.732601;;;
681,Sydney,Turrella,NSW,2205,151.143631,-33.930859;;;
682,Sydney,Ultimo,NSW,2007,151.197266,-33.878422;;;
683,Sydney,Unsw;Sydney,NSW,2052,151.231049,-33.917545;;
684,Sydney,North;Richmond,NSW,2754,150.929871,-33.883875;;
685,Sydney,Vaucluse,NSW,2030,151.279251,-33.85915;;;
686,Sydney,Villawood,NSW,2163,150.984741,-33.881031;;;
687,Sydney,Voyager;Point,NSW,2172,150.973022,-33.962238;;
688,Sydney,North;Seaforth,NSW,2092,151.293518,-33.761883;;
689,Sydney,Wahroonga,NSW,2076,151.117386,-33.718719;;;
690,Sydney,North;St;Ives,NSW,2075,151.1745,-33.71323;
691,Sydney,Waitara,NSW,2077,151.105286,-33.709629;;;
692,Sydney,North;St;Marys,NSW,2760,150.777176,-33.74884;
693,Sydney,Wakeley,NSW,2176,150.91095,-33.870071;;;
694,Sydney,Wareemba,NSW,2046,151.131012,-33.858139;;;
695,Sydney,Warrawee,NSW,2074,151.123703,-33.725311;;;
696,Sydney,Warriewood,NSW,2102,151.291397,-33.68602;;;
699,Sydney,Warwick;Farm,NSW,2170,150.937759,-33.911518;;
700,Sydney,Waterloo,NSW,2017,151.205338,-33.900421;;;
701,Sydney,Watsons;Bay,NSW,2030,151.283524,-33.842999;;
702,Sydney,Oakdale,NSW,2570,150.898254,-33.924843;;;
703,Sydney,Wattle;Grove,NSW,2173,150.939163,-33.954929;;
704,Sydney,Oakhurst,NSW,2761,150.835373,-33.74139;;;
705,Sydney,Waverley,NSW,2024,151.25386,-33.899151;;;
706,Sydney,Oakville,NSW,2765,150.856964,-33.622307;;;
707,Sydney,Waverton,NSW,2060,151.196823,-33.837662;;;
708,Sydney,Wentworth;Point,NSW,2648,150.973907,-33.866531;;
709,Sydney,Wentworthville,NSW,2145,150.972153,-33.803082;;;
710,Sydney,West;Hoxton,NSW,2171,150.847107,-33.92915;;
711,Sydney,West;Pennant;Hills,NSW,2125,151.031021,-33.744549;
712,Sydney,Oran;Park,NSW,2570,150.926239,-33.870708;;
713,Sydney,West;Pymble,NSW,2073,151.135513,-33.76823;;
714,Sydney,Orangeville,NSW,2570,150.837799,-33.686932;;;
715,Sydney,West;Ryde,NSW,2114,151.08638,-33.809151;;
716,Sydney,Orchard;Hills,NSW,2748,0,0;;
718,Sydney,Osborne;Park,NSW,2066,151.178879,-33.81654;;
719,Sydney,Westleigh,NSW,2120,151.068405,-33.71936;;;
720,Sydney,Otford,NSW,2508,150.982452,-34.199066;;;
721,Sydney,Westmead,NSW,2145,150.984665,-33.81451;;;
722,Sydney,Wetherill;Park,NSW,2164,150.904877,-33.85461;;
723,Sydney,Oxley;Park,NSW,2760,150.795914,-33.77523;;
724,Sydney,Whale;Beach,NSW,2107,151.330444,-33.614269;;
725,Sydney,Oyster;Bay,NSW,2225,151.080963,-34.006859;;
726,Sydney,Wheeler;Heights,NSW,2097,151.277435,-33.732479;;
727,Sydney,Wiley;Park,NSW,2195,151.063904,-33.924412;;
728,Sydney,Willoughby,NSW,2068,151.199387,-33.807331;;;
729,Sydney,Willoughby;East,NSW,2068,151.208786,-33.795971;;
731,Sydney,Winston;Hills,NSW,2153,150.974823,-33.778099;;
732,Sydney,Wolli;Creek,NSW,2205,151.155273,-33.93074;;
733,Sydney,Parklea,NSW,2155,150.917053,-33.728222;;;
734,Sydney,Wollstonecraft,NSW,2065,151.196945,-33.83149;;;
735,Sydney,Woodpark,NSW,2164,150.961136,-33.84053;;;
736,Sydney,Patonga,NSW,2256,150.929871,-33.883875;;;
737,Sydney,Woollahra,NSW,2025,151.24794,-33.88958;;;
738,Sydney,Woolloomooloo,NSW,2011,151.219788,-33.869068;;;
739,Sydney,Woolwich,NSW,2110,151.169922,-33.84021;;;
740,Sydney,Yagoona,NSW,2199,151.010086,-33.905239;;;
741,Sydney,Pendle;Hill;South,NSW,2145,150.952515,-33.811165;
743,Sydney,Yennora,NSW,2161,150.97377,-33.863449;;;
744,Sydney,Penrith,NSW,2750,150.698563,-33.753819;;;
745,Sydney,Zetland,NSW,2017,151.207581,-33.907501;;;
747,Sydney,Picton,NSW,2571,150.658066,-34.216007;;;
748,Sydney,Pitt;Town,NSW,2756,150.864365,-33.591274;;
749,Sydney,Pitt;Town;Bottoms,NSW,2756,150.856293,-33.573589;
750,Sydney,Plumpton,NSW,2761,150.834213,-33.747028;;;
751,Sydney,Port;Hacking,NSW,2229,151.122452,-34.067501;;
752,Sydney,Quakers;Hill,NSW,2763,150.886612,-33.726421;;
753,Sydney,Raby,NSW,2566,150.819992,-34.026089;;;
754,Sydney,Razorback,NSW,2571,150.580818,-34.243176;;;
755,Sydney,Regentville,NSW,2745,150.666794,-33.774899;;;
756,Sydney,Richmond,NSW,2323,150.929871,-33.883875;;;
757,Sydney,Richmond;Lowlands,NSW,2753,150.790024,-33.646393;;
758,Sydney,Riverstone,NSW,2765,150.863464,-33.678379;;;
759,Sydney,Rooty;Hill,NSW,2766,150.834396,-33.770809;;
760,Sydney,Ropes;Crossing,NSW,2760,150.778503,-33.740696;;
761,Sydney,Rosemeadow,NSW,2560,150.797897,-34.100521;;;
762,Sydney,Rossmore,NSW,2171,151.054474,-33.926052;;;
763,Sydney,Ruse,NSW,2560,150.841446,-34.07296;;;
764,Sydney,Sackville,NSW,2756,150.87561,-33.502411;;;
765,Sydney,Scheyville,NSW,2756,150.905289,-33.597267;;;
766,Sydney,Schofields,NSW,2762,150.874336,-33.705404;;;
767,Sydney,Shalvey,NSW,2770,150.809662,-33.729092;;;
768,Sydney,Shanes;Park,NSW,2747,150.780197,-33.704185;;
769,Sydney,Shipley,NSW,2785,151.092224,-33.859531;;;
770,Sydney,Silverdale,NSW,2752,150.639816,-33.865204;;;
771,Sydney,Smeaton;Grange,NSW,2567,150.755844,-34.043243;;
772,Sydney,South;Belmore,NSW,2192,151.085526,-33.916569;;
773,Sydney,South;Maroota,NSW,2756,151.212799,-33.809212;;
774,Sydney,South;Penrith,NSW,2750,150.697083,-33.773529;;
775,Sydney,South;Windsor,NSW,2756,150.832413,-33.613663;;
776,Sydney,Spring;Creek,NSW,2800,150.63736,-34.0714;;
777,Sydney,Spring;Farm,NSW,2570,150.713287,-34.068302;;
778,Sydney,Springwood,NSW,2777,150.571487,-33.69751;;;
779,Sydney,St;Andrews,NSW,2566,150.832016,-34.018749;;
780,Sydney,St;Clair,NSW,2759,150.7798,-33.797359;;
781,Sydney,St;Helens;Park,NSW,2560,150.807144,-34.105122;
782,Sydney,St;Marys,NSW,2760,150.771515,-33.74725;;
783,Sydney,Stanhope;Gardens,NSW,2768,150.920746,-33.71899;;
784,Sydney,Stanwell;Park,NSW,2508,150.983536,-34.229153;;
785,Sydney,Stanwell;Tops,NSW,2508,150.983536,-34.229153;;
786,Sydney,Strathfield;West,NSW,2135,151.093735,-33.872303;;
787,Sydney,Sun;Valley,NSW,2777,150.595123,-33.711182;;
788,Sydney,Sutherland,NSW,2232,151.057419,-34.03149;;;
789,Sydney,Sydney;City,NSW,2000,151.209549,-33.901222;;
790,Sydney,Sylvania,NSW,2224,151.096008,-34.008759;;;
791,Sydney,Sylvania;Waters,NSW,2224,151.108994,-34.022942;;
792,Sydney,Tahmoor,NSW,2573,150.936768,-33.799187;;;
793,Sydney,Taren;Point,NSW,2229,151.123337,-34.018051;;
794,Sydney,The;Oaks,NSW,2570,151.132812,-33.928677;;
795,Sydney,The;Slopes,NSW,2754,150.751755,-34.057125;;
796,Sydney,The;Spit,NSW,2088,151.246704,-33.806568;;
797,Sydney,Theresa;Park,NSW,2570,150.616089,-33.98827;;
798,Sydney,Tregear,NSW,2770,150.79686,-33.751419;;;
799,Sydney,Undercliffe,NSW,2206,151.149048,-33.925529;;;
800,Sydney,Valley;Heights,NSW,2777,150.584274,-33.705719;;
801,Sydney,Varroville,NSW,2566,150.570663,-34.073299;;;
802,Sydney,Vineyard,NSW,2765,151.033112,-33.806507;;;
803,Sydney,Wallacia,NSW,2745,150.934692,-33.829388;;;
804,Sydney,Warragamba,NSW,2752,150.882034,-33.853428;;;
805,Sydney,Warrimoo,NSW,2774,150.605164,-33.723228;;;
806,Sydney,Waterfall,NSW,2233,151.004364,-34.081547;;;
807,Sydney,Webbs;Creek,NSW,2775,150.929871,-33.883875;;
808,Sydney,Wedderburn,NSW,2560,150.81871,-34.135357;;;
809,Sydney,Wentworth;Falls,NSW,2782,151.195312,-33.879204;;
810,Sydney,Werombi,NSW,2570,150.576233,-33.977551;;;
811,Sydney,Werrington,NSW,2747,150.746277,-33.757179;;;
812,Sydney,Werrington;County,NSW,2747,150.743164,-33.746552;;
813,Sydney,Werrington;Downs,NSW,2747,150.72641,-33.743099;;
814,Sydney,West;Killara,NSW,2071,151.144043,-33.75153;;
815,Sydney,West;Lindfield,NSW,2070,151.15155,-33.78075;;
816,Sydney,Whalan,NSW,2770,150.805161,-33.75502;;;
817,Sydney,Wilberforce,NSW,2756,150.838776,-33.562317;;;
818,Sydney,Willmot,NSW,2770,150.788406,-33.72504;;;
819,Sydney,Wilton,NSW,2571,150.700027,-34.237572;;;
820,Sydney,Windsor,NSW,2756,150.832413,-33.613663;;;
821,Sydney,Windsor;Downs,NSW,2756,150.832413,-33.613663;;
822,Sydney,Wingala,NSW,2099,151.284653,-33.764252;;;
823,Sydney,Winmalee,NSW,2777,150.606354,-33.674759;;;
824,Sydney,Wisemans;Ferry,NSW,2775,150.908127,-33.557571;;
825,Sydney,Woodbine,NSW,2560,150.825043,-34.046181;;;
826,Sydney,Woodcroft,NSW,2767,150.878204,-33.7528;;;
827,Sydney,Woodford,NSW,2463,150.929871,-33.883875;;;
828,Sydney,Woolooware,NSW,2230,151.141373,-34.048801;;;
829,Sydney,Woronora,NSW,2232,151.048187,-34.020611;;;
830,Sydney,Woronora;Dam,NSW,2508,150.975502,-34.202206;;
831,Sydney,Woronora;Heights,NSW,2233,151.026947,-34.033669;;
832,Sydney,Yarramundi,NSW,2753,150.709564,-33.604542;;;
833,Sydney,Yarrawarrah,NSW,2233,151.030273,-34.05806;;;
834,Sydney,Yellow;Rock,NSW,2527,150.745728,-34.585793;;
835,Sydney,Yowie;Bay,NSW,2228,151.100403,-34.0429;;
836,TVM,KESAVADASAPURAM,NSW,2228,8.48596,76.94823;;;
837,TVM,PATTOM,NSW,2527,8.48516,76.94823;;;
838,TVM,poovar,NSW,2228,8.48546,76.94823;;;
839,TVM,vizhinjam,NSW,2228,8.48576,76.94823;;;
