SUBURB_ID,LOCALITY_NAME,SUBURB_NAME,STATE,POSTCODE,LONGITUDE,LATITUDE
2761,PERTH,Alexander Heights,WA,6064,115.853439,-31.831051
2762,PERTH,Alfred Cove,WA,6154,115.815659,-32.031559
2763,PERTH,Alkimos,WA,6038,115.912231,-31.924074
2764,PERTH,Anketell,WA,6167,115.885612,-31.982227
2765,PERTH,Applecross,WA,6153,115.834808,-32.010342
2766,PERTH,Ardross,WA,6153,115.835533,-32.02055
2767,PERTH,Armadale,WA,6112,116.020576,-32.151001
2768,PERTH,Ascot,WA,6104,115.943932,-31.93074
2769,PERTH,Ashby,WA,6065,115.800423,-31.737789
2770,PERTH,Ashfield,WA,6054,115.934822,-31.914221
2771,PERTH,Attadale,WA,6156,115.802322,-32.02636
2772,PERTH,Atwell,WA,6164,115.86554,-32.146019
2773,PERTH,Aubin Grove,WA,6164,115.852215,-32.131229
2774,PERTH,Australind,WA,6233,115.771873,-31.981272
2775,PERTH,Balcatta,WA,6021,115.828346,-31.87315
2776,PERTH,Baldivis,WA,6171,115.830406,-32.056938
2777,PERTH,Balga,WA,6061,115.837784,-31.8557
2778,PERTH,Ballajura,WA,6066,115.890999,-31.83614
2779,PERTH,Banjup,WA,6164,115.727699,-31.692505
2780,PERTH,Banksia Grove,WA,6031,115.806038,-31.703461
2781,PERTH,Banksiadale,WA,6213,115.863243,-31.87505
2782,PERTH,Barragup,WA,6210,115.912231,-31.924074
2783,PERTH,Baskerville,WA,6056,116.050022,-31.86238
2784,PERTH,Bassendean,WA,6054,115.942169,-31.908039
2785,PERTH,Bateman,WA,6150,115.843323,-32.054428
2786,PERTH,Bayswater,WA,6053,115.920052,-31.923901
2787,PERTH,Beaconsfield,WA,6162,115.773621,-32.067139
2788,PERTH,Beckenham,WA,6107,115.953796,-32.028099
2789,PERTH,Bedford,WA,6052,115.894051,-31.915159
2790,PERTH,Bedfordale,WA,6112,116.018311,-32.159092
2791,PERTH,Beechboro,WA,6063,115.927818,-31.86779
2792,PERTH,Beeliar,WA,6164,115.80304,-32.129131
2793,PERTH,Beldon,WA,6027,115.763489,-31.774521
2794,PERTH,Belhus,WA,6069,115.754608,-31.86935
2795,PERTH,Bellevue,WA,6056,116.02076,-31.899099
2796,PERTH,Belmont,WA,6104,115.931351,-31.94421
2797,PERTH,Bentley,WA,6102,115.917778,-32.002781
2798,PERTH,Bertram,WA,6167,115.912231,-31.924074
2799,PERTH,Bibra Lake,WA,6163,115.812401,-32.08992
2800,PERTH,Bickley,WA,6076,116.098846,-32.001621
2801,PERTH,Bicton,WA,6157,115.78524,-32.029911
2802,PERTH,Binningup,WA,6233,115.905357,-32.009567
2803,PERTH,Birchmont,WA,6214,115.912231,-31.924074
2804,PERTH,Blythewood,WA,6208,115.775291,-31.770802
2805,PERTH,Booragoon,WA,6154,115.83239,-32.035999
2806,PERTH,Bouvard,WA,6210,115.809349,-31.822985
2807,PERTH,Boya,WA,6056,116.049026,-31.91889
2808,PERTH,Brentwood,WA,6153,115.848488,-32.041599
2809,PERTH,Breton Bay,WA,6043,115.906517,-31.852592
2810,PERTH,Brigadoon,WA,6069,115.947479,-31.909391
2811,PERTH,Broadway Nedlands,WA,6009,115.803047,-31.97897
2812,PERTH,Brookdale,WA,6112,115.963333,-32.16053
2813,PERTH,Bull Creek,WA,6149,115.86541,-32.056782
2814,PERTH,Bullsbrook,WA,6084,115.761452,-32.093784
2815,PERTH,Bunbury,WA,6230,115.816528,-32.056412
2816,PERTH,Burns Beach,WA,6028,115.729301,-31.728161
2817,PERTH,Burswood,WA,6100,115.898071,-31.96151
2818,PERTH,Butler,WA,6036,115.912231,-31.924074
2819,PERTH,Byford,WA,6122,116.011642,-32.217037
2820,PERTH,Calista,WA,6167,115.79599,-31.709591
2821,PERTH,Canning Bridge Applecross,WA,6153,115.852226,-32.011311
2822,PERTH,Canning Mills,WA,6111,116.101151,-32.073818
2823,PERTH,Canning Vale,WA,6155,115.928612,-32.080238
2824,PERTH,Canning Vale South,WA,6155,115.91774,-32.098091
2825,PERTH,Cannington,WA,6107,115.933868,-32.015289
2826,PERTH,Caraban,WA,6041,116.001457,-32.051311
2827,PERTH,Carabooda,WA,6033,115.912231,-31.924074
2828,PERTH,Cardup,WA,6122,116.032169,-32.246901
2829,PERTH,Carey Park,WA,6230,115.99279,-32.085594
2830,PERTH,Carine,WA,6020,115.776619,-31.851089
2831,PERTH,Carlisle,WA,6101,115.918549,-31.97201
2832,PERTH,Carmel,WA,6076,116.093399,-32.020939
2833,PERTH,Carramar,WA,6031,115.789558,-31.712391
2834,PERTH,Casuarina,WA,6167,115.912231,-31.924074
2835,PERTH,Caversham,WA,6055,115.99025,-31.878296
2836,PERTH,Champion Lakes,WA,6111,116.005272,-32.103088
2837,PERTH,Chittering,WA,6084,116.03157,-31.670033
2838,PERTH,Churchlands,WA,6018,115.796219,-31.915831
2839,PERTH,City Beach,WA,6015,115.759727,-31.913679
2840,PERTH,Claremont,WA,6010,115.780083,-31.98353
2841,PERTH,Claremont North,WA,6010,115.782417,-31.9855
2842,PERTH,Clarkson,WA,6030,115.717102,-31.689581
2843,PERTH,Clifton,WA,6210,115.912231,-31.924074
2844,PERTH,Cloverdale,WA,6105,115.937851,-31.964479
2845,PERTH,College Grove,WA,6230,115.79068,-31.974274
2846,PERTH,Como,WA,6152,115.858368,-31.993759
2847,PERTH,Connolly,WA,6027,115.750183,-31.75272
2848,PERTH,Coodanup,WA,6210,115.912231,-31.924074
2849,PERTH,Coogee,WA,6166,115.765121,-32.111832
2850,PERTH,Coolbellup,WA,6163,115.804787,-32.081348
2851,PERTH,Coolbinia,WA,6050,115.849701,-31.91444
2852,PERTH,Cooloongup,WA,6168,115.912231,-31.924074
2853,PERTH,Coolup,WA,6214,115.85598,-32.096886
2854,PERTH,Cottesloe,WA,6011,115.757278,-31.99605
2855,PERTH,Craigie,WA,6025,115.767143,-31.78673
2856,PERTH,Crawley,WA,6009,115.821548,-31.9862
2857,PERTH,Cullacabardee,WA,6067,115.912231,-31.924074
2858,PERTH,Currambine,WA,6028,115.744904,-31.72978
2859,PERTH,Daglish,WA,6008,115.81012,-31.953569
2860,PERTH,Dalkeith,WA,6009,115.800232,-31.99481
2861,PERTH,Dalyellup,WA,6230,115.759377,-31.660517
2862,PERTH,Darch,WA,6065,115.912231,-31.924074
2863,PERTH,Darling Downs,WA,6122,116.032169,-32.246901
2864,PERTH,Darlington,WA,6070,116.078079,-31.90156
2865,PERTH,Davenport,WA,6230,115.912231,-31.924074
2866,PERTH,Dawesville,WA,6210,115.756859,-31.752657
2867,PERTH,Dianella,WA,6059,115.87236,-31.891069
2868,PERTH,Dog Swamp,WA,6060,115.843727,-31.910749
2869,PERTH,Doubleview,WA,6018,115.782516,-31.89579
2870,PERTH,Dudley Park,WA,6210,115.962959,-32.037827
2871,PERTH,Duncraig,WA,6023,115.763252,-31.81665
2872,PERTH,Dwellingup,WA,6213,115.82663,-32.234409
2873,PERTH,East Bunbury,WA,6230,115.816528,-32.056412
2874,PERTH,East Fremantle,WA,6158,115.769127,-32.040699
2875,PERTH,East Perth,WA,6004,115.87674,-31.951162
2876,PERTH,East Rockingham,WA,6168,115.771828,-32.083183
2877,PERTH,East Victoria Park,WA,6101,115.903481,-31.98522
2878,PERTH,Eaton,WA,6232,115.879501,-31.869335
2879,PERTH,Eden Hill,WA,6054,115.9375,-31.890921
2880,PERTH,Edgewater,WA,6027,115.782692,-31.771469
2881,PERTH,Eglinton,WA,6034,115.813309,-31.853727
2882,PERTH,Ellenbrook,WA,6069,116.026001,-31.721886
2883,PERTH,Ellenbrook East,WA,6069,115.829933,-31.946877
2884,PERTH,Embleton,WA,6062,115.90937,-31.90291
2885,PERTH,Erskine,WA,6210,115.912231,-31.924074
2886,PERTH,Etmilyn,WA,6213,115.909126,-31.998613
2887,PERTH,Fairbridge,WA,6208,115.912231,-31.924074
2888,PERTH,Falcon,WA,6210,115.912231,-31.924074
2889,PERTH,Ferndale,WA,6148,115.928169,-32.033161
2890,PERTH,Floreat,WA,6014,115.792389,-31.92802
2891,PERTH,Forrestdale,WA,6112,115.823608,-31.94792
2892,PERTH,Forrestfield,WA,6058,116.000778,-31.969629
2893,PERTH,Fremantle,WA,6160,115.748238,-32.05286
2894,PERTH,Furnissdale,WA,6210,115.912231,-31.924074
2895,PERTH,Gabbadah,WA,6041,115.912231,-31.924074
2896,PERTH,Garden Island,WA,6168,115.912231,-31.924074
2897,PERTH,Gelorup,WA,6230,115.782417,-31.879065
2898,PERTH,Gidgegannup,WA,6083,115.912231,-31.924074
2899,PERTH,Girrawheen,WA,6064,115.831497,-31.841801
2900,PERTH,Glen Forrest,WA,6071,116.104271,-31.90345
2901,PERTH,Glen Iris,WA,6230,115.854446,-32.095146
2902,PERTH,Glendalough,WA,6016,115.820633,-31.91923
2903,PERTH,Glengarry,WA,6023,115.782013,-31.829437
2904,PERTH,Gnangara,WA,6065,115.847763,-31.90909
2905,PERTH,Golden Bay,WA,6174,116.000702,-31.94895
2906,PERTH,Gooseberry Hill,WA,6076,116.036583,-31.96014
2907,PERTH,Gosnells,WA,6110,116.008881,-32.078629
2908,PERTH,Greenfields,WA,6210,115.933762,-32.021893
2909,PERTH,Greenmount,WA,6056,116.047981,-31.902929
2910,PERTH,Greenwood,WA,6024,115.801743,-31.83094
2911,PERTH,Guilderton,WA,6041,115.81945,-32.068645
2912,PERTH,Guildford,WA,6055,115.968803,-31.89983
2913,PERTH,Gwelup,WA,6018,115.792091,-31.859449
2914,PERTH,Hacketts Gully,WA,6076,115.990822,-31.679489
2915,PERTH,Halls Head,WA,6210,115.794724,-32.08057
2916,PERTH,Hamersley,WA,6022,115.806,-31.85177
2917,PERTH,Hamilton Hill,WA,6163,115.778351,-32.080898
2918,PERTH,Hammond Park,WA,6164,115.843529,-32.133411
2919,PERTH,Hazelmere,WA,6055,115.999786,-31.92045
2920,PERTH,Heathridge,WA,6027,115.762268,-31.76359
2921,PERTH,Helena Valley,WA,6056,116.016518,-31.91095
2922,PERTH,Henderson,WA,6166,115.811302,-32.142319
2923,PERTH,Henley Brook,WA,6055,115.980652,-31.808578
2924,PERTH,Herne Hill,WA,6056,116.006912,-31.83815
2925,PERTH,Herron,WA,6210,115.800194,-31.929741
2926,PERTH,High Wycombe,WA,6057,115.998428,-31.924709
2927,PERTH,Highgate,WA,6003,115.86937,-31.93886
2928,PERTH,Hillarys,WA,6025,115.745682,-31.80769
2929,PERTH,Hillman,WA,6168,115.965813,-31.90992
2930,PERTH,Hilton,WA,6163,115.789673,-32.067841
2931,PERTH,Hocking,WA,6065,115.81929,-31.776409
2932,PERTH,Holyoake,WA,6213,115.942047,-32.072639
2933,PERTH,Hope Valley,WA,6165,116.055603,-31.990585
2934,PERTH,Hopeland,WA,6125,115.948921,-31.949762
2935,PERTH,Hovea,WA,6071,115.929123,-31.872572
2936,PERTH,Huntingdale,WA,6110,115.962662,-32.076469
2937,PERTH,Iluka,WA,6028,115.732674,-31.736811
2938,PERTH,Inglehope,WA,6213,115.912231,-31.924074
2939,PERTH,Inglewood,WA,6052,115.886818,-31.92061
2940,PERTH,Innaloo,WA,6018,115.793747,-31.882999
2941,PERTH,Jandabup,WA,6065,115.812592,-31.748829
2942,PERTH,Jandakot,WA,6164,115.853142,-32.123878
2943,PERTH,Jane Brook,WA,6056,116.047394,-31.859171
2944,PERTH,Jarrahdale,WA,6124,115.796509,-31.787188
2945,PERTH,Jindalee,WA,6036,115.901039,-31.847513
2946,PERTH,Jolimont,WA,6014,115.812691,-31.94718
2947,PERTH,Joondalup,WA,6027,115.759987,-31.732491
2948,PERTH,Joondanna,WA,6060,115.83831,-31.910391
2949,PERTH,Kalamunda,WA,6076,116.057312,-31.970221
2950,PERTH,Kallaroo,WA,6025,115.74472,-31.78924
2951,PERTH,Karakin,WA,6044,115.881981,-32.008129
2952,PERTH,Karawara,WA,6152,115.880852,-32.011551
2953,PERTH,Kardinya,WA,6163,115.819443,-32.067749
2954,PERTH,Karnup,WA,6176,116.05761,-31.98033
2955,PERTH,Karragullen,WA,6111,116.160149,-32.157505
2956,PERTH,Karrakatta,WA,6010,115.800423,-31.96586
2957,PERTH,Karrakup,WA,6122,116.032169,-32.246901
2958,PERTH,Karrinyup,WA,6018,115.770767,-31.85779
2959,PERTH,Kelmscott,WA,6111,116.017982,-32.123539
2960,PERTH,Kelmscott Dc,WA,6997,115.852551,-31.954676
2961,PERTH,Kensington,WA,6151,115.879272,-31.9799
2962,PERTH,Kenwick,WA,6107,115.97361,-32.044048
2963,PERTH,Kewdale,WA,6105,115.927299,-31.9781
2964,PERTH,Keysbrook,WA,6126,115.701591,-31.686941
2965,PERTH,Kiara,WA,6054,115.938522,-31.883961
2966,PERTH,Kings Park,WA,6005,115.84407,-31.957991
2967,PERTH,Kingsley,WA,6026,115.788803,-31.808149
2968,PERTH,Kingsway,WA,6065,115.813423,-31.982073
2969,PERTH,Kinross,WA,6028,115.739243,-31.7173
2970,PERTH,Koondoola,WA,6064,115.858948,-31.842159
2971,PERTH,Koongamia,WA,6056,116.042618,-31.905899
2972,PERTH,Kwinana,WA,6966,115.847321,-31.962334
2973,PERTH,Kwinana Beach,WA,6167,115.912231,-31.924074
2974,PERTH,Lancelin,WA,6044,115.755829,-32.081112
2975,PERTH,Landsdale,WA,6065,115.86396,-31.80757
2976,PERTH,Langford,WA,6147,115.934822,-32.039619
2977,PERTH,Lathlain,WA,6100,115.90461,-31.96496
2978,PERTH,Leda,WA,6170,115.912231,-31.924074
2979,PERTH,Ledge Point,WA,6043,115.74688,-31.821325
2980,PERTH,Leederville,WA,6007,115.841888,-31.931931
2981,PERTH,Leeming,WA,6149,115.858841,-32.078442
2982,PERTH,Leschenault,WA,6233,115.779739,-32.122116
2983,PERTH,Lesmurdie,WA,6076,116.048012,-32.01548
2984,PERTH,Lexia,WA,6065,116.030418,-31.755699
2985,PERTH,Lockridge,WA,6054,115.956551,-31.88217
2986,PERTH,Lower Chittering,WA,6084,116.03157,-31.670033
2987,PERTH,Lynwood,WA,6147,115.933258,-32.040722
2988,PERTH,Maddington,WA,6109,115.983459,-32.050838
2989,PERTH,Madeley,WA,6065,115.821289,-31.8132
2990,PERTH,Madora Bay,WA,6210,115.790817,-31.710855
2991,PERTH,Mahogany Creek,WA,6072,115.912231,-31.924074
2992,PERTH,Maida Vale,WA,6057,116.021111,-31.94759
2993,PERTH,Malaga,WA,6090,115.882362,-31.85321
2994,PERTH,Mandogalup,WA,6167,115.825058,-32.179016
2995,PERTH,Mandurah,WA,6210,115.849762,-32.137104
2996,PERTH,Mandurah East,WA,6210,115.915321,-31.842796
2997,PERTH,Mandurah North,WA,6210,115.915321,-31.842796
2998,PERTH,Manning,WA,6152,115.868973,-32.015171
2999,PERTH,Marangaroo,WA,6064,115.826347,-31.831631
3000,PERTH,Mardella,WA,6125,115.855766,-31.916395
3001,PERTH,Mariginiup,WA,6065,115.773018,-31.770687
3002,PERTH,Marmion,WA,6020,115.75148,-31.84404
3003,PERTH,Marrinup,WA,6213,115.773018,-31.770687
3004,PERTH,Martin,WA,6110,116.022697,-32.116299
3005,PERTH,Maylands,WA,6051,115.897263,-31.9293
3006,PERTH,Meadow Springs,WA,6210,115.912231,-31.924074
3007,PERTH,Medina,WA,6167,115.756409,-31.743212
3008,PERTH,Meelon,WA,6208,115.768021,-31.764076
3009,PERTH,Melaleuca,WA,6065,115.912231,-31.924074
3010,PERTH,Melville,WA,6156,115.80201,-32.042488
3011,PERTH,menora,WA,6050,115.862556,-31.917549
3012,PERTH,Merriwa,WA,6030,115.709129,-31.668819
3013,PERTH,Middle Swan,WA,6056,116.014931,-31.849159
3014,PERTH,Midland,WA,6056,116.009644,-31.89113
3015,PERTH,Midvale,WA,6056,116.032593,-31.89435
3016,PERTH,Millbridge,WA,6232,115.914062,-31.882309
3017,PERTH,Millendon,WA,6056,115.793709,-31.708536
3018,PERTH,Mindarie,WA,6030,115.71344,-31.68367
3019,PERTH,Mirrabooka,WA,6061,115.866249,-31.864759
3020,PERTH,Morangup,WA,6083,115.772034,-31.783552
3021,PERTH,Morley,WA,6062,115.896889,-31.89427
3022,PERTH,Mosman Park,WA,6012,115.765053,-32.014832
3023,PERTH,Mount Claremont,WA,6010,115.77282,-31.959089
3024,PERTH,Mount Hawthorn,WA,6016,115.837334,-31.920691
3025,PERTH,Mount Helena,WA,6082,115.862907,-32.023396
3026,PERTH,Mount Lawley,WA,6050,115.87674,-31.928659
3027,PERTH,Mount Nasura,WA,6112,116.017937,-32.13406
3028,PERTH,Mount Pleasant,WA,6153,115.852882,-32.02422
3029,PERTH,Mount Richon,WA,6112,116.020691,-32.15992
3030,PERTH,Mullaloo,WA,6027,115.743294,-31.77807
3031,PERTH,Mundaring,WA,6073,115.836617,-31.936567
3032,PERTH,Mundijong,WA,6123,115.912231,-31.924074
3033,PERTH,Munster,WA,6166,115.854691,-31.952147
3034,PERTH,Murdoch,WA,6150,115.836212,-32.063122
3035,PERTH,Myara,WA,6207,115.934128,-31.943497
3036,PERTH,Myaree,WA,6154,115.815666,-32.037281
3037,PERTH,Nambeelup,WA,6207,115.912231,-31.924074
3038,PERTH,Naval Base,WA,6165,115.734093,-31.758047
3039,PERTH,Nedlands,WA,6009,115.803146,-31.9792
3040,PERTH,Neerabup,WA,6031,115.730782,-31.694063
3041,PERTH,Nilgen,WA,6044,115.71637,-31.67651
3042,PERTH,Nirimba,WA,6208,116.004539,-32.048866
3043,PERTH,Nollamara,WA,6061,115.843658,-31.880819
3044,PERTH,Noranda,WA,6062,115.895882,-31.8755
3045,PERTH,North Beach,WA,6020,115.755676,-31.861099
3046,PERTH,North Dandalup,WA,6207,115.912231,-31.924074
3047,PERTH,North Fremantle,WA,6159,115.752609,-32.031368
3048,PERTH,North Lake,WA,6163,115.820808,-32.075401
3049,PERTH,North Perth,WA,6006,115.870064,-31.926611
3050,PERTH,North Yunderup,WA,6208,115.912231,-31.924074
3051,PERTH,Northbridge,WA,6003,115.856354,-31.945299
3052,PERTH,Nowergup,WA,6032,115.73204,-31.64592
3053,PERTH,O'connor,WA,6163,116.034721,-31.870045
3054,PERTH,Oakford,WA,6121,115.841141,-31.938837
3055,PERTH,Oakley,WA,6208,115.991829,-32.032032
3056,PERTH,Ocean Reef,WA,6027,115.732971,-31.75066
3057,PERTH,Oldbury,WA,6121,115.76342,-31.823477
3058,PERTH,Orange Grove,WA,6109,115.982887,-32.142078
3059,PERTH,Orelia,WA,6167,147.173813,-41.574554
3060,PERTH,Padbury,WA,6025,115.766792,-31.80504
3061,PERTH,Palmyra,WA,6157,115.779427,-32.041969
3062,PERTH,Parkerville,WA,6081,115.912231,-31.924074
3063,PERTH,Parkfield,WA,6233,115.912231,-31.924074
3064,PERTH,Parklands,WA,6210,115.892128,-32.035515
3065,PERTH,Parkwood,WA,6147,115.917183,-32.042992
3066,PERTH,Parmelia,WA,6167,115.754898,-32.070683
3067,PERTH,Paulls Valley,WA,6076,116.106499,-31.964914
3068,PERTH,Pearsall,WA,6065,115.819313,-31.777559
3069,PERTH,Pelican Point,WA,6230,115.896782,-31.845549
3070,PERTH,Peppermint Grove,WA,6011,115.766777,-32.001549
3071,PERTH,Pickering Brook,WA,6076,116.139938,-32.033611
3072,PERTH,Piesse Brook,WA,6076,115.987343,-32.14175
3073,PERTH,Pinjar,WA,6065,115.768303,-31.932085
3074,PERTH,Pinjarra,WA,6208,116.039948,-32.004745
3075,PERTH,Point Grey,WA,6208,115.912231,-31.924074
3076,PERTH,Port Kennedy,WA,6172,115.912231,-31.924074
3077,PERTH,Postans,WA,6167,115.813248,-32.179306
3078,PERTH,Queens Park,WA,6107,115.93544,-32.003632
3079,PERTH,Quinns Rocks,WA,6030,115.705017,-31.66464
3080,PERTH,Ravenswood,WA,6208,115.912231,-31.924074
3081,PERTH,Red Hill,WA,6056,115.941299,-31.882902
3082,PERTH,Redcliffe,WA,6104,115.946838,-31.93169
3083,PERTH,Reservoir,WA,6076,116.209534,-31.989946
3084,PERTH,Ridgewood,WA,6030,115.721542,-31.66828
3085,PERTH,Riverton,WA,6148,115.894043,-32.030609
3086,PERTH,Rivervale,WA,6103,115.915993,-31.960011
3087,PERTH,Rockingham,WA,6168,115.77124,-32.082897
3088,PERTH,Rockingham Beach,WA,6969,115.77124,-32.082897
3089,PERTH,Roleystone,WA,6111,116.071411,-32.12524
3090,PERTH,Rossmoyne,WA,6148,115.86779,-32.03862
3091,PERTH,Rottnest Island,WA,6161,115.912231,-31.924074
3092,PERTH,Royal Australian Navy Warships,WA,6958,115.852551,-31.954676
3093,PERTH,Safety Bay,WA,6169,115.912231,-31.924074
3094,PERTH,Salter Point,WA,6152,115.862793,-32.020641
3095,PERTH,Samson,WA,6163,115.802437,-32.070461
3096,PERTH,San Remo,WA,6210,115.722603,-31.689878
3097,PERTH,Sawyers Valley,WA,6074,115.986267,-32.095074
3098,PERTH,Scarborough,WA,6019,115.761208,-31.898081
3099,PERTH,Seabird,WA,6042,115.759583,-31.790791
3100,PERTH,Secret Harbour,WA,6173,115.912231,-31.924074
3101,PERTH,Serpentine,WA,6125,115.847351,-32.130154
3102,PERTH,Seville Grove,WA,6112,115.984589,-32.14703
3103,PERTH,Shelley,WA,6148,115.881927,-32.034309
3104,PERTH,Shenton Park,WA,6008,115.814308,-31.96088
3105,PERTH,Shoalwater,WA,6169,115.756218,-32.080914
3106,PERTH,Silver Sands,WA,6210,115.732178,-31.739334
3107,PERTH,Sinagra,WA,6065,115.813179,-31.74695
3108,PERTH,Singleton,WA,6175,115.760536,-32.014908
3109,PERTH,Solus,WA,6207,115.791023,-31.783066
3110,PERTH,Sorrento,WA,6020,115.752983,-31.82342
3111,PERTH,South Bunbury,WA,6230,115.816528,-32.056412
3112,PERTH,South Fremantle,WA,6162,115.753021,-32.06773
3113,PERTH,South Guildford,WA,6055,115.966316,-31.91
3114,PERTH,South Lake,WA,6164,115.84613,-32.111
3115,PERTH,South Perth,WA,6151,115.866211,-32.065674
3116,PERTH,South Yunderup,WA,6208,115.912231,-31.924074
3117,PERTH,Southern River,WA,6110,115.989441,-32.082939
3118,PERTH,Spearwood,WA,6163,115.78273,-32.114769
3119,PERTH,St James,WA,6102,115.910042,-31.999189
3120,PERTH,Stake Hill,WA,6210,115.867844,-31.929966
3121,PERTH,Stirling,WA,6021,115.809891,-31.885981
3122,PERTH,Stoneville,WA,6081,116.165962,-31.830154
3123,PERTH,Stratton,WA,6056,116.04303,-31.86598
3124,PERTH,Subiaco,WA,6008,115.82399,-31.946831
3125,PERTH,Success,WA,6164,115.847054,-32.14555
3126,PERTH,Swan View,WA,6056,116.05175,-31.885941
3127,PERTH,Swanbourne,WA,6010,115.767479,-31.97098
3128,PERTH,Tamala Park,WA,6030,115.722878,-31.709721
3129,PERTH,Tapping,WA,6065,115.788948,-31.715441
3130,PERTH,Teesdale,WA,6213,115.842789,-32.00943
3131,PERTH,The Spectacles,WA,6167,115.845337,-32.218845
3132,PERTH,The Vines,WA,6069,115.868782,-32.00248
3133,PERTH,Thornlie,WA,6108,115.94133,-32.059872
3134,PERTH,Trigg,WA,6029,115.76413,-31.866289
3135,PERTH,Tuart Hill,WA,6060,115.83477,-31.89658
3136,PERTH,Two Rocks,WA,6037,115.912231,-31.924074
3137,PERTH,Upper Swan,WA,6069,115.976372,-31.874228
3138,PERTH,Usher,WA,6230,115.794769,-32.17976
3139,PERTH,Victoria Park,WA,6100,115.898369,-31.97678
3140,PERTH,Vittoria,WA,6230,115.978317,-31.861589
3141,PERTH,Viveash,WA,6056,115.999702,-31.87738
3142,PERTH,Waikiki,WA,6169,115.912231,-31.924074
3143,PERTH,Walliston,WA,6076,116.069557,-31.99802
3144,PERTH,Wandi,WA,6167,115.767174,-31.829136
3145,PERTH,Wangara,WA,6065,115.830238,-31.79565
3146,PERTH,Wannanup,WA,6210,115.912231,-31.924074
3147,PERTH,Wanneroo,WA,6065,115.803772,-31.75049
3148,PERTH,Warnbro,WA,6169,115.987778,-31.916197
3149,PERTH,Warwick,WA,6024,115.808113,-31.84465
3150,PERTH,Waterford,WA,6152,115.886269,-32.013988
3151,PERTH,Watermans Bay,WA,6020,115.757263,-31.846661
3152,PERTH,Wattle Grove,WA,6107,115.927803,-31.87553
3153,PERTH,Wattleup,WA,6166,115.794212,-32.177158
3154,PERTH,Wedge Island,WA,6044,115.912231,-31.924074
3155,PERTH,Wellard,WA,6170,115.804092,-32.103622
3156,PERTH,Wellesley,WA,6233,115.797813,-32.065693
3157,PERTH,Welshpool,WA,6106,115.940071,-31.99016
3158,PERTH,Wembley,WA,6014,115.817192,-31.927719
3159,PERTH,Wembley Downs,WA,6019,115.772057,-31.92116
3160,PERTH,West Coolup,WA,6214,115.85598,-32.096886
3161,PERTH,West Leederville,WA,6007,115.833427,-31.938721
3162,PERTH,West Perth,WA,6005,115.840553,-31.944828
3163,PERTH,West Pinjarra,WA,6208,116.039948,-32.004745
3164,PERTH,West Swan,WA,6055,115.986702,-31.863987
3165,PERTH,Westfield,WA,6111,116.001244,-32.12001
3166,PERTH,Westminster,WA,6061,115.837479,-31.870831
3167,PERTH,Whitby,WA,6123,115.915611,-32.011768
3168,PERTH,White Gum Valley,WA,6162,115.773232,-32.059681
3169,PERTH,Whiteman,WA,6068,116.008469,-31.899057
3170,PERTH,Whittaker,WA,6207,115.902191,-31.919672
3171,PERTH,Wilbinga,WA,6041,115.782097,-31.89517
3172,PERTH,Willagee,WA,6156,115.805473,-32.050919
3173,PERTH,Willagee Central,WA,6156,115.804329,-32.035419
3174,PERTH,Willetton,WA,6155,115.889153,-32.052361
3175,PERTH,Wilson,WA,6107,115.910652,-32.018822
3176,PERTH,Winthrop,WA,6150,115.833008,-32.058819
3177,PERTH,Withers,WA,6230,115.828651,-32.060959
3178,PERTH,Woodbridge,WA,6056,115.995941,-31.890671
3179,PERTH,Woodlands,WA,6018,115.790176,-31.900141
3180,PERTH,Woodridge,WA,6041,116.055908,-31.895687
3181,PERTH,Woodvale,WA,6026,115.796654,-31.797461
3182,PERTH,Wungong,WA,6112,116.011452,-32.15905
3183,PERTH,Yanchep,WA,6035,115.865807,-32.164658
3184,PERTH,Yangebup,WA,6164,115.794769,-32.11731
3185,PERTH,Yokine,WA,6060,115.850143,-31.90151
3321,PERTH,Perth Airport,WA,6105,115.973824,-31.94178
