SUBURB_ID,LOCALITY_NAME,SUBURB_NAME,STATE,POSTCODE,LONGITUDE,LATITUDE
1375,BRISBANE,Acacia Ridge,QLD,4110,153.028427,-27.59038
1376,BRISBANE,Adare,QLD,4343,153.0522,-27.302481
1377,BRISBANE,Advancetown,QLD,4211,152.981178,-27.419125
1378,BRISBANE,Albany Creek,QLD,4035,152.965378,-27.34589
1379,BRISBANE,Alberton,QLD,4207,153.257294,-27.715738
1380,BRISBANE,Albion,QLD,4010,153.041656,-27.4303
1381,BRISBANE,Alderley,QLD,4051,152.999207,-27.4247
1382,BRISBANE,Alexandra Hills,QLD,4161,153.220444,-27.52277
1383,BRISBANE,Algester,QLD,4115,153.035217,-27.616501
1384,BRISBANE,Allora,QLD,4362,152.981178,-27.419125
1385,BRISBANE,Amberley,QLD,4306,152.702393,-27.64043
1386,BRISBANE,Amity,QLD,4183,152.981178,-27.419125
1387,BRISBANE,Amity Point,QLD,4183,152.981178,-27.419125
1388,BRISBANE,Anglers Paradise,QLD,4216,152.981178,-27.419125
1389,BRISBANE,Annerley,QLD,4103,153.031784,-27.514009
1390,BRISBANE,Anstead,QLD,4070,152.861847,-27.54402
1391,BRISBANE,Arana Hills,QLD,4054,152.961563,-27.38912
1392,BRISBANE,Aratula,QLD,4309,153.043976,-27.585516
1393,BRISBANE,Archerfield,QLD,4108,153.014923,-27.568171
1394,BRISBANE,Aroona,QLD,4551,152.983139,-27.584818
1395,BRISBANE,Arundel,QLD,4214,152.981178,-27.419125
1396,BRISBANE,Ascot,QLD,4359,152.981178,-27.419125
1397,BRISBANE,Ashgrove,QLD,4060,152.991974,-27.445681
1398,BRISBANE,Ashmore,QLD,4214,152.990005,-27.411339
1399,BRISBANE,Aspley,QLD,4034,153.019653,-27.36422
1400,BRISBANE,Athol,QLD,4350,153.012634,-27.513664
1401,BRISBANE,Auchenflower,QLD,4066,152.996124,-27.47341
1402,BRISBANE,Augustine Heights,QLD,4300,152.905243,-27.649076
1403,BRISBANE,Austinville,QLD,4213,152.981178,-27.419125
1404,BRISBANE,Avoca Vale,QLD,4306,152.376358,-27.15744
1405,BRISBANE,Bahrs Scrub,QLD,4207,153.187073,-27.741898
1406,BRISBANE,Bald Hills,QLD,4036,153.009949,-27.322081
1407,BRISBANE,Balmoral,QLD,4171,153.067215,-27.4562
1408,BRISBANE,Balmoral Ridge,QLD,4552,152.847153,-27.549086
1409,BRISBANE,Banks Creek,QLD,4306,152.729614,-27.397375
1410,BRISBANE,Banksia Beach,QLD,4507,152.981178,-27.419125
1411,BRISBANE,Bannockburn,QLD,4207,153.192123,-27.75992
1412,BRISBANE,Banyo,QLD,4014,153.077835,-27.37491
1413,BRISBANE,Bardon,QLD,4065,152.986771,-27.45804
1414,BRISBANE,Barellan Point,QLD,4306,152.847473,-27.574209
1415,BRISBANE,Barker Creek Flat,QLD,4615,152.981178,-27.419125
1416,BRISBANE,Basin Pocket,QLD,4305,152.771301,-27.600861
1417,BRISBANE,Battery Hill,QLD,4551,153.044342,-27.354769
1418,BRISBANE,Beachmere,QLD,4510,152.980087,-27.087023
1419,BRISBANE,Beaudesert,QLD,4285,153.023163,-27.524908
1420,BRISBANE,Beechmont,QLD,4211,153.128464,-27.494619
1421,BRISBANE,Beenleigh,QLD,4207,153.186966,-27.713949
1422,BRISBANE,Beerburrum,QLD,4517,152.951706,-27.084661
1423,BRISBANE,Beerwah,QLD,4519,152.981178,-27.419125
1424,BRISBANE,Belivah,QLD,4207,153.183456,-27.75691
1425,BRISBANE,Bellara,QLD,4507,152.981178,-27.419125
1426,BRISBANE,Bellbird Park,QLD,4300,152.872864,-27.64678
1427,BRISBANE,Bellbowrie,QLD,4070,152.886108,-27.563
1428,BRISBANE,Bells Creek,QLD,4551,153.072449,-27.033249
1429,BRISBANE,Belmont,QLD,4153,153.127304,-27.48904
1430,BRISBANE,Benarkin,QLD,4306,152.948303,-27.608461
1431,BRISBANE,Benarkin North,QLD,4306,152.948303,-27.608461
1432,BRISBANE,Benowa,QLD,4217,153.036041,-27.521351
1433,BRISBANE,Bergen,QLD,4353,153.074203,-27.534224
1434,BRISBANE,Berrinba,QLD,4117,153.068817,-27.6535
1435,BRISBANE,Bethania,QLD,4205,153.154541,-27.692829
1436,BRISBANE,Biggera Waters,QLD,4216,152.981178,-27.419125
1437,BRISBANE,Bilinga,QLD,4225,152.991974,-27.23469
1438,BRISBANE,Birkdale,QLD,4159,153.210052,-27.505369
1439,BRISBANE,Black Duck Creek,QLD,4343,152.981178,-27.419125
1440,BRISBANE,Blackbutt,QLD,4306,152.103958,-26.892435
1441,BRISBANE,Blackbutt North,QLD,4306,152.103958,-26.892435
1442,BRISBANE,Blackbutt South,QLD,4306,152.103958,-26.892435
1443,BRISBANE,Blacksoil,QLD,4306,152.376358,-27.15744
1444,BRISBANE,Blackstone,QLD,4304,152.811356,-27.630671
1445,BRISBANE,Blackwall,QLD,4306,152.764084,-27.559099
1446,BRISBANE,Bli Bli,QLD,4560,152.981178,-27.419125
1447,BRISBANE,Bond University,QLD,4229,152.981178,-27.419125
1448,BRISBANE,Bongaree,QLD,4507,152.940521,-27.087709
1449,BRISBANE,Bonogin,QLD,4213,152.861557,-27.663246
1450,BRISBANE,Boonah,QLD,4310,152.971176,-27.266827
1451,BRISBANE,Boondall,QLD,4034,153.061279,-27.352949
1452,BRISBANE,Booroobin,QLD,4552,152.981178,-27.419125
1453,BRISBANE,Booval,QLD,4304,152.785706,-27.613911
1454,BRISBANE,Borallon,QLD,4306,152.376358,-27.15744
1455,BRISBANE,Boronia Heights,QLD,4124,153.010788,-27.6882
1456,BRISBANE,Bowen Hills,QLD,4006,153.037079,-27.447639
1457,BRISBANE,Boykambil,QLD,4212,153.176987,-27.654499
1458,BRISBANE,Bracalba,QLD,4512,152.981178,-27.419125
1459,BRISBANE,Bracken Ridge,QLD,4017,153.026245,-27.331141
1460,BRISBANE,Braemore,QLD,4313,153.066483,-27.387838
1461,BRISBANE,Brassall,QLD,4305,152.745895,-27.594561
1462,BRISBANE,Bray Park,QLD,4500,152.960434,-27.29248
1463,BRISBANE,Breakfast Creek,QLD,4010,153.043381,-27.440069
1464,BRISBANE,Bremer,QLD,4305,152.763733,-27.65885
1465,BRISBANE,Brendale,QLD,4500,152.982346,-27.32696
1466,BRISBANE,Bribie Island,QLD,4507,152.987656,-27.086557
1467,BRISBANE,Bribie Island North,QLD,4507,152.987656,-27.086557
1468,BRISBANE,Bridgeman Downs,QLD,4035,152.991043,-27.36462
1469,BRISBANE,Brighton,QLD,4017,153.062195,-27.29291
1470,BRISBANE,Brisbane,QLD,4000,153.022774,-27.46512
1472,BRISBANE,Brisbane Adelaide Street,QLD,4000,153.025757,-27.467859
1473,BRISBANE,Brisbane Airport,QLD,4007,153.109482,-27.39934
1474,BRISBANE,Brisbane Exhibition,QLD,4006,153.030655,-27.45083
1475,BRISBANE,Brisbane Market,QLD,4106,152.999344,-27.534189
1476,BRISBANE,Brisbane-City,QLD,4000,153.022774,-27.46512
1477,BRISBANE,Broadbeach,QLD,4218,152.987839,-27.432831
1478,BRISBANE,Broadbeach Waters,QLD,4218,152.981178,-27.419125
1479,BRISBANE,Brookfield,QLD,4069,152.911865,-27.49313
1480,BRISBANE,Brookside Centre,QLD,4053,152.979111,-27.40885
1481,BRISBANE,Brookwater,QLD,4300,152.894043,-27.655384
1482,BRISBANE,Browns Plains,QLD,4118,153.052841,-27.662741
1483,BRISBANE,Bryden,QLD,4312,153.031982,-27.439116
1484,BRISBANE,Buaraba South,QLD,4311,152.863815,-27.662493
1485,BRISBANE,Buccan,QLD,4207,153.145477,-27.739006
1486,BRISBANE,Buderim,QLD,4556,153.173996,-27.45409
1487,BRISBANE,Budgee,QLD,4359,153.030182,-27.365463
1488,BRISBANE,Bulimba,QLD,4171,153.059296,-27.451361
1489,BRISBANE,Bullcamp,QLD,4615,152.981178,-27.419125
1490,BRISBANE,Bulwer,QLD,4025,153.367844,-27.076851
1491,BRISBANE,Bundall,QLD,4217,153.035492,-27.393656
1492,BRISBANE,Bundamba,QLD,4304,152.812225,-27.60914
1493,BRISBANE,Bunya,QLD,4055,152.97937,-27.38047
1494,BRISBANE,Buranda,QLD,4102,153.035355,-27.49999
1495,BRISBANE,Burbank,QLD,4156,153.15802,-27.52821
1496,BRISBANE,Burleigh Heads,QLD,4220,152.981178,-27.419125
1497,BRISBANE,Burleigh Town,QLD,4220,152.981178,-27.419125
1498,BRISBANE,Burleigh Waters,QLD,4220,152.981178,-27.419125
1499,BRISBANE,Burpengary,QLD,4505,152.970016,-27.15473
1500,BRISBANE,Caboolture,QLD,4510,152.950287,-27.070721
1501,BRISBANE,Caboolture South,QLD,4510,152.939316,-27.093361
1502,BRISBANE,Caboonbah,QLD,4312,153.382675,-27.680544
1503,BRISBANE,Caffey,QLD,4343,153.097656,-27.678961
1504,BRISBANE,Calamvale,QLD,4116,153.049423,-27.62178
1505,BRISBANE,Caloundra,QLD,4551,153.170456,-27.469461
1506,BRISBANE,Caloundra West,QLD,4551,153.170456,-27.469461
1507,BRISBANE,Cambooya,QLD,4358,153.043533,-27.584951
1508,BRISBANE,Cambroon,QLD,4552,153.079926,-27.489761
1509,BRISBANE,Camira,QLD,4300,152.917984,-27.641781
1510,BRISBANE,Camp Hill,QLD,4152,153.076965,-27.50041
1511,BRISBANE,Camp Mountain,QLD,4520,152.913681,-27.32696
1512,BRISBANE,Cannon Hill,QLD,4170,153.089447,-27.457769
1513,BRISBANE,Canowindra,QLD,4209,152.930328,-27.534513
1514,BRISBANE,Canungra,QLD,4275,153.023926,-27.224815
1515,BRISBANE,Capalaba,QLD,4157,153.193359,-27.525709
1516,BRISBANE,Capalaba West,QLD,4157,153.184189,-27.519341
1517,BRISBANE,Cape Moreton,QLD,4025,153.452606,-27.02689
1518,BRISBANE,Carbrook,QLD,4130,153.226715,-27.674004
1519,BRISBANE,Carina,QLD,4152,153.100006,-27.48982
1520,BRISBANE,Carina Heights,QLD,4152,153.099045,-27.505091
1521,BRISBANE,Carindale,QLD,4152,153.102005,-27.50563
1522,BRISBANE,Carole Park,QLD,4300,152.933228,-27.619289
1523,BRISBANE,Carpendale,QLD,4344,153.103622,-27.500446
1524,BRISBANE,Carrara,QLD,4211,153.080536,-27.524109
1525,BRISBANE,Carseldine,QLD,4034,153.015182,-27.350531
1526,BRISBANE,Cashmere,QLD,4500,152.947678,-27.412191
1527,BRISBANE,Castaways Beach,QLD,4567,152.981178,-27.419125
1528,BRISBANE,Cedar Creek,QLD,4520,152.916626,-27.414478
1530,BRISBANE,Cedar Grove,QLD,4285,153.287476,-27.586525
1531,BRISBANE,Cedar Vale,QLD,4285,152.934906,-27.452944
1532,BRISBANE,Centenary Heights,QLD,4350,152.95842,-27.511084
1533,BRISBANE,Central Plaza,QLD,4001,153.221619,-27.692856
1534,BRISBANE,Chambers Flat,QLD,4133,153.089523,-27.728983
1535,BRISBANE,Chandler,QLD,4155,153.178223,-27.508801
1536,BRISBANE,Chapel Hill,QLD,4069,152.945145,-27.49926
1537,BRISBANE,Chatswood Hills,QLD,4127,153.134964,-27.63069
1538,BRISBANE,Chelmer,QLD,4068,152.977646,-27.516581
1539,BRISBANE,Chermside,QLD,4032,153.033936,-27.38636
1540,BRISBANE,Chermside West,QLD,4032,153.012604,-27.38413
1541,BRISBANE,Cherry Creek,QLD,4306,152.135803,-26.912161
1542,BRISBANE,Chevron Island,QLD,4217,152.937805,-27.389992
1543,BRISBANE,Chirn Park,QLD,4215,152.981178,-27.419125
1544,BRISBANE,Churchable,QLD,4311,152.981178,-27.419125
1545,BRISBANE,Churchill,QLD,4305,152.752487,-27.63908
1546,BRISBANE,Chuwar,QLD,4306,152.793411,-27.56951
1547,BRISBANE,Clagiraba,QLD,4211,152.981178,-27.419125
1548,BRISBANE,Clayfield,QLD,4011,153.056686,-27.41754
1549,BRISBANE,Clear Island Waters,QLD,4226,152.981178,-27.419125
1550,BRISBANE,Clear Mountain,QLD,4500,152.911316,-27.323227
1551,BRISBANE,Cleveland,QLD,4163,153.267105,-27.526529
1552,BRISBANE,Clifton,QLD,4361,152.981178,-27.419125
1553,BRISBANE,Clontarf,QLD,4019,153.082474,-27.259251
1554,BRISBANE,Closeburn,QLD,4520,153.072723,-27.534039
1555,BRISBANE,Coalfalls,QLD,4305,152.744247,-27.60387
1556,BRISBANE,Colinton,QLD,4306,152.386536,-27.0585
1557,BRISBANE,College View,QLD,4343,152.970398,-27.622011
1558,BRISBANE,Collingwood Park,QLD,4301,152.866241,-27.611441
1559,BRISBANE,Colmslie,QLD,4170,153.078384,-27.456039
1560,BRISBANE,Commissioners Flat,QLD,4514,152.981178,-27.419125
1561,BRISBANE,Conondale,QLD,4552,152.981178,-27.419125
1562,BRISBANE,Coochiemudlo Island,QLD,4184,152.981178,-27.419125
1563,BRISBANE,Coochin Creek,QLD,4519,152.981178,-27.419125
1564,BRISBANE,Cooeeimbardi,QLD,4313,152.981178,-27.419125
1565,BRISBANE,Coolangatta,QLD,4225,152.981178,-27.419125
1566,BRISBANE,Coolum Beach,QLD,4573,152.981178,-27.419125
1567,BRISBANE,Coombabah,QLD,4216,152.931732,-27.536169
1568,BRISBANE,Coomera,QLD,4209,153.069016,-27.606869
1569,BRISBANE,Coominya,QLD,4311,153.048721,-27.590031
1570,BRISBANE,Coopers Plains,QLD,4108,153.038727,-27.56757
1571,BRISBANE,Cooran,QLD,4569,153.190063,-27.708344
1572,BRISBANE,Cooroy,QLD,4563,152.97406,-27.614702
1573,BRISBANE,Cooroy Mountain,QLD,4563,152.913681,-27.32696
1574,BRISBANE,Coorparoo,QLD,4151,153.060089,-27.49395
1575,BRISBANE,Corinda,QLD,4075,152.981705,-27.53936
1576,BRISBANE,Cornubia,QLD,4130,153.206711,-27.66567
1577,BRISBANE,Cotton Tree,QLD,4558,152.9487,-27.179052
1578,BRISBANE,Cowan Cowan,QLD,4025,153.365814,-27.126011
1579,BRISBANE,Craigslea,QLD,4032,153.018265,-27.37862
1580,BRISBANE,Cranley,QLD,4350,153.003616,-27.462334
1581,BRISBANE,Crestmead,QLD,4132,153.104385,-27.689409
1582,BRISBANE,Crohamhurst,QLD,4519,152.981178,-27.419125
1583,BRISBANE,Crossdale,QLD,4312,153.034103,-27.565752
1584,BRISBANE,Crows Nest,QLD,4355,152.871445,-27.503515
1585,BRISBANE,Curramore,QLD,4552,152.994263,-27.451015
1586,BRISBANE,Currimundi,QLD,4551,152.951614,-27.147982
1587,BRISBANE,Currumbin,QLD,4223,152.981178,-27.419125
1588,BRISBANE,Currumbin Valley,QLD,4223,153.117142,-27.529453
1589,BRISBANE,Currumbin Waters,QLD,4223,152.981178,-27.419125
1590,BRISBANE,Cypress Gardens,QLD,4218,153.233002,-27.735479
1591,BRISBANE,D'aguilar,QLD,4514,152.943359,-27.452848
1592,BRISBANE,Daisy Hill,QLD,4127,153.154709,-27.63648
1593,BRISBANE,Dakabin,QLD,4503,152.987732,-27.21277
1594,BRISBANE,Darling Heights,QLD,4350,152.981178,-27.419125
1595,BRISBANE,Darra,QLD,4076,152.95224,-27.56563
1596,BRISBANE,Dayboro,QLD,4521,152.977951,-27.269985
1597,BRISBANE,Deagon,QLD,4017,153.05719,-27.326269
1598,BRISBANE,Deception Bay,QLD,4508,153.016632,-27.18977
1599,BRISBANE,Deebing Heights,QLD,4306,152.75386,-27.619659
1600,BRISBANE,Deuchar,QLD,4362,152.981178,-27.419125
1601,BRISBANE,Diamond Valley,QLD,4553,153.003113,-27.250118
1602,BRISBANE,Dicky Beach,QLD,4551,152.981178,-27.419125
1603,BRISBANE,Diddillibah,QLD,4559,152.981178,-27.419125
1604,BRISBANE,Dinmore,QLD,4303,152.832458,-27.59359
1605,BRISBANE,Donnybrook,QLD,4510,153.041702,-27.024475
1606,BRISBANE,Doolandella,QLD,4077,152.982452,-27.60709
1607,BRISBANE,Doomben,QLD,4007,153.075775,-27.42808
1608,BRISBANE,Dorrington,QLD,4060,152.988037,-27.437019
1609,BRISBANE,Douglas,QLD,4354,152.981178,-27.419125
1610,BRISBANE,Draper,QLD,4520,152.948059,-27.347424
1611,BRISBANE,Drayton,QLD,4350,152.981178,-27.419125
1612,BRISBANE,Drewvale,QLD,4116,153.050217,-27.6392
1613,BRISBANE,Dulong,QLD,4560,153.044159,-27.441929
1614,BRISBANE,Dunwich,QLD,4183,153.26062,-27.541609
1615,BRISBANE,Durack,QLD,4077,152.981308,-27.586069
1616,BRISBANE,Dutton Park,QLD,4102,153.024475,-27.4949
1617,BRISBANE,Eagle Farm,QLD,4009,153.091156,-27.430731
1618,BRISBANE,Eagle Heights,QLD,4271,152.981178,-27.419125
1619,BRISBANE,Eagle Junction,QLD,4011,153.051437,-27.415051
1620,BRISBANE,Eagleby,QLD,4207,153.212616,-27.70248
1621,BRISBANE,East Brisbane,QLD,4169,153.043686,-27.4835
1622,BRISBANE,East Cooyar,QLD,4353,153.020096,-27.358547
1623,BRISBANE,East Haldon,QLD,4343,152.939194,-27.444235
1624,BRISBANE,East Ipswich,QLD,4305,152.777206,-27.61273
1625,BRISBANE,East Nanango,QLD,4615,153.196808,-27.534613
1626,BRISBANE,East Toowoomba,QLD,4350,153.113113,-27.635914
1627,BRISBANE,Eastern Heights,QLD,4305,152.771927,-27.627541
1628,BRISBANE,Eastlake,QLD,4350,152.932327,-27.547029
1629,BRISBANE,Eatons Hill,QLD,4037,152.944107,-27.329321
1630,BRISBANE,Ebbw Vale,QLD,4304,152.825516,-27.60524
1631,BRISBANE,Edens Landing,QLD,4207,153.167557,-27.70022
1632,BRISBANE,Egypt,QLD,4344,152.981178,-27.419125
1633,BRISBANE,Eight Mile Plains,QLD,4113,153.087616,-27.57555
1634,BRISBANE,Ekibin,QLD,4121,153.039536,-27.51598
1635,BRISBANE,Elaman Creek,QLD,4552,152.71582,-27.372824
1636,BRISBANE,Elanora,QLD,4221,152.968216,-27.559958
1637,BRISBANE,Elimbah,QLD,4516,153.073715,-27.043003
1638,BRISBANE,Ellangowan,QLD,4361,153.043274,-27.518955
1639,BRISBANE,Ellen Grove,QLD,4078,152.947754,-27.612181
1640,BRISBANE,Elphinstone,QLD,4361,152.981178,-27.419125
1641,BRISBANE,Emu Vale,QLD,4371,153.042114,-27.48856
1642,BRISBANE,Enoggera,QLD,4051,152.990204,-27.42234
1643,BRISBANE,Enoggera Reservoir,QLD,4520,152.864838,-27.429859
1644,BRISBANE,Esk,QLD,4312,152.981178,-27.419125
1645,BRISBANE,Eudlo,QLD,4554,153.313553,-27.669523
1646,BRISBANE,Eumundi,QLD,4562,153.264328,-27.777143
1647,BRISBANE,Everton Hills,QLD,4053,152.983185,-27.38413
1648,BRISBANE,Everton Park,QLD,4053,152.986923,-27.39946
1649,BRISBANE,Fairfield,QLD,4103,153.023117,-27.510151
1650,BRISBANE,Fairney View,QLD,4306,152.376358,-27.15744
1651,BRISBANE,Federal,QLD,4568,153.009796,-27.455498
1652,BRISBANE,Felton,QLD,4358,152.981644,-27.438238
1653,BRISBANE,Felton South,QLD,4358,152.981644,-27.438238
1654,BRISBANE,Fernvale,QLD,4306,152.649063,-27.46159
1655,BRISBANE,Ferny Grove,QLD,4055,152.936737,-27.40152
1656,BRISBANE,Ferny Hills,QLD,4055,152.937759,-27.40062
1657,BRISBANE,Fig Tree Pocket,QLD,4069,152.956436,-27.52504
1658,BRISBANE,Finnie,QLD,4350,153.061508,-27.334991
1659,BRISBANE,Fitzgibbon,QLD,4018,153.035126,-27.349529
1660,BRISBANE,Flagstone Creek,QLD,4344,152.994293,-27.79636
1661,BRISBANE,Flinders View,QLD,4305,152.775146,-27.651159
1662,BRISBANE,Florida Gardens,QLD,4218,153.073196,-27.461861
1663,BRISBANE,Fordsdale,QLD,4343,153.007523,-27.657648
1664,BRISBANE,Forest Hill,QLD,4342,153.045914,-27.428537
1665,BRISBANE,Forest Lake,QLD,4078,152.970184,-27.612829
1666,BRISBANE,Forestdale,QLD,4118,153.008698,-27.667311
1667,BRISBANE,Fortitude Valley,QLD,4006,153.035324,-27.458139
1668,BRISBANE,Frazerview,QLD,4309,153.026123,-27.507856
1669,BRISBANE,Fruitgrove,QLD,4113,153.080627,-27.59696
1670,BRISBANE,Fulham,QLD,4313,152.981178,-27.419125
1671,BRISBANE,Gailes,QLD,4300,152.915894,-27.611099
1672,BRISBANE,Galloways Hill,QLD,4171,153.063858,-27.474461
1673,BRISBANE,Gatton,QLD,4343,153.085052,-27.533175
1674,BRISBANE,Gatton College,QLD,4345,153.085052,-27.533175
1675,BRISBANE,Gaven,QLD,4211,152.938263,-27.452997
1676,BRISBANE,Gaythorne,QLD,4051,152.982208,-27.41741
1677,BRISBANE,Geebung,QLD,4034,153.047363,-27.369089
1678,BRISBANE,George Street,QLD,4003,153.021683,-27.469034
1679,BRISBANE,Gilberton,QLD,4208,152.972366,-27.634153
1680,BRISBANE,Gilston,QLD,4211,152.960724,-27.412165
1681,BRISBANE,Glan Devon,QLD,4615,153.212128,-27.727554
1682,BRISBANE,Glass House Mountains,QLD,4518,152.991898,-27.23984
1683,BRISBANE,Glen Cairn,QLD,4342,152.699707,-27.726273
1684,BRISBANE,Glen Esk,QLD,4312,153.097397,-27.519516
1685,BRISBANE,Glenhaven,QLD,4355,153.021683,-27.400059
1686,BRISBANE,Glennie Heights,QLD,4370,152.887451,-27.619411
1687,BRISBANE,Glenore Grove,QLD,4342,152.963135,-27.416061
1688,BRISBANE,Glenvale,QLD,4350,152.981178,-27.419125
1689,BRISBANE,Godwin Beach,QLD,4511,153.055923,-27.453791
1690,BRISBANE,Gold Coast,QLD,9726,153.216507,-27.498869
1691,BRISBANE,Golden Beach,QLD,4551,153.045837,-27.599846
1692,BRISBANE,Goodna,QLD,4300,152.898407,-27.610769
1693,BRISBANE,Googa Creek,QLD,4306,152.068832,-26.939243
1694,BRISBANE,Goolman,QLD,4306,152.940506,-27.499741
1695,BRISBANE,Goombungee,QLD,4354,152.981178,-27.419125
1696,BRISBANE,Goomburra,QLD,4362,152.947067,-27.60813
1697,BRISBANE,Gordon Park,QLD,4031,153.029083,-27.414129
1698,BRISBANE,Graceville,QLD,4075,152.976456,-27.52249
1699,BRISBANE,Graceville East,QLD,4075,152.981842,-27.524639
1700,BRISBANE,Grandchester,QLD,4340,153.060486,-27.592676
1701,BRISBANE,Grange,QLD,4051,153.015564,-27.426081
1702,BRISBANE,Grantham,QLD,4347,153.026108,-27.495251
1703,BRISBANE,Greenbank,QLD,4124,152.984726,-27.733459
1705,BRISBANE,Greenmount,QLD,4359,153.070526,-27.517332
1706,BRISBANE,Greenmount East,QLD,4359,153.070526,-27.517332
1707,BRISBANE,Greenslopes,QLD,4120,153.052216,-27.50985
1708,BRISBANE,Griffin,QLD,4503,153.019913,-27.274
1709,BRISBANE,Griffith University,QLD,4111,153.05957,-27.550446
1710,BRISBANE,Grovely,QLD,4054,152.963455,-27.403919
1711,BRISBANE,Guanaba,QLD,4210,152.953415,-27.191177
1712,BRISBANE,Gumdale,QLD,4154,153.152557,-27.494921
1713,BRISBANE,Haden,QLD,4353,153.022217,-27.57975
1714,BRISBANE,Haigslea,QLD,4306,152.376358,-27.15744
1715,BRISBANE,Hamilton,QLD,4007,153.064606,-27.4375
1716,BRISBANE,Harlaxton,QLD,4350,153.063705,-27.436567
1717,BRISBANE,Harlin,QLD,4306,152.74704,-27.605246
1718,BRISBANE,Harper Creek,QLD,4552,152.981178,-27.419125
1719,BRISBANE,Harristown,QLD,4350,153.035995,-27.460314
1720,BRISBANE,Harrisville,QLD,4307,153.059387,-27.561104
1721,BRISBANE,Hawthorne,QLD,4171,153.059631,-27.466049
1722,BRISBANE,Headington Hill,QLD,4361,152.981178,-27.419125
1723,BRISBANE,Heathwood,QLD,4110,152.981674,-27.64304
1724,BRISBANE,Helensvale,QLD,4212,152.956757,-27.384789
1725,BRISBANE,Helidon,QLD,4344,153.267059,-27.779783
1726,BRISBANE,Helidon Spa,QLD,4344,152.981178,-27.419125
1727,BRISBANE,Hemmant,QLD,4174,153.125519,-27.44548
1728,BRISBANE,Hendra,QLD,4011,153.073624,-27.41975
1729,BRISBANE,Heritage Park,QLD,4118,153.061584,-27.67918
1730,BRISBANE,Herston,QLD,4006,153.026123,-27.44968
1731,BRISBANE,Highgate Hill,QLD,4101,153.017548,-27.487181
1732,BRISBANE,Highland Park,QLD,4211,153.128357,-27.491623
1733,BRISBANE,Highvale,QLD,4520,153.080811,-27.583117
1734,BRISBANE,Hillcrest,QLD,4118,153.036453,-27.660431
1735,BRISBANE,Holland Park,QLD,4121,153.063522,-27.51494
1736,BRISBANE,Holland Park West,QLD,4121,153.060745,-27.522579
1737,BRISBANE,Hollywell,QLD,4216,153.130234,-27.484013
1738,BRISBANE,Holmview,QLD,4207,153.17186,-27.710409
1739,BRISBANE,Holts Hill,QLD,4306,152.707062,-27.503071
1740,BRISBANE,Hope Island,QLD,4212,152.981178,-27.419125
1741,BRISBANE,Hunchy,QLD,4555,152.981178,-27.419125
1742,BRISBANE,Ilkley,QLD,4554,153.021439,-27.463715
1743,BRISBANE,Inala,QLD,4077,152.974411,-27.5973
1744,BRISBANE,Indooroopilly,QLD,4068,152.975754,-27.49894
1745,BRISBANE,Ingoldsby,QLD,4343,152.981178,-27.419125
1746,BRISBANE,Ipswich,QLD,4305,152.765274,-27.616489
1747,BRISBANE,Ironbark,QLD,4306,152.667953,-27.556713
1748,BRISBANE,Ironside,QLD,4067,153.001953,-27.504459
1749,BRISBANE,Isle Of Capri,QLD,4217,152.981178,-27.419125
1750,BRISBANE,Ithaca,QLD,4059,152.995056,-27.45071
1751,BRISBANE,Jacobs Well,QLD,4208,153.316338,-27.75574
1752,BRISBANE,Jamboree Heights,QLD,4074,152.9319,-27.556259
1753,BRISBANE,Jimboomba,QLD,4280,152.981178,-27.419125
1754,BRISBANE,Jimna,QLD,4515,152.981178,-27.419125
1755,BRISBANE,Jindalee,QLD,4074,152.94223,-27.53866
1756,BRISBANE,Johnstown,QLD,4615,153.058716,-27.445492
1757,BRISBANE,Jollys Lookout,QLD,4520,152.814774,-27.402081
1758,BRISBANE,Joyner,QLD,4500,152.953323,-27.268721
1759,BRISBANE,Junction View,QLD,4343,152.850983,-27.57892
1760,BRISBANE,Kalbar,QLD,4309,153.047913,-27.390699
1761,BRISBANE,Kalinga,QLD,4030,153.045898,-27.40933
1762,BRISBANE,Kallangur,QLD,4503,152.992584,-27.240919
1763,BRISBANE,Kangaroo Point,QLD,4169,153.035706,-27.47801
1764,BRISBANE,Karalee,QLD,4306,152.820786,-27.566629
1765,BRISBANE,Karana Downs,QLD,4306,152.822968,-27.54722
1766,BRISBANE,Karawatha,QLD,4117,153.094254,-27.62282
1767,BRISBANE,Karragarra Island,QLD,4184,152.981178,-27.419125
1768,BRISBANE,Kearneys Spring,QLD,4350,152.981178,-27.419125
1769,BRISBANE,Kedron,QLD,4031,153.031586,-27.40329
1770,BRISBANE,Kelvin Grove,QLD,4059,153.009308,-27.44536
1771,BRISBANE,Kenilworth,QLD,4574,152.981178,-27.419125
1772,BRISBANE,Kenmore,QLD,4069,152.938492,-27.50843
1773,BRISBANE,Kenmore Hills,QLD,4069,152.926056,-27.49497
1774,BRISBANE,Kensington Grove,QLD,4341,153.018997,-27.743881
1775,BRISBANE,Keperra,QLD,4054,152.962021,-27.41234
1776,BRISBANE,Kerrydale,QLD,4226,153.063614,-27.531601
1777,BRISBANE,Kholo,QLD,4306,152.766785,-27.49745
1778,BRISBANE,Kiels Mountain,QLD,4559,153.088837,-27.507774
1779,BRISBANE,Kilcoy,QLD,4515,153.087814,-27.380581
1780,BRISBANE,Killarney,QLD,4373,152.981178,-27.419125
1781,BRISBANE,Kimberley Park,QLD,4128,153.183334,-27.64135
1782,BRISBANE,King Scrub,QLD,4521,153.116348,-27.499901
1783,BRISBANE,Kings Beach,QLD,4551,152.979492,-27.494623
1784,BRISBANE,Kings Creek,QLD,4361,152.979492,-27.494623
1785,BRISBANE,Kingsholme,QLD,4208,153.049759,-27.462044
1786,BRISBANE,Kingston,QLD,4114,153.114243,-27.656691
1787,BRISBANE,Kippa-Ring,QLD,4021,153.083084,-27.22049
1788,BRISBANE,Kirra,QLD,4225,152.981178,-27.419125
1789,BRISBANE,Kooralbyn,QLD,4285,153.183853,-27.458134
1790,BRISBANE,Kooringal,QLD,4025,153.41951,-27.34973
1791,BRISBANE,Kunda Park,QLD,4556,152.939407,-27.077215
1792,BRISBANE,Kunioon,QLD,4615,152.981178,-27.419125
1793,BRISBANE,Kuraby,QLD,4112,153.092712,-27.60638
1794,BRISBANE,Kurwongbah,QLD,4503,152.96553,-27.253609
1795,BRISBANE,Labrador,QLD,4215,153.18988,-27.653217
1796,BRISBANE,Laceys Creek,QLD,4521,152.705795,-27.279045
1797,BRISBANE,Laidley,QLD,4341,152.748672,-27.60779
1798,BRISBANE,Laidley Creek West,QLD,4341,152.705795,-27.279045
1799,BRISBANE,Laidley Heights,QLD,4341,152.981178,-27.419125
1800,BRISBANE,Laidley North,QLD,4341,152.748672,-27.60779
1801,BRISBANE,Lake Clarendon,QLD,4343,152.981178,-27.419125
1802,BRISBANE,Lake Macdonald,QLD,4563,152.981178,-27.419125
1803,BRISBANE,Lake Manchester,QLD,4306,152.735565,-27.482603
1804,BRISBANE,Lamb Island,QLD,4184,152.981178,-27.419125
1805,BRISBANE,Lamington National Park,QLD,4275,152.981178,-27.419125
1806,BRISBANE,Landsborough,QLD,4550,152.981178,-27.419125
1807,BRISBANE,Lanefield,QLD,4340,153.136917,-27.603004
1808,BRISBANE,Larapinta,QLD,4110,153.021255,-27.629539
1809,BRISBANE,Latimer,QLD,4211,152.981178,-27.419125
1810,BRISBANE,Lawes,QLD,4343,153.058502,-27.435946
1811,BRISBANE,Lawnton,QLD,4501,152.982193,-27.282475
1812,BRISBANE,Lefthand Branch,QLD,4343,152.981178,-27.419125
1813,BRISBANE,Leichhardt,QLD,4305,152.735901,-27.624901
1814,BRISBANE,Lilydale,QLD,4344,152.981178,-27.419125
1815,BRISBANE,Limestone Ridges,QLD,4305,152.727585,-27.837404
1816,BRISBANE,Lindum,QLD,4178,153.143814,-27.442249
1817,BRISBANE,Linville,QLD,4306,152.208374,-26.725344
1818,BRISBANE,Little Mountain,QLD,4551,152.981178,-27.419125
1819,BRISBANE,Lockyer,QLD,4344,152.981178,-27.419125
1820,BRISBANE,Lockyer Waters,QLD,4311,152.981178,-27.419125
1821,BRISBANE,Logan Central,QLD,4114,153.107452,-27.640329
1822,BRISBANE,Logan Reserve,QLD,4133,153.099442,-27.726686
1823,BRISBANE,Logan Village,QLD,4207,153.223854,-27.787655
1824,BRISBANE,Logandale,QLD,4129,153.201965,-27.67025
1825,BRISBANE,Loganholme,QLD,4129,153.185791,-27.67255
1826,BRISBANE,Loganlea,QLD,4131,153.1362,-27.670691
1827,BRISBANE,Long Pocket,QLD,4068,152.995667,-27.51441
1828,BRISBANE,Lota,QLD,4179,153.18367,-27.47052
1829,BRISBANE,Lower Cressbrook,QLD,4313,152.885773,-27.595289
1830,BRISBANE,Lower Mount Walker,QLD,4340,153.038834,-27.60289
1831,BRISBANE,Lower Tenthill,QLD,4343,152.981178,-27.419125
1832,BRISBANE,Lowood,QLD,4311,152.981178,-27.419125
1833,BRISBANE,Luscombe,QLD,4207,153.083527,-27.591536
1834,BRISBANE,Lutwyche,QLD,4030,153.03392,-27.4221
1835,BRISBANE,Lynford,QLD,4342,152.982956,-27.362846
1836,BRISBANE,Lytton,QLD,4178,153.141983,-27.4296
1837,BRISBANE,Ma Ma Creek,QLD,4347,153.055984,-27.551781
1838,BRISBANE,Macgregor,QLD,4109,153.072632,-27.56131
1839,BRISBANE,Mackenzie,QLD,4156,153.122147,-27.538799
1840,BRISBANE,Maclean,QLD,4280,152.981178,-27.419125
1841,BRISBANE,Macleay Island,QLD,4184,152.981178,-27.419125
1842,BRISBANE,Maidenwell,QLD,4615,153.265625,-27.78126
1843,BRISBANE,Main Beach,QLD,4217,153.137634,-27.391438
1844,BRISBANE,Maleny,QLD,4552,153.007263,-27.370758
1845,BRISBANE,Manapouri,QLD,4361,152.981178,-27.419125
1846,BRISBANE,Mango Hill,QLD,4509,153.020111,-27.24299
1847,BRISBANE,Manly,QLD,4179,153.185837,-27.454229
1848,BRISBANE,Manly West,QLD,4179,153.163116,-27.468019
1849,BRISBANE,Mansfield,QLD,4122,153.094879,-27.532681
1850,BRISBANE,Mapleton,QLD,4560,152.981178,-27.419125
1851,BRISBANE,Marburg,QLD,4346,152.626541,-27.511347
1852,BRISBANE,Marcoola,QLD,4564,153.043793,-27.686958
1853,BRISBANE,Marcus Beach,QLD,4573,152.981178,-27.419125
1854,BRISBANE,Margate,QLD,4019,153.099442,-27.242371
1855,BRISBANE,Margate Beach,QLD,4019,153.110825,-27.24374
1856,BRISBANE,Maroochy River,QLD,4561,152.981178,-27.419125
1857,BRISBANE,Maroochydore,QLD,4558,152.981178,-27.419125
1858,BRISBANE,Maroochydore Bc,QLD,4558,152.981178,-27.419125
1859,BRISBANE,Marsden,QLD,4132,153.090042,-27.673731
1860,BRISBANE,Maryvale,QLD,4370,152.981178,-27.419125
1861,BRISBANE,Mater Hill,QLD,4101,153.028625,-27.48439
1862,BRISBANE,Mater Hospital,QLD,4101,153.027649,-27.485741
1863,BRISBANE,Maudsland,QLD,4210,152.935638,-27.521091
1864,BRISBANE,Mcdowall,QLD,4053,152.98909,-27.38776
1865,BRISBANE,Meadowbrook,QLD,4131,153.140976,-27.663771
1866,BRISBANE,Meeandah,QLD,4008,153.10553,-27.425949
1867,BRISBANE,Mermaid Beach,QLD,4218,152.981178,-27.419125
1868,BRISBANE,Mermaid Waters,QLD,4218,152.981178,-27.419125
1869,BRISBANE,Merrimac,QLD,4226,152.931335,-27.540545
1870,BRISBANE,Merryvale,QLD,4340,153.015411,-27.473372
1871,BRISBANE,Miami,QLD,4220,153.205643,-27.734398
1872,BRISBANE,Miami Keys,QLD,4218,152.981178,-27.419125
1873,BRISBANE,Middle Park,QLD,4074,152.923111,-27.55479
1874,BRISBANE,Middle Ridge,QLD,4350,153.019272,-27.680504
1875,BRISBANE,Milton,QLD,4064,153.005295,-27.46859
1876,BRISBANE,Minden,QLD,4311,153.059692,-27.583946
1877,BRISBANE,Missen Flat,QLD,4361,152.981178,-27.419125
1878,BRISBANE,Mitchelton,QLD,4053,152.976944,-27.41334
1879,BRISBANE,Moffat Beach,QLD,4551,152.981178,-27.419125
1880,BRISBANE,Moggill,QLD,4070,152.879684,-27.56888
1881,BRISBANE,Molendinar,QLD,4214,152.838974,-27.528416
1882,BRISBANE,Monsildale,QLD,4306,152.393188,-26.730913
1883,BRISBANE,Montville,QLD,4560,152.971756,-27.633764
1884,BRISBANE,Mooloolaba,QLD,4557,153.024307,-27.674858
1885,BRISBANE,Mooloolah,QLD,4553,153.024307,-27.674858
1886,BRISBANE,Moombra,QLD,4312,152.938126,-27.540012
1887,BRISBANE,Moore,QLD,4306,152.376358,-27.15744
1888,BRISBANE,Moores Pocket,QLD,4305,152.775665,-27.597059
1889,BRISBANE,Moorina,QLD,4516,152.872818,-27.167004
1890,BRISBANE,Moorooka,QLD,4105,153.025085,-27.532841
1891,BRISBANE,Morayfield,QLD,4506,152.949921,-27.10891
1892,BRISBANE,Morningside,QLD,4170,153.070435,-27.46744
1893,BRISBANE,Morton Vale,QLD,4343,153.369202,-27.790419
1894,BRISBANE,Mount Binga,QLD,4306,152.003815,-26.967934
1895,BRISBANE,Mount Byron,QLD,4312,153.039017,-27.601978
1896,BRISBANE,Mount Coolum,QLD,4573,153.132355,-27.547161
1897,BRISBANE,Mount Coot-Tha,QLD,4066,152.963303,-27.480789
1898,BRISBANE,Mount Cotton,QLD,4165,153.240646,-27.638786
1899,BRISBANE,Mount Crosby,QLD,4306,152.831833,-27.52692
1900,BRISBANE,Mount Delaney,QLD,4514,152.929626,-27.538044
1901,BRISBANE,Mount Glorious,QLD,4520,152.88559,-27.373453
1902,BRISBANE,Mount Gravatt,QLD,4122,153.072723,-27.530319
1903,BRISBANE,Mount Gravatt East,QLD,4122,153.089905,-27.526751
1904,BRISBANE,Mount Kynoch,QLD,4350,152.981178,-27.419125
1905,BRISBANE,Mount Lofty,QLD,4350,153.038773,-27.603376
1906,BRISBANE,Mount Marshall,QLD,4362,152.981178,-27.419125
1907,BRISBANE,Mount Mee,QLD,4521,152.926407,-27.439739
1908,BRISBANE,Mount Molar,QLD,4361,153.039017,-27.601978
1909,BRISBANE,Mount Mort,QLD,4340,153.081894,-27.470318
1910,BRISBANE,Mount Nathan,QLD,4211,152.981178,-27.419125
1911,BRISBANE,Mount Nebo,QLD,4520,152.927628,-27.442192
1912,BRISBANE,Mount Ommaney,QLD,4074,152.931793,-27.54439
1913,BRISBANE,Mount Pleasant,QLD,4521,153.214096,-27.48287
1914,BRISBANE,Mount Rascal,QLD,4350,152.981178,-27.419125
1915,BRISBANE,Mount Samson,QLD,4520,153.039017,-27.601978
1916,BRISBANE,Mount Stanley,QLD,4306,152.102905,-26.65066
1917,BRISBANE,Mount Sylvia,QLD,4343,152.981178,-27.419125
1918,BRISBANE,Mount Tamborine,QLD,4272,153.03685,-27.603746
1919,BRISBANE,Mount Walker West,QLD,4340,153.038834,-27.60289
1920,BRISBANE,Mount Warren Park,QLD,4207,153.212494,-27.724871
1921,BRISBANE,Mount Whitestone,QLD,4347,152.981178,-27.419125
1922,BRISBANE,Mountain Creek,QLD,4557,152.999023,-27.23377
1923,BRISBANE,Moy Pocket,QLD,4574,153.010971,-27.446907
1924,BRISBANE,Mudgeeraba,QLD,4213,152.981178,-27.419125
1925,BRISBANE,Mudjimba,QLD,4564,152.981178,-27.419125
1926,BRISBANE,Muirlea,QLD,4306,152.968277,-27.561621
1927,BRISBANE,Munruben,QLD,4125,153.027496,-27.73666
1928,BRISBANE,Murarrie,QLD,4172,153.108536,-27.44993
1929,BRISBANE,Murrumba Downs,QLD,4503,153.017746,-27.273979
1930,BRISBANE,Nambour,QLD,4560,152.981178,-27.419125
1931,BRISBANE,Nanango,QLD,4615,153.196808,-27.534613
1932,BRISBANE,Narangba,QLD,4504,152.934677,-27.18552
1933,BRISBANE,Nashville,QLD,4017,153.050858,-27.30652
1934,BRISBANE,Nathan,QLD,4111,153.064148,-27.550911
1935,BRISBANE,Natural Bridge,QLD,4211,152.981178,-27.419125
1936,BRISBANE,Nerang,QLD,4211,153.141403,-27.693344
1937,BRISBANE,Neumgna,QLD,4614,152.981178,-27.419125
1938,BRISBANE,Nevilton,QLD,4361,152.978363,-27.281721
1939,BRISBANE,New Chum,QLD,4303,152.83255,-27.603701
1940,BRISBANE,New Farm,QLD,4005,153.04451,-27.4659
1941,BRISBANE,Newmarket,QLD,4051,153.010406,-27.431259
1942,BRISBANE,Newstead,QLD,4006,153.045273,-27.453899
1943,BRISBANE,Newtown,QLD,4350,152.981178,-27.419125
1945,BRISBANE,Ningi,QLD,4511,153.062119,-27.574684
1946,BRISBANE,Nobby,QLD,4360,153.037827,-27.244347
1947,BRISBANE,Nobby Beach,QLD,4218,152.981178,-27.419125
1948,BRISBANE,Noosa Heads,QLD,4567,152.981178,-27.419125
1949,BRISBANE,Noosaville,QLD,4566,153.062973,-27.609537
1950,BRISBANE,Norman Park,QLD,4170,153.055923,-27.4741
1951,BRISBANE,Normanby,QLD,4059,153.014984,-27.45575
1952,BRISBANE,North Booval,QLD,4304,152.790192,-27.60689
1953,BRISBANE,North Ipswich,QLD,4305,152.763565,-27.597441
1954,BRISBANE,North Maleny,QLD,4552,153.007263,-27.370758
1955,BRISBANE,North Tamborine,QLD,4272,152.996185,-27.422716
1956,BRISBANE,North Tivoli,QLD,4305,152.784103,-27.578159
1957,BRISBANE,North Toowoomba,QLD,4350,153.113113,-27.635914
1958,BRISBANE,Northgate,QLD,4013,153.073547,-27.389999
1959,BRISBANE,Northlands,QLD,4350,153.069458,-27.387815
1960,BRISBANE,Norwell,QLD,4208,153.313293,-27.778246
1961,BRISBANE,Nudgee,QLD,4014,153.091614,-27.365601
1962,BRISBANE,Nudgee Beach,QLD,4014,153.104294,-27.35471
1963,BRISBANE,Nukku,QLD,4306,152.114395,-26.903637
1964,BRISBANE,Numinbah Valley,QLD,4211,152.981178,-27.419125
1965,BRISBANE,Nundah,QLD,4012,153.059998,-27.40196
1966,BRISBANE,Ocean View,QLD,4521,153.266586,-27.542242
1967,BRISBANE,One Mile,QLD,4305,152.742966,-27.627451
1968,BRISBANE,Opossum Creek,QLD,4300,152.914337,-27.671724
1969,BRISBANE,Ormeau,QLD,4208,153.244217,-27.76524
1970,BRISBANE,Ormeau Hills,QLD,4208,153.240204,-27.791451
1971,BRISBANE,Ormiston,QLD,4160,153.252914,-27.511869
1972,BRISBANE,Ottaba,QLD,4313,152.912491,-27.555405
1973,BRISBANE,Oxenford,QLD,4210,152.927933,-27.186775
1974,BRISBANE,Oxford Park,QLD,4053,152.969299,-27.402571
1975,BRISBANE,Oxley,QLD,4075,152.974228,-27.553499
1976,BRISBANE,Pacific Fair,QLD,4218,153.01651,-27.377138
1977,BRISBANE,Pacific Paradise,QLD,4564,152.981178,-27.419125
1978,BRISBANE,Pacific Pines,QLD,4211,152.979095,-27.62442
1979,BRISBANE,Paddington,QLD,4064,153.006683,-27.46195
1980,BRISBANE,Palen Creek,QLD,4287,152.755798,-27.162504
1981,BRISBANE,Pallara,QLD,4110,153.00174,-27.616989
1982,BRISBANE,Palm Beach,QLD,4221,153.37941,-27.67399
1983,BRISBANE,Palmview,QLD,4553,153.007614,-27.465244
1984,BRISBANE,Palmwoods,QLD,4555,153.085724,-27.596651
1985,BRISBANE,Paradise Island,QLD,4217,152.981178,-27.419125
1986,BRISBANE,Paradise Point,QLD,4216,153.371765,-27.793461
1987,BRISBANE,Paradise Point Keys,QLD,4216,152.981178,-27.419125
1988,BRISBANE,Paradise Waters,QLD,4217,152.981178,-27.419125
1989,BRISBANE,Park Ridge,QLD,4125,153.061523,-27.703951
1990,BRISBANE,Parkinson,QLD,4115,153.029327,-27.632389
1991,BRISBANE,Parkwood,QLD,4214,152.981178,-27.419125
1992,BRISBANE,Parliament House,QLD,4000,153.151154,-27.683859
1993,BRISBANE,Patrick Estate,QLD,4311,153.005905,-27.464085
1994,BRISBANE,Peachester,QLD,4519,153.021072,-27.201206
1995,BRISBANE,Peak Crossing,QLD,4306,152.727707,-27.781612
1996,BRISBANE,Peel Island,QLD,4184,152.981178,-27.419125
1997,BRISBANE,Pelican Waters,QLD,4551,152.981178,-27.419125
1998,BRISBANE,Peregian Beach,QLD,4573,152.942093,-27.181543
1999,BRISBANE,Perwillowen,QLD,4560,152.981178,-27.419125
2000,BRISBANE,Petrie,QLD,4502,152.974983,-27.262965
2001,BRISBANE,Petrie Terrace,QLD,4000,153.014465,-27.463745
2002,BRISBANE,Picnic Point,QLD,4350,152.997665,-27.41328
2003,BRISBANE,pierce creek,QLD,4355,153.342529,-27.842859
2004,BRISBANE,Pimpama,QLD,4209,153.145386,-27.694429
2005,BRISBANE,Pimpimbudgee,QLD,4615,152.981178,-27.419125
2006,BRISBANE,Pinbarren,QLD,4568,152.874435,-27.351604
2007,BRISBANE,Pine Mountain,QLD,4306,152.684097,-27.503817
2008,BRISBANE,Pinjarra Hills,QLD,4069,152.916946,-27.5298
2009,BRISBANE,Pinkenba,QLD,4008,153.127884,-27.400375
2010,BRISBANE,Pinklands,QLD,4164,153.275833,-27.56694
2011,BRISBANE,Placid Hills,QLD,4343,152.981178,-27.419125
2012,BRISBANE,Plainland,QLD,4341,153.06073,-27.587824
2013,BRISBANE,Point Halloran,QLD,4165,153.307831,-27.565229
2014,BRISBANE,Point Lookout,QLD,4183,152.981178,-27.419125
2015,BRISBANE,Point Talburpin,QLD,4165,153.310806,-27.6437
2016,BRISBANE,Pomona,QLD,4568,152.981178,-27.419125
2017,BRISBANE,Priestdale,QLD,4127,153.155853,-27.591789
2018,BRISBANE,Prince Henry Heights,QLD,4350,152.981178,-27.419125
2019,BRISBANE,Princess Alexandra Hospital,QLD,4102,153.034317,-27.49992
2020,BRISBANE,Pullenvale,QLD,4069,152.89389,-27.52998
2021,BRISBANE,Q Supercentre,QLD,4218,152.981178,-27.419125
2022,BRISBANE,Raby Bay,QLD,4163,153.273285,-27.5168
2023,BRISBANE,Raceview,QLD,4305,152.786835,-27.642321
2024,BRISBANE,Rainbow Bay,QLD,4225,153.063599,-27.32073
2025,BRISBANE,Rainworth,QLD,4065,152.967163,-27.464729
2026,BRISBANE,Rangeville,QLD,4350,153.010254,-27.483229
2027,BRISBANE,Ransome,QLD,4154,153.183533,-27.487
2028,BRISBANE,Rathdowney,QLD,4287,153.025803,-27.666119
2029,BRISBANE,Raymonds Hill,QLD,4305,152.752975,-27.58886
2030,BRISBANE,Red Hill,QLD,4059,153.003815,-27.453329
2031,BRISBANE,Redbank,QLD,4301,152.869324,-27.602909
2032,BRISBANE,Redbank Creek,QLD,4312,153.101273,-27.235607
2033,BRISBANE,Redbank Plains,QLD,4301,152.872589,-27.64093
2034,BRISBANE,Redcliffe,QLD,4020,153.107224,-27.22217
2035,BRISBANE,Redland Bay,QLD,4165,153.293716,-27.60936
2036,BRISBANE,Redwood,QLD,4350,152.981178,-27.419125
2037,BRISBANE,Reedy Creek,QLD,4227,153.103012,-27.23469
2038,BRISBANE,Regents Park,QLD,4118,153.045319,-27.670349
2039,BRISBANE,Richlands,QLD,4077,152.954636,-27.59635
2040,BRISBANE,Ringwood,QLD,4343,152.981033,-27.582098
2041,BRISBANE,Rio Vista,QLD,4218,153.118103,-27.500137
2042,BRISBANE,Ripley,QLD,4306,152.777786,-27.656469
2043,BRISBANE,Riverhills,QLD,4074,152.913712,-27.55954
2044,BRISBANE,Riverside Centre,QLD,4001,153.022774,-27.46512
2045,BRISBANE,Riverview,QLD,4303,152.850815,-27.5961
2046,BRISBANE,Roadvale,QLD,4310,153.034103,-27.565752
2047,BRISBANE,Robertson,QLD,4109,153.055496,-27.56547
2048,BRISBANE,Robina,QLD,4226,153.097397,-27.241783
2049,BRISBANE,Robina Town Centre,QLD,4230,153.097397,-27.241783
2050,BRISBANE,Rochedale,QLD,4123,153.119171,-27.579691
2051,BRISBANE,Rochedale South,QLD,4123,153.131195,-27.596741
2052,BRISBANE,Rocklea,QLD,4106,153.012634,-27.544729
2053,BRISBANE,Rockmount,QLD,4344,152.948624,-27.549276
2054,BRISBANE,Rockside,QLD,4343,153.183304,-27.46644
2055,BRISBANE,Rockville,QLD,4350,153.039917,-27.566244
2056,BRISBANE,Ropeley,QLD,4343,153.143158,-27.455359
2057,BRISBANE,Rosalie,QLD,4064,152.991898,-27.4655
2058,BRISBANE,Rosewood,QLD,4340,152.981178,-27.419125
2059,BRISBANE,Rothwell,QLD,4022,153.053238,-27.21529
2060,BRISBANE,Royal Brisbane Hospital,QLD,4029,153.026917,-27.44768
2061,BRISBANE,Runaway Bay,QLD,4216,152.991226,-27.383911
2062,BRISBANE,Runcorn,QLD,4113,153.072983,-27.595671
2063,BRISBANE,Runnymede,QLD,4615,153.217575,-27.546213
2064,BRISBANE,Rush Creek,QLD,4521,152.981178,-27.419125
2065,BRISBANE,Russell Island,QLD,4184,152.981178,-27.419125
2066,BRISBANE,Ryeford,QLD,4361,153.105392,-27.653221
2067,BRISBANE,Sadliers Crossing,QLD,4305,152.747696,-27.610559
2068,BRISBANE,Salisbury,QLD,4107,153.031769,-27.545111
2069,BRISBANE,Samford,QLD,4520,152.981178,-27.419125
2070,BRISBANE,Samsonvale,QLD,4520,152.982224,-27.303047
2071,BRISBANE,Sanctuary Cove,QLD,4212,152.981178,-27.419125
2072,BRISBANE,Sandgate,QLD,4017,153.066299,-27.3158
2073,BRISBANE,Sandstone Point,QLD,4511,152.981178,-27.419125
2074,BRISBANE,Sandy Camp,QLD,4361,153.148163,-27.435707
2075,BRISBANE,Sandy Ridges,QLD,4615,152.981178,-27.419125
2076,BRISBANE,Santa Barbara,QLD,4212,153.001999,-27.451504
2077,BRISBANE,Scarborough,QLD,4020,153.114014,-27.20532
2078,BRISBANE,Scrub Creek,QLD,4313,153.066788,-27.663292
2079,BRISBANE,Seven Hills,QLD,4170,153.071518,-27.479031
2080,BRISBANE,Seventeen Mile,QLD,4344,152.954681,-27.540573
2081,BRISBANE,Seventeen Mile Rocks,QLD,4073,152.958649,-27.55061
2082,BRISBANE,Shailer Park,QLD,4128,153.172028,-27.651581
2083,BRISBANE,Sheldon,QLD,4157,153.056793,-27.613949
2084,BRISBANE,Shelly Beach,QLD,4551,152.981178,-27.419125
2085,BRISBANE,Sherwood,QLD,4075,152.981171,-27.532181
2086,BRISBANE,Shorncliffe,QLD,4017,153.078873,-27.32448
2087,BRISBANE,Silkstone,QLD,4304,152.787811,-27.620701
2088,BRISBANE,Silver Pinch,QLD,4344,153.005203,-27.340281
2089,BRISBANE,Silver Ridge,QLD,4344,152.953903,-27.285078
2090,BRISBANE,Sinnamon Park,QLD,4073,152.953003,-27.54545
2091,BRISBANE,Slacks Creek,QLD,4127,153.126373,-27.63958
2092,BRISBANE,Somerset Dam,QLD,4312,153.032333,-27.408337
2093,BRISBANE,Sorrento,QLD,4217,152.981178,-27.419125
2094,BRISBANE,South Bank,QLD,4101,153.018112,-27.474131
2095,BRISBANE,South Brisbane,QLD,4101,153.01503,-27.47579
2096,BRISBANE,South East Nanango,QLD,4615,153.196808,-27.534613
2097,BRISBANE,South Ripley,QLD,4306,152.376358,-27.15744
2098,BRISBANE,South Stradbroke,QLD,4216,152.981178,-27.419125
2099,BRISBANE,South Toowoomba,QLD,4350,153.113113,-27.635914
2100,BRISBANE,Southbrook,QLD,4363,153.008514,-27.429655
2101,BRISBANE,Southport,QLD,4215,153.140717,-27.637903
2102,BRISBANE,Southtown,QLD,4350,152.936386,-27.612768
2103,BRISBANE,Sovereign Islands,QLD,4216,152.981178,-27.419125
2104,BRISBANE,Spring Hill,QLD,4004,153.051971,-27.617577
2105,BRISBANE,Springbrook,QLD,4213,152.942108,-27.182451
2106,BRISBANE,Springfield,QLD,4300,152.919937,-27.6486
2107,BRISBANE,Springfield Lakes,QLD,4300,152.915237,-27.667986
2108,BRISBANE,Springwood,QLD,4127,153.132095,-27.61746
2109,BRISBANE,St Johns Wood,QLD,4060,152.974014,-27.44628
2110,BRISBANE,St Lucia,QLD,4067,153.004517,-27.494061
2111,BRISBANE,Stafford,QLD,4053,153.007217,-27.409149
2112,BRISBANE,Stafford Heights,QLD,4053,153.010696,-27.395
2113,BRISBANE,Stapylton,QLD,4207,153.226196,-27.712872
2114,BRISBANE,Steiglitz,QLD,4207,153.348801,-27.744234
2115,BRISBANE,Stockyard,QLD,4344,153.154587,-27.46069
2116,BRISBANE,Stones Corner,QLD,4120,153.049164,-27.498871
2117,BRISBANE,Stony Creek,QLD,4514,153.265152,-27.781954
2118,BRISBANE,Strathpine,QLD,4500,152.987823,-27.30172
2119,BRISBANE,Stretton,QLD,4116,153.067825,-27.615
2120,BRISBANE,Studio Village,QLD,4210,152.981178,-27.419125
2121,BRISBANE,Sumner,QLD,4074,152.934692,-27.56036
2122,BRISBANE,Sumner Park Bc,QLD,4074,152.933853,-27.564119
2123,BRISBANE,Sunnybank,QLD,4109,153.061157,-27.57905
2124,BRISBANE,Sunnybank Hills,QLD,4109,153.05426,-27.61145
2125,BRISBANE,Sunrise Beach,QLD,4567,152.981178,-27.419125
2126,BRISBANE,Sunshine Beach,QLD,4567,152.981178,-27.419125
2127,BRISBANE,Sunshine Plaza,QLD,4558,153.251114,-27.534225
2128,BRISBANE,Surfers Paradise,QLD,4217,152.981178,-27.419125
2129,BRISBANE,Taigum,QLD,4018,153.046295,-27.35043
2130,BRISBANE,Tallai,QLD,4213,153.00708,-27.384369
2131,BRISBANE,Tallebudgera,QLD,4228,152.956467,-27.355808
2132,BRISBANE,Tallebudgera Valley,QLD,4228,152.956467,-27.355808
2133,BRISBANE,Tallegalla,QLD,4340,153.1465,-27.444153
2134,BRISBANE,Tamborine,QLD,4270,152.981178,-27.419125
2135,BRISBANE,Tamborine Village,QLD,4270,152.981178,-27.419125
2136,BRISBANE,Tanah Merah,QLD,4128,153.180984,-27.67724
2137,BRISBANE,Tanawha,QLD,4556,152.861374,-27.563555
2138,BRISBANE,Tangalooma,QLD,4025,153.376053,-27.17671
2139,BRISBANE,Tannymorel,QLD,4372,152.981178,-27.419125
2140,BRISBANE,Taringa,QLD,4068,152.981293,-27.491751
2141,BRISBANE,Tarong,QLD,4615,153.165985,-27.465822
2142,BRISBANE,Tarragindi,QLD,4121,153.045883,-27.524151
2143,BRISBANE,Teelah,QLD,4306,152.376358,-27.15744
2144,BRISBANE,Teneriffe,QLD,4005,153.04866,-27.45883
2145,BRISBANE,Tennyson,QLD,4105,153.00087,-27.524929
2146,BRISBANE,Thagoona,QLD,4306,152.963776,-27.414898
2148,BRISBANE,The Bluff,QLD,4340,152.981178,-27.419125
2149,BRISBANE,The Gap,QLD,4061,152.953186,-27.444981
2150,BRISBANE,The Spit,QLD,4217,152.743225,-27.592688
2151,BRISBANE,Thorneside,QLD,4158,153.192444,-27.488411
2152,BRISBANE,Thornlands,QLD,4164,153.268036,-27.560419
2153,BRISBANE,Tinbeerwah,QLD,4563,152.942291,-27.499069
2154,BRISBANE,Tingalpa,QLD,4173,153.123917,-27.47451
2155,BRISBANE,Tivoli,QLD,4305,152.778885,-27.58288
2156,BRISBANE,Toogoolawah,QLD,4313,152.981178,-27.419125
2157,BRISBANE,Toombul,QLD,4012,153.05983,-27.40766
2158,BRISBANE,Toorbul,QLD,4510,153.159027,-27.083994
2159,BRISBANE,Toowong,QLD,4066,152.985626,-27.478519
2160,BRISBANE,Toowoomba,QLD,4350,153.113113,-27.635914
2161,BRISBANE,Toowoomba City,QLD,4350,152.981178,-27.419125
2162,BRISBANE,Toowoomba East,QLD,4350,153.113113,-27.635914
2163,BRISBANE,Toowoomba South,QLD,4350,153.113113,-27.635914
2164,BRISBANE,Toowoomba West,QLD,4350,153.113113,-27.635914
2165,BRISBANE,Top Camp,QLD,4350,152.981178,-27.419125
2166,BRISBANE,Torwood,QLD,4066,152.992432,-27.47006
2167,BRISBANE,Townson,QLD,4341,153.021637,-27.57077
2168,BRISBANE,Tugun,QLD,4224,153.119919,-27.079012
2169,BRISBANE,Underwood,QLD,4119,153.119675,-27.608509
2170,BRISBANE,University of Queensland,QLD,4072,152.95253,-27.563828
2171,BRISBANE,Upper Brookfield,QLD,4069,152.869675,-27.47821
2172,BRISBANE,Upper Coomera,QLD,4209,153.239807,-27.805864
2173,BRISBANE,Upper Flagstone,QLD,4344,152.981178,-27.419125
2174,BRISBANE,Upper Kedron,QLD,4055,152.919205,-27.4104
2175,BRISBANE,Upper Mount Gravatt,QLD,4122,153.089828,-27.55444
2176,BRISBANE,Upper Tenthill,QLD,4343,152.981178,-27.419125
2177,BRISBANE,Upper Yarraman,QLD,4614,152.981178,-27.419125
2178,BRISBANE,Vale View,QLD,4358,153.010086,-27.449978
2179,BRISBANE,Varsity Lakes,QLD,4227,152.981178,-27.419125
2180,BRISBANE,Veradilla,QLD,4347,153.166183,-27.459385
2181,BRISBANE,Victoria Hill,QLD,4361,152.960434,-27.620121
2182,BRISBANE,Victoria Point,QLD,4165,153.285126,-27.595079
2183,BRISBANE,Vinegar Hill,QLD,4343,152.981178,-27.419125
2184,BRISBANE,Virginia,QLD,4014,153.064636,-27.381689
2185,BRISBANE,Wacol,QLD,4076,152.925095,-27.588551
2186,BRISBANE,Wakerley,QLD,4154,153.151871,-27.47632
2187,BRISBANE,Walloon,QLD,4306,152.664093,-27.605591
2188,BRISBANE,Wamuran,QLD,4512,152.936371,-27.445427
2189,BRISBANE,Wamuran Basin,QLD,4512,152.981178,-27.419125
2190,BRISBANE,Warner,QLD,4500,152.949738,-27.31312
2191,BRISBANE,Warwick,QLD,4370,152.981178,-27.419125
2192,BRISBANE,Washpool,QLD,4309,153.022476,-27.223701
2193,BRISBANE,Waterford,QLD,4133,153.133835,-27.70825
2194,BRISBANE,Waterford West,QLD,4133,153.120605,-27.68561
2195,BRISBANE,Waterfront Place,QLD,4001,153.310059,-27.630993
2196,BRISBANE,Wattle Camp,QLD,4615,152.981178,-27.419125
2197,BRISBANE,Wavell Heights,QLD,4012,153.056526,-27.395921
2198,BRISBANE,Wavell Heights North,QLD,4012,153.049866,-27.38975
2199,BRISBANE,Wellcamp,QLD,4350,152.981178,-27.419125
2200,BRISBANE,Wellers Hill,QLD,4121,153.049973,-27.52421
2201,BRISBANE,Wellington Point,QLD,4160,153.240417,-27.509781
2202,BRISBANE,Welsby,QLD,4507,152.981178,-27.419125
2203,BRISBANE,Wengenville,QLD,4615,152.981178,-27.419125
2204,BRISBANE,West Burleigh,QLD,4219,152.930374,-27.189892
2205,BRISBANE,West End,QLD,4101,153.012329,-27.479691
2206,BRISBANE,West Haldon,QLD,4359,152.939194,-27.444235
2207,BRISBANE,West Ipswich,QLD,4305,152.749863,-27.617979
2208,BRISBANE,Westbrook,QLD,4350,153.101776,-27.252943
2209,BRISBANE,Westlake,QLD,4074,152.912231,-27.54896
2210,BRISBANE,Whinstanes,QLD,4007,153.066696,-27.437349
2211,BRISBANE,White Patch,QLD,4507,153.135483,-27.037018
2212,BRISBANE,Whiteside,QLD,4503,152.934723,-27.255301
2213,BRISBANE,Wights Mountain,QLD,4520,152.875443,-27.376989
2214,BRISBANE,Willawong,QLD,4110,153.00856,-27.596149
2215,BRISBANE,Willow Vale,QLD,4209,152.939606,-27.084036
2216,BRISBANE,Willowbank,QLD,4306,152.682785,-27.660013
2217,BRISBANE,Wilsonton,QLD,4350,153.011749,-27.435253
2218,BRISBANE,Wilston,QLD,4051,153.019623,-27.432199
2219,BRISBANE,Windaroo,QLD,4207,153.191345,-27.7409
2220,BRISBANE,Windsor,QLD,4030,153.028412,-27.437691
2221,BRISBANE,Wintergarden,QLD,4002,153.045242,-27.316393
2222,BRISBANE,Winwill,QLD,4347,153.042633,-27.528992
2223,BRISBANE,Wishart,QLD,4122,153.090836,-27.55468
2224,BRISBANE,Witheren,QLD,4275,152.993423,-27.398876
2225,BRISBANE,Wivenhoe Hill,QLD,4311,153.090881,-27.591791
2226,BRISBANE,Wolffdene,QLD,4207,153.223854,-27.787655
2227,BRISBANE,Wongawallan,QLD,4210,152.981178,-27.419125
2228,BRISBANE,Wonglepong,QLD,4275,152.981178,-27.419125
2229,BRISBANE,Woodbine,QLD,4343,152.981178,-27.419125
2230,BRISBANE,Woodend,QLD,4305,152.750488,-27.61334
2231,BRISBANE,Woodford,QLD,4514,152.981178,-27.419125
2232,BRISBANE,Woodlands,QLD,4343,152.981178,-27.419125
2233,BRISBANE,Woodridge,QLD,4114,153.106506,-27.62858
2234,BRISBANE,Woody Point,QLD,4019,153.102203,-27.258789
2235,BRISBANE,Woolloongabba,QLD,4102,153.035843,-27.489111
2236,BRISBANE,Wooloowin,QLD,4030,153.042755,-27.421431
2237,BRISBANE,Woombye,QLD,4559,153.047943,-27.413601
2238,BRISBANE,Woongoolba,QLD,4207,153.223854,-27.787655
2239,BRISBANE,Woorim,QLD,4507,152.939377,-27.433949
2240,BRISBANE,Wootha,QLD,4552,152.979004,-27.398493
2241,BRISBANE,Worongary,QLD,4213,152.940247,-27.446039
2242,BRISBANE,Wulkuraka,QLD,4305,152.722214,-27.614731
2243,BRISBANE,Wyalla,QLD,4615,152.838623,-27.54254
2244,BRISBANE,Wynnum,QLD,4178,153.171982,-27.44191
2245,BRISBANE,Wynnum West,QLD,4178,153.154846,-27.45475
2246,BRISBANE,Yamanto,QLD,4305,152.746384,-27.664989
2247,BRISBANE,Yandina,QLD,4561,153.017639,-27.200441
2248,BRISBANE,Yangan,QLD,4371,153.174973,-27.637537
2249,BRISBANE,Yaroomba,QLD,4573,152.988846,-27.443621
2250,BRISBANE,Yarraman,QLD,4614,152.981178,-27.419125
2251,BRISBANE,Yatala,QLD,4207,153.226517,-27.73715
2252,BRISBANE,Yeerongpilly,QLD,4105,153.014465,-27.524639
2253,BRISBANE,Yeronga,QLD,4104,153.008545,-27.51055
2254,BRISBANE,Yimbun,QLD,4313,152.981178,-27.419125
2255,BRISBANE,Yugar,QLD,4520,152.981178,-27.419125
2256,BRISBANE,Zillmere,QLD,4034,153.038086,-27.360001
